12100,2009,12,15,00,00,AAXX 15001 12100 16/// /9903 10015 20006 30213 40218 54000 60011=
12100,2009,12,15,06,00,AAXX 15061 12100 11470 23601 10022 21048 30202 40209 57002 60032 702// 82500 333 10029 20005 3/101 47997 55009 20171 70055 93003=
12100,2009,12,15,12,00,AAXX 15121 12100 11470 62201 10016 21012 30197 40204 58009 69931 70281 86300 333 93093=
12100,2009,12,15,18,00,AAXX 15181 12100 16/// /9903 11015 21026 30178 40183 57012 69912 333 10032 20008=
12105,2009,12,15,00,00,AAXX 15001 12105 11450 72102 11003 21004 30172 40216 56001 69931 78584 879// 333 93093=
12105,2009,12,15,03,00,AAXX 15031 12105 41430 31801 11017 21018 30167 40211 56005 72884 83500=
12105,2009,12,15,06,00,AAXX 15061 12105 11456 72401 11015 21016 30166 40210 57001 69972 72684 879// 333 10001 21018 3/108 47004 55001 70079 93094=
12105,2009,12,15,09,00,AAXX 15091 12105 41450 71701 11013 21014 30170 40214 50004 71082 86901=
12105,2009,12,15,12,00,AAXX 15121 12105 11457 71702 11008 21021 30161 40205 57009 69901 71082 879// 333 93097=
12105,2009,12,15,15,00,AAXX 15151 12105 41430 71502 11012 21016 30153 40197 57008 72622 875//=
12105,2009,12,15,18,00,AAXX 15181 12105 11456 81703 11014 21017 30141 40185 57012 69902 71082 885// 333 11004 21017 93097=
12105,2009,12,15,21,00,AAXX 15211 12105 41240 81903 11025 21028 30133 40177 57008 71011 886//=
12115,2009,12,15,00,00,AAXX 15001 12115 11475 32003 11006 21007 30193 40208 53002 69901 70381 83500 333 93097=
12115,2009,12,15,03,00,AAXX 15031 12115 41/08 91903 11014 21014 30190 40205 55003 74311=
12115,2009,12,15,06,00,AAXX 15061 12115 11380 73605 10023 21015 30187 40202 57003 69922 70184 873// 333 10026 21017 31102 70018 91109 93092=
12115,2009,12,15,09,00,AAXX 15091 12115 42484 53503 10022 21029 30192 40207 51005 85200=
12115,2009,12,15,12,00,AAXX 15121 12115 12484 43203 10029 21032 30182 40197 58010 60001 82506 333 93000=
12115,2009,12,15,15,00,AAXX 15151 12115 41465 51903 10004 21006 30174 40189 58008 72711 85300=
12115,2009,12,15,18,00,AAXX 15181 12115 11360 72006 11010 21013 30162 40177 57012 69922 70381 873// 333 10033 21010 93092=
12115,2009,12,15,21,00,AAXX 15211 12115 41370 72106 11005 21009 30151 40166 57011 70282 873//=
12120,2009,12,15,00,00,AAXX 15001 12120 11465 61903 11019 21025 30204 40212 51006 60021 72682 863// 333 93002=
12120,2009,12,15,03,00,AAXX 15031 12120 41465 71802 11032 21037 30201 40209 55003 72622 873//=
12120,2009,12,15,06,00,AAXX 15061 12120 11405 81702 11024 21025 30197 40205 57004 60012 74682 882// 333 10017 21033 3/105 47001 55004 70040 93097=
12120,2009,12,15,09,00,AAXX 15091 12120 41440 71803 11019 21020 30201 40209 52004 78742 873//=
12120,2009,12,15,12,00,AAXX 15121 12120 11361 71803 11008 21009 30190 40198 58011 69901 70384 873// 333 93097=
12120,2009,12,15,15,00,AAXX 15151 12120 42461 71703 11013 21016 30184 40192 58006 85232=
12120,2009,12,15,18,00,AAXX 15181 12120 11461 71903 11013 21016 30172 40180 57012 69902 78522 873// 333 11005 21024 93097=
12120,2009,12,15,21,00,AAXX 15211 12120 41565 71804 11014 21020 30160 40168 57012 72682 873//=
12124,2009,12,15,00,00,AAXX 15001 12124 42660 42103 10002 21004 40207 54002 84500 555 6//96=
12124,2009,12,15,02,00,AAXX 15021 12124 42560 52403 11005 21009 40204 54003 84500 555 6//98=
12124,2009,12,15,03,00,AAXX 15031 12124 41560 70104 10008 20002 40204 54000 72682 875// 555 6//96=
12124,2009,12,15,04,00,AAXX 15041 12124 41660 89901 10007 20000 40201 54000 77072 885// 555 6//95=
12124,2009,12,15,05,00,AAXX 15051 12124 42660 89901 10002 21005 40201 54001 885// 555 6//95=
12124,2009,12,15,06,00,AAXX 15061 12124 42660 79901 11002 21009 40202 57005 875// 555 6//95=
12124,2009,12,15,07,00,AAXX 15071 12124 42660 79901 10005 21005 40205 54001 875// 555 6//93=
12124,2009,12,15,08,00,AAXX 15081 12124 42660 71201 10002 21019 40207 54003 875// 555 6//86=
12124,2009,12,15,10,00,AAXX 15101 12124 42660 51702 10014 21001 40204 57001 85500 555 6//90=
12124,2009,12,15,11,00,AAXX 15111 12124 42660 51802 10020 21001 40201 57006 84501 555 6//86=
12124,2009,12,15,12,00,AAXX 15121 12124 42660 61902 10013 20102 40196 57010 865// 555 6//90=
12124,2009,12,15,13,00,AAXX 15131 12124 42660 61902 10008 21005 40194 57010 865// 555 6//91=
12124,2009,12,15,14,00,AAXX 15141 12124 42660 61802 10005 21005 40191 57010 865// 555 6//93=
12124,2009,12,15,16,00,AAXX 15161 12124 41533 81802 10001 21006 40185 57010 77022 885// 555 6//95=
12124,2009,12,15,17,00,AAXX 15171 12124 41533 82004 11002 21008 40180 57011 77077 885// 555 6//96=
12124,2009,12,15,18,00,AAXX 15181 12124 41556 81804 11005 21011 40176 57013 72277 885// 555 6//96=
12124,2009,12,15,19,00,AAXX 15191 12124 42660 62004 11005 21011 40174 57012 865// 555 6//96=
12124,2009,12,15,21,00,AAXX 15211 12124 42660 62004 11009 21020 40168 57008 8557/ 555 6//92=
12124,2009,12,15,22,00,AAXX 15221 12124 42660 62105 11014 21022 40162 57008 8557/ 555 6//94=
12125,2009,12,15,00,00,AAXX 15001 12125 36/// /0000 11042 21050 30164 40216 52003 333 93000=
12125,2009,12,15,03,00,AAXX 15031 12125 46/// /0000 11054 21062 30161 40213 57003=
12125,2009,12,15,06,00,AAXX 15061 12125 11496 80000 11040 21048 30155 40208 57004 60002 71011 885// 333 11029 21057 3/109 43005 70036 93000=
12125,2009,12,15,09,00,AAXX 15091 12125 46/// /0000 11019 21026 30162 40213 52004=
12125,2009,12,15,12,00,AAXX 15121 12125 12497 80000 11010 21020 30150 40202 57010 60001 885// 333 93000=
12125,2009,12,15,15,00,AAXX 15151 12125 46/// /0000 11010 21021 30145 40196 57007=
12125,2009,12,15,18,00,AAXX 15181 12125 11596 70000 11021 21029 30131 40183 57012 60002 71011 875// 333 11007 21040 93000=
12125,2009,12,15,21,00,AAXX 15211 12125 46/// /0000 11009 21023 30124 40175 57010=
12135,2009,12,15,00,00,AAXX 15001 12135 11356 81703 11003 21006 30211 40214 50004 69911 71087 886// 333 88707 93091=
12135,2009,12,15,03,00,AAXX 15031 12135 41228 82301 10001 20001 30207 40210 56004 71022 886// 333 88704=
12135,2009,12,15,06,00,AAXX 15061 12135 11356 81903 10001 21003 30203 40206 57004 69912 71022 885// 333 10007 21004 31101 70017 84707 85614 93000=
12135,2009,12,15,09,00,AAXX 15091 12135 41359 82002 11003 21016 30209 40212 50006 71022 886// 333 88707=
12135,2009,12,15,12,00,AAXX 15121 12135 11357 81903 11002 21015 30199 40202 57010 60001 71022 886// 333 88707 91009 91109 93000=
12135,2009,12,15,15,00,AAXX 15151 12135 41356 71904 11003 21019 30193 40196 57006 71022 876// 333 87708 91109=
12135,2009,12,15,18,00,AAXX 15181 12135 11356 82103 11005 21021 30183 40186 56010 60002 71022 886// 333 10001 21006 88709 91109 93000=
12135,2009,12,15,21,00,AAXX 15211 12135 41450 81904 11007 21017 30174 40177 57009 71022 885// 333 88613=
12136,2009,12,15,00,00,AAXX 15001 12136 41540 50000 11082 21089 40194 53003 72844 85500 555 6//95=
12136,2009,12,15,01,00,AAXX 15011 12136 41540 40000 11085 21093 40191 54001 72824 84500 555 6//94=
12136,2009,12,15,02,00,AAXX 15021 12136 41556 30000 11090 21098 40189 57004 71022 83500 555 6//94=
12136,2009,12,15,03,00,AAXX 15031 12136 41658 30000 11094 21102 40189 57005 71011 83500 555 6//94=
12136,2009,12,15,04,00,AAXX 15041 12136 41656 40000 11100 21109 40190 57001 71011 84500 555 6//93=
12136,2009,12,15,05,00,AAXX 15051 12136 41256 70000 11089 21096 40186 57003 71022 875// 333 85704 555 6//95=
12136,2009,12,15,06,00,AAXX 15061 12136 41140 80000 11064 21069 40186 57003 71022 886// 333 88702 555 6//96=
12136,2009,12,15,07,00,AAXX 15071 12136 41106 80000 11046 21049 40189 57000 71022 886// 333 88702 555 6//97=
12136,2009,12,15,08,00,AAXX 15081 12136 41109 80000 11026 21027 40191 52006 74242 886// 333 88702 555 6//99=
12136,2009,12,15,09,00,AAXX 15091 12136 41111 89901 11022 21023 40191 54005 72842 886// 333 88703 555 6//99=
12136,2009,12,15,10,00,AAXX 15101 12136 41115 89901 11021 21022 40189 57001 71022 886// 333 88703 555 6//99=
12136,2009,12,15,11,00,AAXX 15111 12136 41158 89902 11019 21020 40187 57005 71022 886// 333 82703 88704 555 6//99=
12136,2009,12,15,12,00,AAXX 15121 12136 41158 89901 11017 21018 40182 57009 71022 886// 333 88704 555 6//99=
12136,2009,12,15,13,00,AAXX 15131 12136 41258 89901 11015 21016 40180 57009 71022 886// 333 88706 555 6//99=
12136,2009,12,15,14,00,AAXX 15141 12136 41358 89901 11016 21019 40178 57009 71022 886// 333 88707 555 6//98=
12136,2009,12,15,15,00,AAXX 15151 12136 41358 89901 11018 21019 40176 57006 71022 885// 333 84608 88620 555 6//98=
12136,2009,12,15,16,00,AAXX 15161 12136 41358 79901 11021 21022 40172 57008 71022 885// 333 83708 88625 555 6//99=
12136,2009,12,15,17,00,AAXX 15171 12136 41358 89901 11024 21025 40167 57011 71022 885// 333 88707 555 6//99=
12136,2009,12,15,18,00,AAXX 15181 12136 41358 89902 11018 21019 40166 57010 71022 886// 333 88705 555 6//99=
12136,2009,12,15,19,00,AAXX 15191 12136 41258 89901 11019 21022 40163 57009 71022 885// 333 87706 555 6//98=
12136,2009,12,15,20,00,AAXX 15201 12136 41258 89901 11019 21022 40161 57006 71022 885// 333 83706 555 6//98=
12136,2009,12,15,21,00,AAXX 15211 12136 41258 89901 11018 21022 40157 57009 71022 885// 333 83706 555 6//97=
12136,2009,12,15,22,00,AAXX 15221 12136 41258 81803 11018 21022 40153 57010 71022 885// 333 83706 555 6//97=
12136,2009,12,15,23,00,AAXX 15231 12136 41258 81803 11018 21021 40148 57013 71022 885// 333 84706 555 6//98=
12140,2009,12,15,00,00,AAXX 15001 12140 11550 81803 11012 21016 30206 40216 52003 69901 71072 8222/ 333 93097=
12140,2009,12,15,03,00,AAXX 15031 12140 41428 81904 11008 21011 30201 40211 57005 71022 886//=
12140,2009,12,15,06,00,AAXX 15061 12140 11437 81803 11007 21008 30200 40210 56001 69902 71022 886// 333 11003 21012 3/101 43998 70060 93000=
12140,2009,12,15,09,00,AAXX 15091 12140 41550 81904 11008 21015 30206 40216 51006 71022 885//=
12140,2009,12,15,12,00,AAXX 15121 12140 11550 81906 11010 21020 30195 40205 56011 60001 71022 885// 333 93000=
12140,2009,12,15,15,00,AAXX 15151 12140 41440 81804 11011 21019 30191 40201 57004 71022 882//=
12140,2009,12,15,18,00,AAXX 15181 12140 11540 81905 11014 21022 30179 40189 57012 60002 71022 885// 333 11006 21015 93000=
12140,2009,12,15,21,00,AAXX 15211 12140 41540 81906 11016 21024 30172 40182 56007 71022 885//=
12142,2009,12,15,00,00,AAXX 15001 12142 41140 82102 11002 21005 40216 52004 71022 886// 333 88703 555 6//98=
12142,2009,12,15,01,00,AAXX 15011 12142 41150 39901 11008 21011 40216 52002 71022 83600 333 83703 555 6//98=
12142,2009,12,15,02,00,AAXX 15021 12142 41140 61902 11009 21012 40214 57002 71022 866// 333 86703 555 6//98=
12142,2009,12,15,03,00,AAXX 15031 12142 41140 61801 11011 21014 40214 57002 71022 866// 333 86702 555 6//98=
12142,2009,12,15,04,00,AAXX 15041 12142 41156 30000 11021 21024 40213 57002 71022 83500 333 82703 555 6//98=
12142,2009,12,15,07,00,AAXX 15071 12142 41150 62002 11020 21023 40214 52001 71022 856// 333 85703 555 6//98=
12142,2009,12,15,08,00,AAXX 15081 12142 41240 71902 11012 21016 40218 52006 71022 876// 333 87705 555 6//97=
12142,2009,12,15,09,00,AAXX 15091 12142 41358 71902 11005 21013 40215 52004 71022 81709 875// 87610 555 6//94=
12142,2009,12,15,11,00,AAXX 15111 12142 41358 81902 11003 21014 40209 57009 71022 886// 333 88708 555 6//92=
12142,2009,12,15,12,00,AAXX 15121 12142 41356 82003 11002 21015 40205 57010 71022 885// 333 86708 88612 555 6//91=
12142,2009,12,15,13,00,AAXX 15131 12142 41356 72002 11002 21016 40203 57010 71022 875// 333 83709 87612 555 6//90=
12142,2009,12,15,15,00,AAXX 15151 12142 41356 51902 11015 21028 40199 57006 71022 855// 333 81708 85615 555 6//91=
12142,2009,12,15,16,00,AAXX 15161 12142 41658 51903 11014 21027 40194 57009 71022 855// 555 6//91=
12142,2009,12,15,17,00,AAXX 15171 12142 41658 52004 11014 21027 40190 57010 71022 855// 555 6//91=
12142,2009,12,15,18,00,AAXX 15181 12142 41658 62004 11015 21025 40187 57012 71022 865// 555 6//92=
12142,2009,12,15,19,00,AAXX 15191 12142 41658 52304 11011 21024 40184 57010 71022 855// 555 6//91=
12142,2009,12,15,21,00,AAXX 15211 12142 41658 32104 11011 21024 40179 57008 71022 83500 555 6//91=
12142,2009,12,15,22,00,AAXX 15221 12142 41358 42103 11012 21025 40175 57008 71022 84500 333 82707 555 6//91=
12142,2009,12,15,23,00,AAXX 15231 12142 41356 62003 11011 21025 40172 57010 71022 865// 333 84708 555 6//90=
12146,2009,12,15,04,00,AAXX 15041 12146 41115 82301 11008 21011 40214 57002 71022 886// 333 88703 555 6//98=
12146,2009,12,15,05,00,AAXX 15051 12146 41215 81701 11008 21012 40212 57001 71022 886// 333 88704 555 6//97=
12146,2009,12,15,06,00,AAXX 15061 12146 41215 81401 11012 21016 40212 57001 71022 886// 333 88705 555 6//97=
12146,2009,12,15,07,00,AAXX 15071 12146 41340 81801 11012 21019 40215 52001 71022 886// 333 88707 555 6//95=
12146,2009,12,15,08,00,AAXX 15081 12146 41358 81402 11012 21020 40218 52006 71022 886// 333 88708 555 6//94=
12146,2009,12,15,09,00,AAXX 15091 12146 41358 81302 11013 21024 40217 52005 71022 886// 333 88708 555 6//92=
12146,2009,12,15,10,00,AAXX 15101 12146 41358 81502 11012 21022 40215 54000 71022 886// 333 88708 555 6//93=
12146,2009,12,15,11,00,AAXX 15111 12146 41358 81603 11012 21025 40213 57005 77071 856// 333 85708 88611 555 6//91=
12146,2009,12,15,12,00,AAXX 15121 12146 41340 81602 11013 21024 40210 57008 72277 856// 333 85708 88611 555 6//92=
12146,2009,12,15,14,00,AAXX 15141 12146 41340 81502 11014 21025 40205 57008 77077 856// 333 85708 88611 555 6//92=
12146,2009,12,15,15,00,AAXX 15151 12146 41330 81602 11014 21024 40203 57007 71022 856// 333 85708 88611 555 6//93=
12146,2009,12,15,16,00,AAXX 15161 12146 41330 81502 11015 21025 40200 57007 71022 856// 333 85708 88611 555 6//93=
12146,2009,12,15,17,00,AAXX 15171 12146 41330 81702 11016 21026 40195 57010 71022 856// 333 85708 88610 555 6//93=
12146,2009,12,15,18,00,AAXX 15181 12146 41330 81503 11015 21025 40193 57011 71022 846// 333 84708 88610 555 6//93=
12146,2009,12,15,19,00,AAXX 15191 12146 41330 81702 11016 21027 40190 57010 71022 846// 333 84708 88610 555 6//92=
12146,2009,12,15,20,00,AAXX 15201 12146 41330 81502 11017 21028 40189 57006 71022 846// 333 84708 88610 555 6//92=
12146,2009,12,15,21,00,AAXX 15211 12146 41330 81703 11019 21030 40186 57006 71022 846// 333 84708 88610 555 6//92=
12160,2009,12,15,00,00,AAXX 15001 12160 11458 81702 11023 21040 30166 40221 50003 60001 71022 885// 333 93000=
12160,2009,12,15,03,00,AAXX 15031 12160 41456 81502 11025 21041 30163 40218 57003 71022 885//=
12160,2009,12,15,06,00,AAXX 15061 12160 11456 81803 11026 21045 30163 40218 55000 60002 71022 885// 333 11022 21027 3/103 43003 55003 93000=
12160,2009,12,15,09,00,AAXX 15091 12160 41460 81603 11024 21044 30168 40223 50005 77022 885//=
12160,2009,12,15,12,00,AAXX 15121 12160 11465 81903 11022 21044 30158 40213 57010 69901 70272 885// 333 93097=
12160,2009,12,15,15,00,AAXX 15151 12160 41460 81903 11027 21046 30154 40209 57004 77122 885//=
12160,2009,12,15,18,00,AAXX 15181 12160 11460 81804 11030 21050 30143 40198 57011 69902 72222 885// 333 10008 21030 93097=
12160,2009,12,15,21,00,AAXX 15211 12160 42460 81704 11034 21056 30141 40196 58002 885//=
12185,2009,12,15,00,00,AAXX 15001 12185 36/57 /1602 11043 21051 30093 40232 52004 333 93000=
12185,2009,12,15,03,00,AAXX 15031 12185 46/58 /1303 11042 21052 30091 40230 57002=
12185,2009,12,15,06,00,AAXX 15061 12185 11358 81703 11043 21054 30087 40229 53001 69902 71082 886// 333 11042 21044 3/105 47002 79999 93097=
12185,2009,12,15,09,00,AAXX 15091 12185 42360 81804 11044 21055 30092 40234 51005 886//=
12185,2009,12,15,12,00,AAXX 15121 12185 12360 81505 11049 21059 30081 40223 57011 60001 886// 333 93000=
12185,2009,12,15,15,00,AAXX 15151 12185 42460 71704 11050 21064 30078 40220 58003 875//=
12185,2009,12,15,18,00,AAXX 15181 12185 12562 71603 11044 21065 30070 40212 56008 60002 875// 333 11042 21054 93000=
12185,2009,12,15,21,00,AAXX 15211 12185 46/59 /1604 11059 21071 30070 40210 57006=
12195,2009,12,15,00,00,AAXX 15001 12195 11357 81101 11047 21058 39992 40231 53002 69901 77122 8772/ 333 93097=
12195,2009,12,15,03,00,AAXX 15031 12195 41358 83502 11050 21058 39990 40229 58002 77177 8772/=
12195,2009,12,15,06,00,AAXX 15061 12195 11356 80701 11062 21063 39992 40232 52002 69902 71072 886// 333 11045 21062 3/106 47003 79999 93097=
12195,2009,12,15,09,00,AAXX 15091 12195 42361 80902 11061 21065 39999 40239 50007 886//=
12195,2009,12,15,12,00,AAXX 15121 12195 12362 81002 11048 21059 39992 40231 56007 60001 886// 333 93000=
12195,2009,12,15,15,00,AAXX 15151 12195 41464 81303 11057 21064 39987 40227 57005 77072 885//=
12195,2009,12,15,18,00,AAXX 15181 12195 11458 81403 11063 21071 39983 40223 57004 69902 77072 885// 333 11048 21064 93097=
12195,2009,12,15,21,00,AAXX 15211 12195 41459 81603 11075 21083 39980 40221 58003 77077 885//=
12200,2009,12,15,00,00,AAXX 15001 12200 11484 63002 10005 21002 30221 40227 51002 69901 70182 86200 333 93097=
12200,2009,12,15,03,00,AAXX 15031 12200 41456 72802 10005 20002 30214 40220 56007 78522 873//=
12200,2009,12,15,06,00,AAXX 15061 12200 11456 62402 10001 20001 30208 40214 58006 69962 78522 86300 333 10024 20001 3/101 43997 70016 93096=
12200,2009,12,15,09,00,AAXX 15091 12200 41456 62001 10003 20003 30212 40218 50004 71082 86300=
12200,2009,12,15,12,00,AAXX 15121 12200 11465 52301 10006 20006 30202 40208 57006 69901 70182 85500 333 93097=
12200,2009,12,15,15,00,AAXX 15151 12200 41456 52101 11001 21004 30195 40201 56007 71022 85500=
12200,2009,12,15,18,00,AAXX 15181 12200 12462 52302 11011 21012 30181 40187 56014 69902 85500 333 10018 21011 93000=
12200,2009,12,15,21,00,AAXX 15211 12200 42562 52102 11013 21016 30172 40178 57009 85500=
12205,2009,12,15,00,00,AAXX 15001 12205 11556 62302 11003 21003 30217 40226 50000 60001 71022 86500 333 93000=
12205,2009,12,15,03,00,AAXX 15031 12205 41557 62302 11013 21013 30213 40222 55004 71022 83530=
12205,2009,12,15,06,00,AAXX 15061 12205 11556 72302 11017 21017 30206 40215 57007 60002 71011 8553/ 333 10007 21022 35105 55008 70005 93000=
12205,2009,12,15,09,00,AAXX 15091 12205 41437 72302 11004 21004 30209 40218 50003 78582 873//=
12205,2009,12,15,12,00,AAXX 15121 12205 11532 52302 10001 20000 30200 40209 57009 69911 71082 85500 333 93091=
12205,2009,12,15,15,00,AAXX 15151 12205 41432 81302 10001 20000 30194 40203 56006 71022 885//=
12205,2009,12,15,18,00,AAXX 15181 12205 11450 72203 10001 21002 30183 40192 57011 69912 71022 875// 333 10004 21017 93000=
12205,2009,12,15,21,00,AAXX 15211 12205 41457 71802 11011 21019 30174 40183 57009 71022 875//=
12210,2009,12,15,00,00,AAXX 15001 12210 16/// /0000 11017 21020 30155 40222 57001 333 93001=
12210,2009,12,15,03,00,AAXX 15031 12210 46/// /0000 11023 21026 30151 40218 57004=
12210,2009,12,15,06,00,AAXX 15061 12210 11597 70000 11021 21024 30139 40211 57006 60032 70282 875// 333 10001 21028 3/109 47003 55005 70040 93003=
12210,2009,12,15,09,00,AAXX 15091 12210 46/// /0000 11020 21023 30151 40218 52006=
12210,2009,12,15,12,00,AAXX 15121 12210 11/01 90000 11019 21020 30137 40208 57008 60001 74522 333 93000=
12210,2009,12,15,15,00,AAXX 15151 12210 46/// /0000 11013 21014 30135 40201 57007=
12210,2009,12,15,18,00,AAXX 15181 12210 11/06 91901 11023 21024 30118 40189 57011 60002 74344 333 11010 21024 93000=
12210,2009,12,15,21,00,AAXX 15211 12210 46/// /2001 11014 21015 30115 40181 57009=
12212,2009,12,15,00,00,AAXX 15001 12212 41102 82601 11023 21025 40211 54000 867// 333 86701 88610 555 6//00=
12212,2009,12,15,01,00,AAXX 15011 12212 41104 82601 11023 21024 40210 57003 74844 887// 333 88701 555 6//98=
12212,2009,12,15,03,00,AAXX 15031 12212 41125 82501 11022 21025 40206 57005 78528 853// 333 85903 88612 555 6//98=
12212,2009,12,15,04,00,AAXX 15041 12212 41125 82101 11020 21023 40206 57004 78588 853// 333 85903 88612 555 6//98=
12212,2009,12,15,05,00,AAXX 15051 12212 41115 82401 11022 21023 40203 57003 78588 853// 333 85902 88610 555 6//98=
12212,2009,12,15,06,00,AAXX 15061 12212 41104 82701 11017 21017 40202 57003 74828 843// 333 43003 84901 88610 555 6//00=
12212,2009,12,15,07,00,AAXX 15071 12212 41102 82801 11022 21022 40206 54000 74944 887// 333 88701 555 6//00=
12212,2009,12,15,08,00,AAXX 15081 12212 41102 82601 11026 21026 40208 52004 74844 887// 333 88701 555 6//100=
12212,2009,12,15,10,00,AAXX 15101 12212 41202 82501 11021 21021 40207 52001 74844 887// 333 88702 555 6//98=
12212,2009,12,15,11,00,AAXX 15111 12212 41102 72501 11020 21020 40203 57005 74844 875// 333 85702 87610 555 6//99=
12212,2009,12,15,12,00,AAXX 15121 12212 41102 82301 11020 21020 40200 57008 74844 887// 333 88702 555 6//9=
12212,2009,12,15,13,00,AAXX 15131 12212 41102 82401 11020 21021 40196 57011 74844 887// 333 88702 555 6//99=
12212,2009,12,15,14,00,AAXX 15141 12212 41102 82401 11019 21020 40194 57010 74844 887// 333 88702 555 6//99=
12212,2009,12,15,15,00,AAXX 15151 12212 41104 82201 11018 21019 40193 57006 74844 887// 333 88702 555 6//99=
12212,2009,12,15,16,00,AAXX 15161 12212 41104 82101 11016 21017 40189 57008 74844 887// 333 88702 555 6//99=
12212,2009,12,15,17,00,AAXX 15171 12212 41102 82101 11018 21019 40183 57010 74844 887// 333 88702 555 6//99=
12212,2009,12,15,18,00,AAXX 15181 12212 41102 82001 11019 21020 40180 57013 74844 886// 333 88702 555 6//99=
12212,2009,12,15,19,00,AAXX 15191 12212 41102 82001 11021 21022 40177 57010 74844 886// 333 88702 555 6//99=
12212,2009,12,15,20,00,AAXX 15201 12212 41108 82201 11022 21023 40176 57007 74844 886// 333 88702 555 6//99=
12212,2009,12,15,21,00,AAXX 15211 12212 41120 82301 11023 21024 40174 57006 71024 867// 333 86702 88610 555 6//99=
12212,2009,12,15,22,00,AAXX 15221 12212 41120 82301 11024 21025 40170 57007 71022 867// 333 86702 88610 555 6//96=
12212,2009,12,15,23,00,AAXX 15231 12212 41125 82101 11021 21022 40166 57010 71022 857// 333 85703 88610=
12215,2009,12,15,00,00,AAXX 15001 12215 16/// /9901 11022 21027 30043 40220 54000 69911=
12215,2009,12,15,03,00,AAXX 15031 12215 36/// /0000 11026 21031 30039 40217 57004=
12215,2009,12,15,06,00,AAXX 15061 12215 06/// /9901 11016 21022 30034 40211 57005 69912 333 10007 21034 70013=
12215,2009,12,15,18,00,AAXX 15181 12215 36/// /9901 11022 21027 30015 40192 57012 69912 333 11009 21034=
12226,2009,12,15,00,00,AAXX 15001 12226 41257 83002 11007 21010 40212 57002 71022 857// 333 85704 88615 555 6//98=
12226,2009,12,15,01,00,AAXX 15011 12226 41150 83001 11007 21010 40212 57003 71022 867// 333 86702 88615 555 6//98=
12226,2009,12,15,02,00,AAXX 15021 12226 41135 83001 11009 21012 40210 57005 71022 867// 333 86702 88613 555 6//98=
12226,2009,12,15,03,00,AAXX 15031 12226 41006 83201 11013 21016 40211 57002 74822 887// 333 88701 555 6//98=
12226,2009,12,15,04,00,AAXX 15041 12226 41015 83202 11015 21016 40208 57004 71044 887// 333 88701 555 6//99=
12226,2009,12,15,05,00,AAXX 15051 12226 41150 83001 11014 21015 40204 57006 71022 887// 333 88703 555 6//99=
12226,2009,12,15,06,00,AAXX 15061 12226 41120 82901 11013 21014 40205 57005 77022 887// 333 88702 44001 555 6//99=
12226,2009,12,15,07,00,AAXX 15071 12226 41130 89901 11012 21013 40209 54000 77077 887// 333 88703 555 6//99 80117=
12226,2009,12,15,08,00,AAXX 15081 12226 41140 82401 11012 21013 40210 52005 77877 877// 333 87702 88610 555 6//99=
12226,2009,12,15,09,00,AAXX 15091 12226 41112 82901 11013 21014 40210 52005 72277 886// 333 88702 555 6//99=
12226,2009,12,15,10,00,AAXX 15101 12226 41150 70000 11011 21014 40209 54000 71027 867// 333 86703 555 6//98=
12226,2009,12,15,11,00,AAXX 15111 12226 41259 70000 11008 21012 40206 57004 71022 867// 333 86705 87610 555 6//97=
12226,2009,12,15,12,00,AAXX 15121 12226 41360 89901 11009 21019 42020 57008 877// 333 87707 88610 555 6//93=
12226,2009,12,15,13,00,AAXX 15131 12226 42360 89901 11007 21020 40199 57010 877// 333 87707 88610 555 6//91=
12226,2009,12,15,15,00,AAXX 15151 12226 42360 70000 11012 21028 40195 57008 867// 333 86707 87610 555 6//89=
12226,2009,12,15,16,00,AAXX 15161 12226 42360 70000 11013 21023 40193 57006 867// 333 86707 87610 555 6//93=
12226,2009,12,15,17,00,AAXX 15171 12226 42260 71901 11014 21021 40188 57007 867// 333 86706 87610 555 6//95=
12226,2009,12,15,18,00,AAXX 15181 12226 41260 70000 11017 21024 40184 57011 72262 867// 333 86706 87610 555 6//95=
12226,2009,12,15,19,00,AAXX 15191 12226 41458 79901 11018 21024 40181 57010 77872 855// 333 85615 555 6//96=
12226,2009,12,15,20,00,AAXX 15201 12226 42460 70000 11019 21025 40178 57011 855// 333 85615 555 6//96=
12226,2009,12,15,21,00,AAXX 15211 12226 42160 70000 11020 21026 40176 57007 847// 333 84703 555 6//96=
12226,2009,12,15,22,00,AAXX 15221 12226 41140 89901 11020 21024 40174 57007 71022 877// 333 87702 555 6//97=
12226,2009,12,15,23,00,AAXX 15231 12226 41140 89901 11019 21023 40172 57006 71022 886// 333 88702 555 6//97=
12230,2009,12,15,00,00,AAXX 15001 12230 11458 52901 10004 21014 30124 40217 56001 60001 71022 85500 333 93000=
12230,2009,12,15,03,00,AAXX 15031 12230 41456 72801 11011 21014 30122 40216 55002 71022 875//=
12230,2009,12,15,06,00,AAXX 15061 12230 11325 83001 11012 21013 30116 40210 56006 60002 71022 886// 333 10011 21015 34103 55003 70001 93000=
12230,2009,12,15,09,00,AAXX 15091 12230 41340 83601 11010 21013 30122 40216 50006 71022 886//=
12230,2009,12,15,12,00,AAXX 15121 12230 11456 81901 11008 21014 30115 40208 58007 69911 72222 875// 333 93091=
12230,2009,12,15,15,00,AAXX 15151 12230 41456 72001 11010 21017 30107 40200 57008 71022 875//=
12230,2009,12,15,18,00,AAXX 15181 12230 11430 61801 11015 21021 30098 40192 57009 69922 71082 83530 333 11006 21016 93091=
12230,2009,12,15,21,00,AAXX 15211 12230 41456 82002 11014 21021 30093 40186 58005 71022 885//=
12235,2009,12,15,00,00,AAXX 15001 12235 11450 63001 11016 21016 39999 40218 51001 60001 71022 865// 333 93000=
12235,2009,12,15,03,00,AAXX 15031 12235 41/03 91602 11023 21023 39994 40213 57005 74942=
12235,2009,12,15,06,00,AAXX 15061 12235 11323 81602 11013 21013 39990 40208 56004 60002 71042 886// 333 10003 21025 3/102 42001 70001 93000=
12235,2009,12,15,09,00,AAXX 15091 12235 41464 81901 11016 21016 39996 40214 50006 70242 885//=
12235,2009,12,15,12,00,AAXX 15121 12235 11460 82401 11012 21016 39988 40206 57008 69941 78542 889// 333 93094=
12235,2009,12,15,15,00,AAXX 15151 12235 41460 71801 11013 21017 39982 40200 56006 72282 875//=
12235,2009,12,15,18,00,AAXX 15181 12235 11450 82003 11018 21018 39972 40190 57010 69952 72687 889// 333 11010 21022 93091=
12235,2009,12,15,21,00,AAXX 15211 12235 41450 81604 11018 21019 39966 40184 57006 71022 885//=
12250,2009,12,15,00,00,AAXX 15001 12250 11356 81002 11015 21022 30126 40218 52004 69901 71072 886// 333 88707 93097=
12250,2009,12,15,03,00,AAXX 15031 12250 41359 81102 11019 21032 30125 40217 55001 71022 886// 333 88709=
12250,2009,12,15,06,00,AAXX 15061 12250 12460 81103 11021 21037 30125 40217 54000 69902 885// 333 10000 21021 3/102 41998 70001 88611 93000=
12250,2009,12,15,09,00,AAXX 15091 12250 41459 71304 11025 21044 30130 40223 51005 71022 875// 333 87613=
12250,2009,12,15,12,00,AAXX 15121 12250 12460 81402 11019 21042 30122 40214 57008 60001 885// 333 88614 93000=
12250,2009,12,15,15,00,AAXX 15151 12250 42460 81302 11024 21049 30116 40208 57006 885// 333 88614=
12250,2009,12,15,18,00,AAXX 15181 12250 12460 81403 11027 21053 30109 40201 57007 60002 885// 333 11019 21027 88616 93000=
12250,2009,12,15,21,00,AAXX 15211 12250 41458 81403 11030 21058 30103 40196 57006 71022 885//=
12270,2009,12,15,00,00,AAXX 15001 12270 11456 81002 11036 21049 30035 40226 52003 60001 71022 885// 333 93000=
12270,2009,12,15,03,00,AAXX 15031 12270 41456 81502 11039 21050 30033 40224 58002 71022 885//=
12270,2009,12,15,06,00,AAXX 15061 12270 11457 81502 11044 21056 30036 40227 53003 60002 71022 885// 333 11026 21044 3/105 43002 93000=
12270,2009,12,15,09,00,AAXX 15091 12270 41457 81503 11046 21060 30042 40233 50006 71022 885//=
12270,2009,12,15,12,00,AAXX 15121 12270 11458 81303 11040 21060 30031 40222 58011 60001 71022 885// 333 93000=
12270,2009,12,15,15,00,AAXX 15151 12270 41459 81602 11041 21064 30026 40217 57005 71022 885//=
12270,2009,12,15,18,00,AAXX 15181 12270 11456 81502 11040 21065 30020 40211 58006 60002 71022 885// 333 11040 21046 93000=
12270,2009,12,15,21,00,AAXX 15211 12270 41459 81404 11050 21067 30016 40207 56004 71022 885//=
12272,2009,12,15,00,00,AAXX 15001 12272 11458 81202 11035 21052 30051 40226 53003 60001 71022 885// 333 88610 93000=
12272,2009,12,15,03,00,AAXX 15031 12272 41358 81502 11037 21052 30047 40222 57004 71022 886// 333 88708=
12272,2009,12,15,06,00,AAXX 15061 12272 11358 81302 11043 21060 30049 40224 51002 60002 71022 885// 333 11029 21043 3/104 47997 86709 88611 93000=
12272,2009,12,15,09,00,AAXX 15091 12272 41356 81202 11046 21061 30057 40233 51008 71022 886// 333 88708=
12272,2009,12,15,12,00,AAXX 15121 12272 11356 81404 11047 21064 30047 40222 57010 60001 71022 886// 333 88709 93000=
12272,2009,12,15,15,00,AAXX 15151 12272 41356 81403 11047 21062 30042 40217 57005 71022 886// 333 88709=
12272,2009,12,15,18,00,AAXX 15181 12272 11458 81403 11045 21065 30034 40209 57008 60002 71022 885// 333 11043 21050 88615 93000=
12272,2009,12,15,21,00,AAXX 15211 12272 41559 81502 11042 21068 30029 40204 57005 71022 885//=
12280,2009,12,15,00,00,AAXX 15001 12280 11350 81901 11046 21054 30064 40229 50003 60001 71022 886// 333 93000=
12280,2009,12,15,03,00,AAXX 15031 12280 41356 81803 11048 21058 30062 40227 58002 71022 886//=
12280,2009,12,15,06,00,AAXX 15061 12280 11357 81902 11049 21059 30064 40229 51002 60002 71022 886// 333 11043 21053 3/105 47007 70001 93000=
12280,2009,12,15,09,00,AAXX 15091 12280 41357 81904 11049 21060 30072 40237 52008 71022 886//=
12280,2009,12,15,12,00,AAXX 15121 12280 11459 72104 11048 21063 30062 40227 57010 60001 71022 875// 333 93000=
12280,2009,12,15,15,00,AAXX 15151 12280 42460 81703 11046 21064 30058 40223 57004 885//=
12280,2009,12,15,18,00,AAXX 15181 12280 12460 81705 11042 21059 30049 40213 56009 60002 885// 333 11042 21053 93000=
12280,2009,12,15,21,00,AAXX 15211 12280 42460 81705 11046 21063 30044 40209 58005 885//=
12285,2009,12,15,00,00,AAXX 15001 12285 36/// /9901 11040 21054 30103 40224 52004 69921=
12285,2009,12,15,06,00,AAXX 15061 12285 36/// /9901 11047 21056 30105 40227 52003 69922 333 11016 21047 70002=
12285,2009,12,15,09,00,AAXX 15091 12285 36/// /9902 11045 21054 30111 40233 52006=
12285,2009,12,15,12,00,AAXX 15121 12285 36/// /9902 11040 21054 30101 40222 57010 69921=
12285,2009,12,15,15,00,AAXX 15151 12285 36/// /9902 11042 21058 30097 40218 57004=
12285,2009,12,15,18,00,AAXX 15181 12285 36/// /9903 11048 21068 30094 40216 57003 69922 333 11039 21047=
12295,2009,12,15,00,00,AAXX 15001 12295 11450 80000 11046 21054 30032 40225 51003 60001 71022 885// 333 88613 93000=
12295,2009,12,15,03,00,AAXX 15031 12295 41459 80000 11047 21059 30031 40224 57001 71022 885//=
12295,2009,12,15,06,00,AAXX 15061 12295 11461 80000 11051 21066 30036 40230 53005 69902 77022 885// 333 11045 21051 3/105 47003 70003 88613 93097=
12295,2009,12,15,09,00,AAXX 15091 12295 41556 80000 11048 21060 30041 40235 51005 77177 8802/=
12295,2009,12,15,12,00,AAXX 15121 12295 11559 81801 11044 21059 30034 40227 58007 69921 77077 885// 333 93092=
12295,2009,12,15,15,00,AAXX 15151 12295 42660 60000 11083 21088 30031 40227 55003 86500=
12295,2009,12,15,18,00,AAXX 15181 12295 11556 80000 11065 21065 30028 40223 56003 69922 77072 885// 333 11043 21089 93097=
12295,2009,12,15,21,00,AAXX 15211 12295 41432 81202 11060 21060 30023 40217 56005 77177 8752/ 333 87611=
12300,2009,12,15,00,00,AAXX 15001 12300 11120 83601 11008 21011 30131 40224 56003 60001 71011 875// 333 93000=
12300,2009,12,15,03,00,AAXX 15031 12300 41120 83402 11009 21012 30126 40219 58005 71022 886//=
12300,2009,12,15,06,00,AAXX 15061 12300 11120 80201 11005 21006 30121 40214 55005 60002 71022 886// 333 11005 21010 3/102 41998 55009 93000=
12300,2009,12,15,09,00,AAXX 15091 12300 41350 80201 11007 21015 30127 40220 51006 71022 886//=
12300,2009,12,15,12,00,AAXX 15121 12300 11340 83001 11003 21017 30118 40211 58009 69901 77022 877// 333 93097=
12300,2009,12,15,15,00,AAXX 15151 12300 41440 81001 11001 21014 30108 40201 56010 72272 885//=
12300,2009,12,15,18,00,AAXX 15181 12300 11740 42101 11009 21017 30100 40193 58008 69902 72272 84500 333 10000 21010 93097=
12300,2009,12,15,21,00,AAXX 15211 12300 41415 80000 11014 21017 30091 40184 57009 71011 885//=
12310,2009,12,15,00,00,AAXX 15001 12310 11532 80000 11018 21019 30198 40229 55001 60001 71011 885// 333 93000=
12310,2009,12,15,03,00,AAXX 15031 12310 41432 80000 11010 21011 30191 40222 57007 71022 885//=
12310,2009,12,15,06,00,AAXX 15061 12310 11215 83302 11007 21008 30186 40217 56005 60002 71022 886// 333 11006 21047 34107 93000=
12310,2009,12,15,09,00,AAXX 15091 12310 41225 83601 11004 21005 30189 40220 50003 71022 886//=
12310,2009,12,15,12,00,AAXX 15121 12310 11330 83601 10000 21003 30181 40212 58008 60001 71022 886// 333 93000=
12310,2009,12,15,15,00,AAXX 15151 12310 41457 83602 11002 21010 30171 40202 56010 71022 885//=
12310,2009,12,15,18,00,AAXX 15181 12310 11450 80302 11010 21014 30163 40194 58008 60002 71022 885// 333 10002 21013 93000=
12310,2009,12,15,21,00,AAXX 15211 12310 41440 83601 11011 21014 30153 40184 57010 72222 8552/=
12326,2009,12,15,00,00,AAXX 15001 12326 41257 83103 10005 21001 30112 40212 5701 71022 836// 333 83706 88620 555 6//96=
12326,2009,12,15,01,00,AAXX 15011 12326 41257 83003 10004 21002 30111 40211 57001 71022 826// 333 82706 88615 555 6//96=
12326,2009,12,15,02,00,AAXX 15021 12326 41457 83103 10003 21003 30111 40211 54000 71022 885// 333 88615 555 6//96=
12326,2009,12,15,03,00,AAXX 15031 12326 41257 73103 10000 21006 30107 40206 57005 71022 836// 333 83705 87615 555 6//96=
12326,2009,12,15,04,00,AAXX 15041 12326 41257 73002 11004 21010 30107 40207 57004 71022 836// 333 83705 87620 555 6//96=
12326,2009,12,15,05,00,AAXX 15051 12326 41657 62702 11007 21014 30104 40204 57007 71022 86500 555 6//95=
12326,2009,12,15,06,00,AAXX 15061 12326 41450 52902 11028 21033 30105 40206 57001 71022 82600 333 82707 85612 555 6//96=
12326,2009,12,15,07,00,AAXX 15071 12326 41315 72602 11019 21022 30110 40210 52003 71022 847// 333 84707 87610 555 6//98=
12326,2009,12,15,08,00,AAXX 15081 12326 41312 62702 11019 21022 30112 40212 52008 71022 847// 333 84708 86610 555 6//98=
12326,2009,12,15,09,00,AAXX 15091 12326 41215 80102 11007 21010 30114 40214 52008 71022 857// 333 85705 88610 555 6//98=
12326,2009,12,15,10,00,AAXX 15101 12326 41218 80602 11004 21010 30113 40213 52003 71022 857// 333 85705 88610 555 6//96=
12326,2009,12,15,11,00,AAXX 15111 12326 41225 80803 11007 21014 30108 40208 57005 71022 867// 333 86705 88610 555 6//95=
12326,2009,12,15,12,00,AAXX 15121 12326 41230 81005 11007 21017 30106 40206 57006 71022 857// 333 85706 88610 555 6//93=
12326,2009,12,15,13,00,AAXX 15131 12326 41340 71003 11010 21021 30101 4020 57011 71022 847// 333 84707 87610 555 6//92=
12326,2009,12,15,14,00,AAXX 15141 12326 41340 61204 11013 21024 30098 40197 57010 71022 857// 333 85707 86610 555 6//92=
12326,2009,12,15,15,00,AAXX 15151 12326 41335 70601 11013 21024 30099 40198 57006 71022 877// 333 87708 555 6//92=
12326,2009,12,15,16,00,AAXX 15161 12326 41358 89901 11014 21031 30088 40198 57003 71022 857// 333 85709 88610 555 6//88=
12326,2009,12,15,17,00,AAXX 15171 12326 41458 70702 11016 21032 30095 40194 57003 71022 875// 333 87610 555 6//89=
12326,2009,12,15,18,00,AAXX 15181 12326 42460 71004 11020 21037 30095 40194 57004 875// 333 87613 555 6//88=
12326,2009,12,15,19,00,AAXX 15191 12326 42460 71203 11021 21040 30091 40190 57008 875// 333 87614 555 6//87=
12326,2009,12,15,20,00,AAXX 15201 12326 42560 71202 11022 21044 30088 40187 57007 875// 555 6//85=
12326,2009,12,15,21,00,AAXX 15211 12326 42560 71203 11022 21044 30085 40184 57010 875// 555 6//85=
12326,2009,12,15,22,00,AAXX 15221 12326 42560 71103 11025 21051 30084 40183 57007 875// 555 6//82=
12326,2009,12,15,23,00,AAXX 15231 12326 42460 70703 11025 21048 30080 40179 57008 875// 555 6//84=
12330,2009,12,15,00,00,AAXX 15001 12330 11250 83303 11001 21007 30107 40219 55000 69901 71072 886// 333 93097=
12330,2009,12,15,03,00,AAXX 15031 12330 41158 73504 11012 21018 30101 40213 58006 71022 876// 333 87703=
12330,2009,12,15,06,00,AAXX 15061 12330 11006 73103 11027 21030 30101 40214 55000 69902 74641 876// 333 10006 21037 34106 70003 93000=
12330,2009,12,15,09,00,AAXX 15091 12330 41014 83303 11022 21025 30108 40221 51007 74044 875// 333 87701 87612=
12330,2009,12,15,12,00,AAXX 15121 12330 11350 71303 11008 21018 30097 40209 57011 60001 71042 876// 333 87707 93000=
12330,2009,12,15,15,00,AAXX 15151 12330 41456 70000 11009 21029 30092 40204 56005 71022 875// 333 81709 87613=
12330,2009,12,15,18,00,AAXX 15181 12330 12560 71601 11014 21039 30086 40198 57006 60002 875// 333 11007 21032 93000=
12330,2009,12,15,21,00,AAXX 15211 12330 42560 71402 11023 21053 30079 40192 57007 875//=
12336,2009,12,15,00,00,AAXX 15001 12336 41120 89902 10004 20003 30071 40207 52001 72277 886// 333 88703 555 6//99=
12336,2009,12,15,01,00,AAXX 15011 12336 41115 89901 10004 20003 30070 40206 54000 77022 886// 333 88703 555 6//99=
12336,2009,12,15,02,00,AAXX 15021 12336 41110 89901 10005 20004 30070 40205 57001 77177 886// 333 88703 555 6//99=
12336,2009,12,15,03,00,AAXX 15031 12336 41110 89902 10002 20001 30067 40203 57004 77077 886// 333 88702 555 6//99=
12336,2009,12,15,04,00,AAXX 15041 12336 41115 89902 11007 21007 30069 40205 54000 71027 856// 333 85703 88705 555 6//00=
12336,2009,12,15,05,00,AAXX 15051 12336 41240 80903 11012 21018 30067 40203 57002 77022 846// 333 84705 88707 555 6//96=
12336,2009,12,15,06,00,AAXX 15061 12336 41250 80903 11014 21022 30068 40204 52001 77177 846// 333 41001 84705 88708 555 6//94=
12336,2009,12,15,07,00,AAXX 15071 12336 41256 80802 11015 21023 30074 40210 52005 72277 837// 333 83706 88610 555 6//94=
12336,2009,12,15,08,00,AAXX 15081 12336 41356 81003 11015 21026 30078 40214 52011 71022 867// 333 86708 88610 555 6//92=
12336,2009,12,15,09,00,AAXX 15091 12336 41350 81104 11017 21028 30077 40213 52009 77072 886// 333 88708 555 6//92=
12336,2009,12,15,10,00,AAXX 15101 12336 41356 81103 11017 21031 30077 40213 52003 77822 847// 333 84708 88610 555 6//90=
12336,2009,12,15,11,00,AAXX 15111 12336 41357 81104 11020 21036 30073 40209 57005 77877 837// 333 83709 88610 555 6//89=
12336,2009,12,15,12,00,AAXX 15121 12336 41458 81203 11019 21038 30069 40205 57009 71022 845// 333 84611 555 6//87=
12336,2009,12,15,13,00,AAXX 15131 12336 41558 71203 11018 21037 30064 40200 57013 71022 835// 555 6//87=
12336,2009,12,15,14,00,AAXX 15141 12336 41558 51303 11020 21039 30061 40197 57012 71022 83500 555 6//87=
12336,2009,12,15,15,00,AAXX 15151 12336 41457 71203 11025 21044 30061 40197 57008 71022 865// 333 86612 555 6//87=
12336,2009,12,15,16,00,AAXX 15161 12336 41458 70902 11025 21047 30062 40198 57002 71022 875// 333 87613 555 6//85=
12336,2009,12,15,17,00,AAXX 15171 12336 41459 70703 11027 21052 30060 40196 57001 71022 875// 333 87613 555 6//83=
12336,2009,12,15,18,00,AAXX 15181 12336 41459 71102 11026 21052 30058 40194 57003 71022 875// 333 87615 555 6//82=
12336,2009,12,15,19,00,AAXX 15191 12336 41460 71003 11027 21057 30054 40190 57008 875// 333 87615 555 6//80=
12336,2009,12,15,20,00,AAXX 15201 12336 41460 79901 11028 21058 30051 40188 57009 875// 333 87617 555 6//80=
12336,2009,12,15,21,00,AAXX 15211 12336 41458 71203 11031 21058 30049 40185 57009 71022 875// 333 87617 555 6//81=
12336,2009,12,15,22,00,AAXX 15221 12336 41458 71102 11032 21063 30048 40184 57006 71022 875// 333 87618 555 6//79=
12336,2009,12,15,23,00,AAXX 15231 12336 41457 71103 11033 21063 30044 40180 57008 71022 875// 333 87618 555 6//80=
12342,2009,12,15,00,00,AAXX 15001 12342 41130 81204 11011 21022 30112 40210 52006 71022 886// 333 88706 555 6//92=
12342,2009,12,15,01,00,AAXX 15011 12342 41130 81203 11012 21025 30112 40210 52002 71022 886// 333 88706 555 6//91=
12342,2009,12,15,02,00,AAXX 15021 12342 41230 81203 11011 21026 30111 40209 54000 71022 886// 333 88707 555 6//92=
12342,2009,12,15,04,00,AAXX 15041 12342 41220 81102 11016 21024 30109 40207 57003 77022 867// 333 86707 88611 555 6//94=
12342,2009,12,15,05,00,AAXX 15051 12342 41240 81203 11018 21031 30109 40207 57002 72272 856// 333 85707 555 6//91=
12342,2009,12,15,06,00,AAXX 15061 12342 41240 81403 11018 21031 30111 40209 57001 71022 856// 333 85707 555 6//91=
12342,2009,12,15,07,00,AAXX 15071 12342 41356 81202 11020 21031 30114 40212 52005 71022 886// 333 88709 555 6//92=
12342,2009,12,15,08,00,AAXX 15081 12342 41458 81303 11021 21037 30107 40215 52008 71022 865// 333 86611 88630 555 6//89=
12342,2009,12,15,09,00,AAXX 15091 12342 41458 81304 11022 21041 30116 40214 52005 71022 855// 333 85614 88631 555 6//87=
12342,2009,12,15,11,00,AAXX 15111 12342 41456 71405 11021 21041 30111 40209 57006 71022 845// 333 84513 88633 555 6//86=
12342,2009,12,15,12,00,AAXX 15121 12342 41456 71504 11021 21043 30107 40205 57009 71022 845// 333 84614 87640 555 6//85=
12342,2009,12,15,13,00,AAXX 15131 12342 41456 71305 11023 21046 30106 40204 57010 71022 855// 333 85614 87640 555 6//85=
12342,2009,12,15,14,00,AAXX 15141 12342 41458 71203 11027 21052 30106 40204 57005 71022 875// 333 87615 555 6//83=
12342,2009,12,15,15,00,AAXX 15151 12342 41456 71203 11026 21049 30105 40203 57003 71022 875// 333 87615 555 6//84=
12342,2009,12,15,16,00,AAXX 15161 12342 41458 71502 11027 21052 30102 40200 57004 71022 875// 333 87615 555 6//83=
12342,2009,12,15,17,00,AAXX 15171 12342 41458 71503 11027 21053 30099 40197 57007 71022 875// 333 87615 555 6//82=
12342,2009,12,15,18,00,AAXX 15181 12342 41458 71503 11028 21053 30097 40195 57007 71022 875// 333 87617 555 6//83=
12342,2009,12,15,19,00,AAXX 15191 12342 41458 71503 11029 21054 30094 40192 57010 71022 875// 333 87617 555 6//83=
12342,2009,12,15,22,00,AAXX 15221 12342 42560 71305 11032 21057 30089 40187 57004 875// 555 6//83=
12342,2009,12,15,23,00,AAXX 15231 12342 42560 71505 11032 21058 30083 40181 57010 875// 555 6//82=
12345,2009,12,15,00,00,AAXX 15001 12345 11430 80704 11019 21035 30068 40218 51002 69901 71072 885// 333 93097=
12345,2009,12,15,03,00,AAXX 15031 12345 41456 81003 11022 21039 30069 40219 51001 71022 885//=
12345,2009,12,15,06,00,AAXX 15061 12345 42559 10904 10229 20212 30045 40168 57007 81100 333 10242 20229 81820=
12345,2009,12,15,09,00,AAXX 15091 12345 41458 80803 11027 21050 30075 40226 52008 71022 885//=
12345,2009,12,15,12,00,AAXX 15121 12345 11558 50902 10209 20199 30050 40173 52011 60004 70000 85200 333 10242 20209 85818=
12345,2009,12,15,15,00,AAXX 15151 12345 41458 80803 11030 21060 30056 40206 56007 71022 885//=
12345,2009,12,15,18,00,AAXX 15181 12345 11458 81003 11035 21070 30053 40204 58003 60002 71022 885// 333 11026 21035 93000=
12345,2009,12,15,21,00,AAXX 15211 12345 41458 80904 11033 21071 30045 40195 56008 71022 885//=
12360,2009,12,15,00,00,AAXX 15001 12360 12460 80702 11026 21061 30081 40220 51002 60001 885// 333 88615 93000=
12360,2009,12,15,03,00,AAXX 15031 12360 41458 80502 11031 21064 30081 40221 54000 71022 885// 333 88613=
12360,2009,12,15,06,00,AAXX 15061 12360 11459 80802 11035 21066 30080 40220 57001 60002 71022 885// 333 11023 21036 3/103 41998 88613 93000=
12360,2009,12,15,09,00,AAXX 15091 12360 41458 80902 11032 21067 30088 40228 51008 71022 885// 333 88613=
12360,2009,12,15,12,00,AAXX 15121 12360 11457 81203 11030 21068 30079 40219 57009 60001 71022 885// 333 88616 93000=
12360,2009,12,15,15,00,AAXX 15151 12360 42460 81402 11033 21075 30073 40213 56006 885//=
12360,2009,12,15,18,00,AAXX 15181 12360 11459 81102 11031 21073 30067 40206 57006 60002 71022 885// 333 11029 21036 93000=
12360,2009,12,15,21,00,AAXX 15211 12360 41458 81104 11036 21074 30060 40200 56007 71022 885//=
12375,2009,12,15,00,00,AAXX 15001 12375 12460 70602 11026 21061 30084 40221 51004 60001 875// 333 93000=
12375,2009,12,15,03,00,AAXX 15031 12375 41456 80602 11030 21046 30081 40218 58003 71022 875// 333 82610=
12375,2009,12,15,06,00,AAXX 15061 12375 12460 80702 11031 21066 30084 40221 51003 60002 875// 333 11016 21032 3/104 47001 70008 87616 93000=
12375,2009,12,15,09,00,AAXX 15091 12375 41450 81103 11031 21051 30092 40229 51008 71022 875// 333 87610=
12375,2009,12,15,12,00,AAXX 15121 12375 11457 80903 11031 21056 30083 40220 58009 60001 71022 875// 333 83612 93000=
12375,2009,12,15,15,00,AAXX 15151 12375 42460 81003 11037 21065 30078 40215 57005 875// 333 87615=
12375,2009,12,15,18,00,AAXX 15181 12375 12465 80905 11053 21079 30076 40214 58002 60002 875// 333 11030 21053 87615 93000=
12375,2009,12,15,21,00,AAXX 15211 12375 42465 81004 11059 21083 30071 40209 57005 875// 333 87613=
12376,2009,12,15,00,00,AAXX 15001 12376 41212 80402 11036 21044 40203 52006 71022 866// 333 86704 88618 555 6//94=
12376,2009,12,15,01,00,AAXX 15011 12376 41215 80702 11037 21047 40203 52003 71022 866// 333 86704 88618 555 6//93=
12376,2009,12,15,02,00,AAXX 15021 12376 41215 80402 11039 21049 40202 54000 71022 856// 333 85704 88618 555 6//93=
12376,2009,12,15,03,00,AAXX 15031 12376 41215 80602 11041 21051 40202 57002 71022 856// 333 85704 88618 555 6//93=
12376,2009,12,15,04,00,AAXX 15041 12376 41230 80803 11043 21054 40203 54000 71022 846// 333 84704 88618 555 6//92=
12376,2009,12,15,06,00,AAXX 15061 12376 41240 80903 11044 21055 40205 52002 71022 826// 333 82706 88620 555 6//92=
12376,2009,12,15,07,00,AAXX 15071 12376 41240 80903 11045 21057 40209 52005 71022 826// 333 82706 88620 555 6//91=
12376,2009,12,15,08,00,AAXX 15081 12376 41340 81003 11043 21057 40214 52009 71022 836// 333 83707 88620 555 6//90=
12376,2009,12,15,09,00,AAXX 15091 12376 41356 81202 11043 21061 40215 52009 71022 826// 333 82707 88620 555 6//87=
12376,2009,12,15,10,00,AAXX 15101 12376 41558 81203 11043 21063 40213 51001 71022 885// 555 6//86=
12376,2009,12,15,11,00,AAXX 15111 12376 41558 81203 11042 21062 40210 57004 71022 885// 555 6//86=
12376,2009,12,15,12,00,AAXX 15121 12376 41458 80902 11042 21073 40207 57008 71022 885// 333 88617 555 6//79=
12376,2009,12,15,13,00,AAXX 15131 12376 41458 81203 11047 21078 40203 57010 71022 885// 333 88617 555 6//79=
12376,2009,12,15,14,00,AAXX 15141 12376 41458 81202 11050 21079 40203 57005 71022 885// 333 88616 555 6//80=
12376,2009,12,15,15,00,AAXX 15151 12376 41460 81003 11058 21082 40204 57003 885// 333 88612 555 6//83=
12376,2009,12,15,16,00,AAXX 15161 12376 42460 81002 11061 21087 40203 57001 885// 333 88612 555 6//82=
12376,2009,12,15,17,00,AAXX 15171 12376 42460 81203 11061 21087 40198 57005 885// 333 88612 555 6//82=
12376,2009,12,15,18,00,AAXX 15181 12376 42460 81203 11061 21084 40198 57007 885// 333 88613 555 6//83=
12376,2009,12,15,19,00,AAXX 15191 12376 42460 81203 11060 21084 40195 57007 885// 333 88613 555 6//83=
12376,2009,12,15,20,00,AAXX 15201 12376 42460 81004 11059 21083 40194 57004 885// 333 88613 555 6//83=
12376,2009,12,15,21,00,AAXX 15211 12376 42460 81203 11069 21091 40193 57003 885// 333 88613 555 6//84=
12376,2009,12,15,22,00,AAXX 15221 12376 42460 81003 11069 21087 40191 57002 885// 333 88612 555 6//87=
12376,2009,12,15,23,00,AAXX 15231 12376 42360 81304 11074 21093 40187 57007 846// 333 84709 88612 555 6//86=
12385,2009,12,15,00,00,AAXX 15001 12385 11450 80401 11046 21046 30024 40224 52006 60001 71022 885// 333 93000=
12385,2009,12,15,03,00,AAXX 15031 12385 41457 80000 11047 21047 30022 40222 56002 71022 885//=
12385,2009,12,15,06,00,AAXX 15061 12385 11558 80901 11048 21049 30025 40225 52003 60002 71022 885// 333 11030 21049 3/105 47003 70014 93000=
12385,2009,12,15,09,00,AAXX 15091 12385 41460 81103 11047 21054 30035 40235 51010 77172 885//=
12385,2009,12,15,12,00,AAXX 15121 12385 11461 80903 11059 21066 30028 40229 57007 69901 72272 885// 333 93097=
12385,2009,12,15,15,00,AAXX 15151 12385 42564 81002 11056 21068 30024 40224 55004 885//=
12385,2009,12,15,18,00,AAXX 15181 12385 12567 80904 11059 21076 30019 40219 56005 69902 875// 333 11046 21061 93000=
12385,2009,12,15,21,00,AAXX 15211 12385 41567 81303 11067 21079 30014 40215 57005 78582 889//=
12399,2009,12,15,00,00,AAXX 15001 12399 11561 80801 11048 21066 30047 40224 52003 69901 70272 885// 333 93097=
12399,2009,12,15,03,00,AAXX 15031 12399 42564 81002 11056 21076 30047 40225 50000 885//=
12399,2009,12,15,06,00,AAXX 15061 12399 12565 80302 11056 21076 30052 40230 52005 69902 885// 333 11046 21057 3/107 47001 70001 93000=
12399,2009,12,15,09,00,AAXX 15091 12399 41464 81702 11054 21075 30062 40240 52010 77172 885//=
12399,2009,12,15,12,00,AAXX 15121 12399 11469 81102 11050 21081 30053 40230 57009 69901 77172 885// 333 93097=
12399,2009,12,15,15,00,AAXX 15151 12399 41571 81003 11050 21091 30051 40228 56002 70272 885//=
12399,2009,12,15,18,00,AAXX 15181 12399 11571 81302 11054 21088 30048 40226 55003 69902 70272 885// 333 11049 21058 93097=
12399,2009,12,15,21,00,AAXX 15211 12399 42580 81203 11053 21089 30043 40220 57005 885//=
12400,2009,12,15,00,00,AAXX 15001 12400 11360 83402 11016 21023 39978 40223 57003 69901 77022 885// 333 93097=
12400,2009,12,15,03,00,AAXX 15031 12400 41550 73402 11020 21021 39972 40217 58006 71072 875//=
12400,2009,12,15,06,00,AAXX 15061 12400 11335 83602 11019 21019 39969 40214 55003 69902 71072 885// 333 11010 21020 3/102 43997 79999 93097=
12400,2009,12,15,09,00,AAXX 15091 12400 41325 80602 11022 21022 39973 40218 50004 71042 876//=
12400,2009,12,15,12,00,AAXX 15121 12400 11330 80402 11017 21017 39964 40208 58009 60001 72842 876// 333 93000=
12400,2009,12,15,15,00,AAXX 15151 12400 41550 80201 11014 21020 39955 40199 55009 71072 875//=
12400,2009,12,15,18,00,AAXX 15181 12400 11556 80802 11019 21027 39948 40192 57007 69902 78587 879// 333 11014 21022 93097=
12400,2009,12,15,21,00,AAXX 15211 12400 41556 70902 11026 21037 39941 40186 57007 71082 875//=
12415,2009,12,15,00,00,AAXX 15001 12415 11425 82802 11013 21013 30061 40220 57004 60031 77187 885// 333 93003=
12415,2009,12,15,03,00,AAXX 15031 12415 41450 83002 11013 21016 30055 40214 57006 71072 885//=
12415,2009,12,15,06,00,AAXX 15061 12415 11440 83202 11012 21013 30050 40209 55005 60032 77072 885// 333 11010 21014 3/103 43005 55/// 20089 70033 93093=
12415,2009,12,15,09,00,AAXX 15091 12415 41445 83602 11007 21014 30054 40212 51004 77177 885//=
12415,2009,12,15,12,00,AAXX 15121 12415 11440 80102 11005 21009 30042 40200 57012 69901 77177 885// 333 93097=
12415,2009,12,15,15,00,AAXX 15151 12415 41208 80303 11011 21011 30033 40191 56009 74672 886//=
12415,2009,12,15,18,00,AAXX 15181 12415 11330 81003 11013 21026 30028 40186 57005 69902 72274 885// 333 11005 21013 93097=
12415,2009,12,15,21,00,AAXX 15211 12415 42470 80603 11027 21040 30021 40180 57007 888//=
12418,2009,12,15,00,00,AAXX 15001 12418 11340 83403 11005 21012 30100 40218 57003 69901 77072 877// 333 93097=
12418,2009,12,15,03,00,AAXX 15031 12418 41340 83503 11007 21014 30097 40215 58003 71072 876//=
12418,2009,12,15,06,00,AAXX 15061 12418 11350 83201 11018 21024 30093 40212 55004 69902 71072 876// 333 11002 21018 3/103 43001 70002 93097=
12418,2009,12,15,09,00,AAXX 15091 12418 41340 83403 11016 21020 30097 40216 50004 71022 886//=
12418,2009,12,15,12,00,AAXX 15121 12418 11208 80104 11009 21009 30087 40205 58010 60001 74622 886// 333 93000=
12418,2009,12,15,15,00,AAXX 15151 12418 41230 80903 11009 21020 30080 40198 55007 71042 876//=
12418,2009,12,15,18,00,AAXX 15181 12418 11456 70603 11028 21042 30079 40198 58001 60002 71042 8353/ 333 11005 21029 93000=
12418,2009,12,15,21,00,AAXX 15211 12418 41558 80804 11028 21058 30070 40189 56009 71022 875//=
12424,2009,12,15,00,00,AAXX 15001 12424 11230 83001 11010 21016 30060 40218 57005 69921 77172 877// 333 87705 93092=
12424,2009,12,15,03,00,AAXX 15031 12424 41120 83401 11006 21010 30055 40213 57005 71072 876// 333 87702=
12424,2009,12,15,06,00,AAXX 15061 12424 11118 80201 11004 21010 30050 40208 55005 69952 71072 886// 333 11003 21011 3/101 43001 70005 88703 93093=
12424,2009,12,15,09,00,AAXX 15091 12424 41020 80102 11001 21005 30054 40212 51004 77072 877// 333 84701 87703=
12424,2009,12,15,12,00,AAXX 15121 12424 11258 70102 10006 21009 30044 40201 57010 69901 71072 875// 333 84706 93097=
12424,2009,12,15,15,00,AAXX 15151 12424 41458 70904 11009 21033 30034 40192 56010 71072 875// 333 84611=
12424,2009,12,15,18,00,AAXX 15181 12424 11482 80904 11022 21052 30033 40192 58001 69902 70372 875// 333 10006 21022 87616 93097=
12424,2009,12,15,21,00,AAXX 15211 12424 42580 81003 11030 21072 30024 40183 57009 875//=
12435,2009,12,15,00,00,AAXX 15001 12435 11212 83601 11003 21004 30037 40215 58001 69901 71074 886// 333 93097=
12435,2009,12,15,03,00,AAXX 15031 12435 41203 80101 11004 21005 30034 40212 58003 74642 886//=
12435,2009,12,15,06,00,AAXX 15061 12435 11456 71004 11019 21022 30033 40212 55001 69902 71042 875// 333 11002 21019 3/102 43997 79999 93000=
12435,2009,12,15,09,00,AAXX 15091 12435 41440 81003 11022 21035 30042 40221 51009 71022 885//=
12435,2009,12,15,12,00,AAXX 15121 12435 12562 70803 11024 21046 30035 40214 58007 60001 875// 333 93000=
12435,2009,12,15,15,00,AAXX 15151 12435 41550 71003 11027 21052 30025 40204 56010 71022 875//=
12435,2009,12,15,18,00,AAXX 15181 12435 11556 80903 11037 21065 30022 40202 58003 60002 71022 885// 333 11018 21038 93000=
12435,2009,12,15,21,00,AAXX 15211 12435 41557 80902 11034 21067 30012 40191 57010 71022 885//=
12452,2009,12,15,00,00,AAXX 15001 12452 41550 89901 11026 21036 40216 52004 71022 885// 555 6//93=
12452,2009,12,15,01,00,AAXX 15011 12452 41550 89901 11025 21036 40216 52003 71022 885// 555 6//92=
12452,2009,12,15,02,00,AAXX 15021 12452 41550 89901 11026 21040 40214 52001 71022 885// 555 6//90=
12452,2009,12,15,03,00,AAXX 15031 12452 41450 89901 11039 21049 40214 52001 71022 855// 333 85612 88620 555 6//93=
12452,2009,12,15,04,00,AAXX 15041 12452 41450 89901 11034 21041 40215 54000 71022 855// 333 85612 88620 555 6//95=
12452,2009,12,15,05,00,AAXX 15051 12452 41450 80602 11034 21047 40214 57001 71022 855// 333 85613 88620 555 6//91=
12452,2009,12,15,06,00,AAXX 15061 12452 41450 80601 11032 21048 40214 52001 71022 885// 333 88613 555 6//89=
12452,2009,12,15,07,00,AAXX 15071 12452 41450 80802 11030 21049 40216 52001 71022 885// 333 88613 555 6//87=
12452,2009,12,15,08,00,AAXX 15081 12452 41450 80902 11028 21048 40226 52010 71022 885// 333 88613 555 6//86=
12452,2009,12,15,09,00,AAXX 15091 12452 41450 80901 11028 21051 40221 52007 71022 885// 333 88613 555 6//84=
12452,2009,12,15,10,00,AAXX 15101 12452 41450 80801 11027 21053 40221 52005 71022 885// 333 88613 555 6//82=
12452,2009,12,15,11,00,AAXX 15111 12452 41450 80901 11026 21051 40216 57005 71022 885// 333 88613 555 6//83=
12452,2009,12,15,12,00,AAXX 15121 12452 41450 80802 11026 21056 40212 57009 71022 885// 333 88614 555 6//79=
12452,2009,12,15,13,00,AAXX 15131 12452 41450 81202 11027 21058 40209 57011 71022 885// 333 88615 555 6//78=
12452,2009,12,15,14,00,AAXX 15141 12452 41450 80902 11027 21060 40206 57011 71022 885// 333 88615 555 6//78=
12452,2009,12,15,15,00,AAXX 15151 12452 41450 80603 11028 21063 40204 57007 71022 885// 333 88615 555 6//77=
12452,2009,12,15,16,00,AAXX 15161 12452 41456 81003 11029 21064 40203 57006 71022 885// 333 88617 555 6//76=
12452,2009,12,15,17,00,AAXX 15171 12452 41456 80901 11028 21064 40202 57004 71022 885// 333 88617 555 6//76=
12452,2009,12,15,18,00,AAXX 15181 12452 41456 80702 11028 21063 40198 57006 71022 885// 333 88617 555 6//77=
12452,2009,12,15,19,00,AAXX 15191 12452 41456 80602 11029 21064 40196 57007 71022 885// 333 88617 555 6//77=
12452,2009,12,15,20,00,AAXX 15201 12452 41456 80702 11030 21063 40193 57008 71022 885// 333 88617 555 6//78=
12452,2009,12,15,21,00,AAXX 15211 12452 41456 81003 11034 21069 40191 57008 71022 885// 333 88617 555 6//78=
12452,2009,12,15,22,00,AAXX 15221 12452 41456 80902 11038 21074 40189 57007 71022 885// 333 88618 555 6//77=
12452,2009,12,15,23,00,AAXX 15231 12452 41456 81002 11042 21073 40189 57004 71022 885// 333 88617 555 6//79=
12454,2009,12,15,00,00,AAXX 15001 12454 31120 89901 11020 21023 40200 52002 71022 887// 333 84703 88615 555 6//98=
12454,2009,12,15,02,00,AAXX 15021 12454 31120 89901 11020 21028 40220 52000 71022 885// 333 840707 88615 555 6//98=
12454,2009,12,15,04,00,AAXX 15041 12454 31320 80602 11045 21048 40199 57003 71022 885// 333 84707 88610 555 6//98=
12454,2009,12,15,05,00,AAXX 15051 12454 31420 70401 11040 21041 40199 57001 71022 875// 333 87610 555 6//99=
12454,2009,12,15,06,00,AAXX 15061 12454 31456 70601 11037 21042 40199 56000 71022 875// 333 87612 45001 555 6//96=
12454,2009,12,15,07,00,AAXX 15071 12454 31458 81001 11036 21043 40205 52005 71022 885// 333 88612 555 80112 6//95=
12454,2009,12,15,08,00,AAXX 15081 12454 32460 70902 11034 21047 40206 52007 875// 333 87515 555 6//91=
12454,2009,12,15,09,00,AAXX 15091 12454 32460 71003 11033 21052 40206 52007 875// 333 87614 555 6//87=
12454,2009,12,15,10,00,AAXX 15101 12454 32460 80603 11032 21051 40204 57001 885// 333 88613 555 6//87=
12454,2009,12,15,11,00,AAXX 15111 12454 32460 80803 11034 21059 40201 57005 885// 333 88615 555 6//83=
12454,2009,12,15,12,00,AAXX 15121 12454 32460 80902 11033 21061 40199 57007 885// 333 88616 555 6//81=
12454,2009,12,15,13,00,AAXX 15131 12454 32460 81103 11032 21060 40194 57010 885// 333 88616 555 6//81=
12454,2009,12,15,15,00,AAXX 15151 12454 31558 81003 11031 21067 40190 57008 71022 885// 555 6//76=
12454,2009,12,15,16,00,AAXX 15161 12454 31458 80803 11031 21062 40188 57006 71022 885// 333 88618 555 6//79=
12454,2009,12,15,17,00,AAXX 15171 12454 31458 81003 11031 21062 40186 57004 71022 885// 333 88618 555 6//79=
12454,2009,12,15,18,00,AAXX 15181 12454 31458 80903 11033 21066 40183 57007 71022 885// 333 88618 555 6//78=
12454,2009,12,15,19,00,AAXX 15191 12454 31458 80702 11034 21065 40180 57008 71022 885// 333 88618 555 6//79=
12454,2009,12,15,20,00,AAXX 15201 12454 31458 80903 11037 21070 40178 57009 71022 885// 333 88618 555 6//78=
12454,2009,12,15,21,00,AAXX 15211 12454 31458 81104 11040 21068 40175 57008 71022 885// 333 88617 555 6//81=
12454,2009,12,15,22,00,AAXX 15221 12454 31457 81003 11043 21068 40172 57008 71022 885// 333 88614 555 6//83=
12454,2009,12,15,23,00,AAXX 15231 12454 31457 81103 11046 21072 40171 57007 71022 885// 333 88614 555 6//82=
12455,2009,12,15,00,00,AAXX 15001 12455 11214 82601 11012 21013 39959 40214 58002 69921 77142 877// 333 93092=
12455,2009,12,15,03,00,AAXX 15031 12455 41316 80000 11011 21012 39956 40210 56003 71022 886//=
12455,2009,12,15,06,00,AAXX 15061 12455 11419 80803 11018 21024 39954 40209 55002 69922 71022 885// 333 11010 21018 3/102 47997 70003 93000=
12455,2009,12,15,09,00,AAXX 15091 12455 41356 70702 11026 21045 39961 40217 51007 71022 875//=
12455,2009,12,15,12,00,AAXX 15121 12455 11458 80803 11033 21061 39954 40210 57007 60001 71022 875// 333 93000=
12455,2009,12,15,15,00,AAXX 15151 12455 41443 80802 11036 21070 39946 40203 56008 71022 875//=
12455,2009,12,15,18,00,AAXX 15181 12455 11445 80802 11033 21069 39937 40193 58009 60002 71022 885// 333 11018 21040 93000=
12455,2009,12,15,21,00,AAXX 15211 12455 41546 80703 11034 21069 39928 40184 57009 71022 875//=
12465,2009,12,15,00,00,AAXX 15001 12465 11550 80802 11027 21034 39975 40218 51002 69901 71072 875// 333 93097=
12465,2009,12,15,03,00,AAXX 15031 12465 42561 70603 11033 21049 39972 40215 57003 875//=
12465,2009,12,15,06,00,AAXX 15061 12465 12460 81003 11037 21052 39972 40216 54000 69902 875// 333 11007 21048 3/108 43001 55/// 20079 70007 87613 93000=
12465,2009,12,15,09,00,AAXX 15091 12465 41457 81102 11033 21050 39980 40223 51008 71022 875// 333 87613=
12465,2009,12,15,12,00,AAXX 15121 12465 12460 81204 11035 21063 39972 40215 57008 60001 885// 333 88616 93000=
12465,2009,12,15,15,00,AAXX 15151 12465 41558 80903 11033 21064 39963 40206 56009 71022 885//=
12465,2009,12,15,18,00,AAXX 15181 12465 11458 80803 11036 21061 39957 40200 57006 60002 71022 885// 333 11032 21037 93000=
12465,2009,12,15,21,00,AAXX 15211 12465 42460 80804 11043 21068 39950 40194 56007 885//=
12466,2009,12,15,05,00,AAXX 15051 12466 41450 81002 11033 21056 40202 57003 71022 885// 333 88612 555 6//84=
12466,2009,12,15,06,00,AAXX 15061 12466 41458 80803 11034 21059 40203 54000 71022 885// 333 88612 555 6//83=
12466,2009,12,15,07,00,AAXX 15071 12466 41458 81202 11035 21066 40209 52004 71022 885// 333 88612 555 6//79=
12466,2009,12,15,08,00,AAXX 15081 12466 41460 81102 11033 21063 40211 52009 885// 333 88615 555 6//80=
12466,2009,12,15,09,00,AAXX 15091 12466 41460 80902 11031 21066 40212 52008 885// 333 88615 555 6//77=
12466,2009,12,15,10,00,AAXX 15101 12466 41560 80801 11027 21067 40208 57001 885// 555 6//74=
12466,2009,12,15,11,00,AAXX 15111 12466 42560 80902 11025 21068 40205 57006 885// 555 6//72=
12466,2009,12,15,12,00,AAXX 15121 12466 42460 80902 11027 21063 40200 57012 885// 333 88617 555 6//76=
12466,2009,12,15,13,00,AAXX 15131 12466 41458 80802 11027 21063 40197 57011 71022 885// 333 88617 555 6//76=
12466,2009,12,15,15,00,AAXX 15151 12466 41458 80903 11031 21067 40193 57006 71022 885// 333 88617 555 6//76=
12466,2009,12,15,16,00,AAXX 15161 12466 41456 80902 11032 21065 40193 57005 71022 885// 333 88617 555 6//78=
12466,2009,12,15,17,00,AAXX 15171 12466 41456 80804 11035 21068 40191 57004 71022 885// 333 88617 555 6//78=
12466,2009,12,15,18,00,AAXX 15181 12466 41456 80903 11038 21069 40189 57004 71022 885// 333 88617 555 6//78=
12466,2009,12,15,19,00,AAXX 15191 12466 41456 81003 11042 21076 40187 57005 71022 885// 333 88617 555 6//77=
12469,2009,12,15,00,00,AAXX 15001 12469 12560 60602 11038 21051 39974 40216 52001 60001 865// 333 93000=
12469,2009,12,15,03,00,AAXX 15031 12469 41558 80702 11037 21050 39972 40214 58002 71022 885//=
12469,2009,12,15,06,00,AAXX 15061 12469 12560 80902 11034 21059 39972 40214 55000 60002 885// 333 11015 21039 3/105 47001 70001 93000=
12469,2009,12,15,09,00,AAXX 15091 12469 42560 81202 11033 21071 39978 40220 50006 885//=
12469,2009,12,15,12,00,AAXX 15121 12469 12560 80903 11027 21063 39968 40209 57010 60001 885// 333 93000=
12469,2009,12,15,15,00,AAXX 15151 12469 41450 80703 11029 21057 39960 40201 56008 71022 885//=
12469,2009,12,15,18,00,AAXX 15181 12469 11458 80904 11037 21071 39956 40198 57004 60002 71022 885// 333 11027 21037 93000=
12469,2009,12,15,21,00,AAXX 15211 12469 41558 81104 11046 21075 39948 40190 57008 71022 885//=
12485,2009,12,15,04,00,AAXX 15041 12485 41256 83302 11030 21031 40203 54000 71022 837// 333 83706 88527 6//99=
12485,2009,12,15,05,00,AAXX 15051 12485 41240 80104 11031 21033 40201 57002 71022 867// 333 86706 88520 6//98=
12485,2009,12,15,06,00,AAXX 15061 12485 41240 80403 11031 21033 40203 52001 71022 867// 333 86706 88520 6//98=
12485,2009,12,15,07,00,AAXX 15071 12485 41215 80502 11031 21032 40208 52004 71022 867// 333 86705 88520 6//99=
12485,2009,12,15,08,00,AAXX 15081 12485 41220 80803 11030 21031 40210 52008 71022 867// 333 86705 88520 6//99=
12485,2009,12,15,09,00,AAXX 15091 12485 41225 81003 11030 21033 40212 52008 71022 867// 333 86706 88520 6//98=
12485,2009,12,15,10,00,AAXX 15101 12485 41330 81003 11030 21035 40209 52001 71022 877// 333 87707 88615 6//96=
12485,2009,12,15,11,00,AAXX 15111 12485 41350 81003 11033 21044 40207 57003 71022 876// 333 87709 88620 6//92=
12485,2009,12,15,12,00,AAXX 15121 12485 41357 81104 11035 21048 40201 57010 71022 866// 333 86709 88620 6//91=
12485,2009,12,15,13,00,AAXX 15131 12485 41325 81004 11038 21051 40199 57009 71022 866// 333 86709 88620 6//91=
12485,2009,12,15,15,00,AAXX 15151 12485 41325 81104 11044 21049 40199 57002 71022 866// 333 86708 88620 6//96=
12485,2009,12,15,16,00,AAXX 15161 12485 41340 81104 11046 21050 40197 57002 71022 866// 333 86708 88620 6//97=
12485,2009,12,15,17,00,AAXX 15171 12485 41340 81103 11048 21053 40196 57004 71022 846// 333 84709 88620 6//96=
12485,2009,12,15,18,00,AAXX 15181 12485 41450 81004 11049 21060 40194 57005 71022 855// 333 85612 88620 6//92=
12485,2009,12,15,19,00,AAXX 15191 12485 41457 81004 11052 21072 40191 57006 71022 855// 333 85614 88620 6//86=
12485,2009,12,15,20,00,AAXX 15201 12485 41458 81004 11057 21072 40191 57005 71022 885// 333 88615 6//89=
12485,2009,12,15,21,00,AAXX 15211 12485 41458 81004 11065 21076 40190 57003 71022 885// 333 88613 6//92=
12485,2009,12,15,22,00,AAXX 15221 12485 41458 81104 11067 21075 40188 57003 71022 885// 333 88611 6//95=
12485,2009,12,15,23,00,AAXX 15231 12485 41458 81105 11072 21087 40185 57006 71022 885// 333 88611 6//89=
12488,2009,12,15,00,00,AAXX 15001 12488 11530 83401 11033 21034 30053 40215 51003 69901 71072 885// 333 93097=
12488,2009,12,15,03,00,AAXX 15031 12488 41530 80303 11035 21039 30054 40216 52001 71022 885//=
12488,2009,12,15,06,00,AAXX 15061 12488 11547 80602 11037 21044 30056 40218 52002 69902 71022 885// 333 11027 21038 3/104 47003 70007 93000=
12488,2009,12,15,09,00,AAXX 15091 12488 41557 80904 11039 21052 30066 40228 51010 71022 885//=
12488,2009,12,15,12,00,AAXX 15121 12488 11558 81003 11042 21056 30056 40218 58010 60001 71022 885// 333 93000=
12488,2009,12,15,15,00,AAXX 15151 12488 42560 80704 11051 21063 30053 40216 57003 885//=
12488,2009,12,15,18,00,AAXX 15181 12488 12564 80904 11058 21075 30049 40212 58004 60002 885// 333 11037 21058 93000=
12488,2009,12,15,21,00,AAXX 15211 12488 41550 81004 11070 21081 30045 40209 57004 77172 885//=
12490,2009,12,15,03,00,AAXX 15031 12490 41330 80403 11032 21046 40205 54000 71022 847// 333 84707 86610 88620 555 6//90=
12490,2009,12,15,04,00,AAXX 15041 12490 41330 80502 11034 21045 40207 52002 71022 857// 333 85708 86611 88620 555 6//92=
12490,2009,12,15,05,00,AAXX 15051 12490 41335 80603 11036 21050 40206 52006 71022 857// 333 85708 86610 88625 555 6//90=
12490,2009,12,15,06,00,AAXX 15061 12490 41340 80704 11038 21053 40208 52003 71022 847// 333 84708 86615 88627 555 6//89=
12490,2009,12,15,07,00,AAXX 15071 12490 41350 80703 11038 21053 40214 52006 71022 837// 333 83708 85610 88627 555 6//89=
12490,2009,12,15,08,00,AAXX 15081 12490 41350 80803 11039 21058 40216 52010 71022 827// 333 82708 88627 555 6//87=
12490,2009,12,15,09,00,AAXX 15091 12490 41456 80804 11042 21063 40220 52011 71022 835// 333 85612 85612 88625 555 6//85=
12490,2009,12,15,10,00,AAXX 15101 12490 41357 80904 11044 21068 40217 52003 71022 835// 333 83612 88625 555 6//83=
12490,2009,12,15,11,00,AAXX 15111 12490 41457 80904 11045 21069 40214 57004 71022 838// 333 83811 88625 555 6//83=
12490,2009,12,15,12,00,AAXX 15121 12490 41457 80904 11044 21066 40210 57009 71022 838// 333 83810 88625 555 6//85=
12490,2009,12,15,13,00,AAXX 15131 12490 41457 80904 11045 21068 40208 57009 71022 838// 333 83811 88625 555 6//84=
12490,2009,12,15,15,00,AAXX 15151 12490 41457 80803 11051 21072 40208 57001 71022 815// 333 81614 88625 555 6//85=
12490,2009,12,15,16,00,AAXX 15161 12490 41557 80803 11053 21077 40207 57002 71022 885// 333 88824 555 6//83=
12490,2009,12,15,17,00,AAXX 15171 12490 41558 80803 11056 21082 40206 57002 71022 885// 333 88820 555 6//82=
12490,2009,12,15,18,00,AAXX 15181 12490 41558 80803 11060 21090 40204 57005 71022 885// 555 6//79=
12490,2009,12,15,19,00,AAXX 15191 12490 41458 80904 11068 21090 40203 57004 71022 885// 333 88817 555 6//84=
12490,2009,12,15,20,00,AAXX 15201 12490 41458 80903 11069 21088 40203 57002 71022 885// 333 88817 555 6//86=
12490,2009,12,15,21,00,AAXX 15211 12490 41458 81004 11070 21096 40201 57003 71022 885// 333 88614 555 6//83=
12490,2009,12,15,22,00,AAXX 15221 12490 41458 81005 11070 21097 40199 57003 71022 885// 333 88815 555 6//81=
12495,2009,12,15,00,00,AAXX 15001 12495 11218 80000 11040 21044 39905 40211 54000 69941 77377 8672/ 333 93094=
12495,2009,12,15,03,00,AAXX 15031 12495 41226 80702 11038 21042 39907 40213 51002 71072 886//=
12495,2009,12,15,06,00,AAXX 15061 12495 11230 80702 11044 21052 39912 40219 52005 69942 71072 886// 333 11030 21044 3/104 47003 70016 93097=
12495,2009,12,15,09,00,AAXX 15091 12495 41558 80803 11051 21072 39922 40230 51010 71022 885//=
12495,2009,12,15,12,00,AAXX 15121 12495 11557 80803 11055 21075 39912 40220 58010 69901 72222 885// 333 93097=
12495,2009,12,15,15,00,AAXX 15151 12495 41457 80803 11061 21078 39911 40220 55001 71022 885//=
12495,2009,12,15,18,00,AAXX 15181 12495 11360 81104 11077 21089 39907 40217 57004 69902 72222 886// 333 11044 21077 93097=
12495,2009,12,15,21,00,AAXX 15211 12495 41468 81205 11074 21095 39901 40211 58006 77022 885//=
12497,2009,12,15,00,00,AAXX 15001 12497 11457 80603 11046 21066 39989 40220 50002 69901 71072 885// 333 93097=
12497,2009,12,15,03,00,AAXX 15031 12497 41559 80704 11058 21082 39991 40223 52002 71022 885//=
12497,2009,12,15,06,00,AAXX 15061 12497 12565 80603 11060 21083 39998 40230 52007 69902 885// 333 11039 21061 3/106 47997 55009 79999 93000=
12497,2009,12,15,09,00,AAXX 15091 12497 41565 80703 11067 21088 30009 40242 52011 77072 885//=
12497,2009,12,15,12,00,AAXX 15121 12497 11565 80802 11063 21086 39995 40227 57014 69901 77072 885// 333 93097=
12497,2009,12,15,15,00,AAXX 15151 12497 41565 80804 11070 21094 39995 40228 50000 77072 885//=
12497,2009,12,15,18,00,AAXX 15181 12497 11570 81204 11062 21097 39990 40222 57005 69902 77072 885// 333 11060 21071 93097=
12497,2009,12,15,21,00,AAXX 15211 12497 41570 81104 11058 21099 39985 40217 57005 77077 885//=
12500,2009,12,15,00,00,AAXX 15001 12500 11420 80000 11031 21031 39792 40227 58004 60011 72272 875// 333 93001=
12500,2009,12,15,03,00,AAXX 15031 12500 41426 80000 11030 21030 39786 40221 58006 77177 885//=
12500,2009,12,15,06,00,AAXX 15061 12500 11415 83501 11027 21027 39781 40215 55005 60022 71072 885// 333 11027 21033 3/103 47005 70020 93096=
12500,2009,12,15,09,00,AAXX 15091 12500 41434 83101 11023 21026 39784 40218 52003 77172 885//=
12500,2009,12,15,12,00,AAXX 15121 12500 11459 73301 11015 21029 39769 40201 57015 69931 72272 875// 333 93093=
12500,2009,12,15,15,00,AAXX 15151 12500 41533 80000 11020 21024 39759 40191 57010 77172 875//=
12500,2009,12,15,18,00,AAXX 15181 12500 11558 70502 11023 21033 39752 40184 58007 69952 71072 875// 333 11014 21027 93092=
12500,2009,12,15,21,00,AAXX 15211 12500 41562 70803 11042 21056 39745 40180 57007 70182 875//=
12510,2009,12,15,00,00,AAXX 15001 12510 11/90 93603 11105 21110 38318 48447 58003 69911 74943 333 93091=
12510,2009,12,15,03,00,AAXX 15031 12510 41/90 93603 11105 21110 38313 48442 56005 74944=
12510,2009,12,15,06,00,AAXX 15061 12510 11/90 90202 11108 21114 38309 48439 55004 69922 74944 333 11101 21109 3//// 49016 70013 93091=
12510,2009,12,15,09,00,AAXX 15091 12510 41/90 90405 11099 21105 38310 48439 50001 74944=
12510,2009,12,15,12,00,AAXX 15121 12510 11/90 90408 11103 21109 38299 48429 57011 69951 77043 333 93095=
12510,2009,12,15,15,00,AAXX 15151 12510 41/90 90208 11114 21120 38286 48418 56013 77043=
12510,2009,12,15,18,00,AAXX 15181 12510 11/90 90209 11112 21118 38278 48410 58008 60022 77043 333 11093 21120 93001=
12510,2009,12,15,21,00,AAXX 15211 12510 41/90 90207 11128 21134 38263 48398 57015 74973=
12520,2009,12,15,00,00,AAXX 15001 12520 11435 80000 11028 21035 39769 40220 57006 69901 71072 885// 333 93097=
12520,2009,12,15,03,00,AAXX 15031 12520 41450 80000 11023 21031 39763 40213 57006 77072 885//=
12520,2009,12,15,06,00,AAXX 15061 12520 11409 80502 11024 21028 39757 40207 56006 69922 77074 885// 333 11022 21033 3/103 47001 70002 93092=
12520,2009,12,15,09,00,AAXX 15091 12520 41450 80203 11020 21024 39758 40207 50001 77085 885//=
12520,2009,12,15,12,00,AAXX 15121 12520 11462 70303 11016 21032 39747 40195 58011 69971 77885 875// 333 93001=
12520,2009,12,15,15,00,AAXX 15151 12520 41462 80403 11021 21040 39737 40186 56010 72282 885//=
12520,2009,12,15,18,00,AAXX 15181 12520 11460 70304 11037 21060 39732 40183 57005 69972 70287 875// 333 11015 21037 93097=
12520,2009,12,15,21,00,AAXX 15211 12520 41458 70302 11048 21076 39724 40177 57008 71022 875//=
12530,2009,12,15,00,00,AAXX 15001 12530 11215 83002 11013 21013 30007 40214 57006 69901 71072 885// 333 85705 88695 93097=
12530,2009,12,15,03,00,AAXX 15031 12530 41230 83501 11011 21011 30003 40210 57004 71022 886// 333 88605=
12530,2009,12,15,06,00,AAXX 15061 12530 11225 80000 11012 21012 39997 40204 56006 69902 72022 885// 333 11011 21017 3/102 47997 79999 93097=
12530,2009,12,15,09,00,AAXX 15091 12530 41330 80302 11008 21011 30001 40208 50004 71022 885// 333 83706 88696=
12530,2009,12,15,12,00,AAXX 15121 12530 12562 70603 11006 21035 39990 40196 58011 60001 878// 333 93000=
12530,2009,12,15,15,00,AAXX 15151 12530 42568 80503 11023 21051 39984 40191 56006 885//=
12530,2009,12,15,18,00,AAXX 15181 12530 12560 80103 11030 21060 39979 40187 58005 60002 885// 333 11001 21031 93000=
12530,2009,12,15,21,00,AAXX 15211 12530 41559 80404 11024 21064 39966 40173 56013 71022 885//=
12540,2009,12,15,00,00,AAXX 15001 12540 11435 80103 11015 21026 39952 40214 57009 60001 71022 885// 333 93000=
12540,2009,12,15,03,00,AAXX 15031 12540 41436 83602 11015 21029 39948 40210 58004 71022 885//=
12540,2009,12,15,06,00,AAXX 15061 12540 11437 70302 11014 21025 39941 40203 58007 69922 77022 875// 333 11014 21017 3/102 47998 70002 93092=
12540,2009,12,15,09,00,AAXX 15091 12540 41431 80303 11012 21023 39943 40205 50002 71072 885//=
12540,2009,12,15,12,00,AAXX 15121 12540 11565 60306 11014 21064 39931 40193 58012 69901 70172 868// 333 93097=
12540,2009,12,15,15,00,AAXX 15151 12540 41556 80804 11032 21075 39927 40190 57004 71022 885//=
12540,2009,12,15,18,00,AAXX 15181 12540 11556 80205 11029 21067 39914 40177 57013 69902 71011 885// 333 11007 21032 93000=
12540,2009,12,15,21,00,AAXX 15211 12540 42561 80705 11029 21082 39906 40168 56008 885//=
12550,2009,12,15,00,00,AAXX 15001 12550 11320 83202 11021 21025 39840 40213 57006 69921 77122 885// 333 93092=
12550,2009,12,15,03,00,AAXX 15031 12550 41330 80202 11017 21021 39838 40210 56002 71072 885//=
12550,2009,12,15,06,00,AAXX 15061 12550 11460 81002 11030 21050 39835 40209 56003 69922 70372 885// 333 11017 21031 3/103 47001 70003 93097=
12550,2009,12,15,09,00,AAXX 15091 12550 42565 80303 11036 21061 39841 40216 50006 885//=
12550,2009,12,15,12,00,AAXX 15121 12550 12560 81002 11042 21076 39834 40210 57007 60001 885// 333 93000=
12550,2009,12,15,15,00,AAXX 15151 12550 41558 80503 11034 21069 39822 40196 56012 71022 885//=
12550,2009,12,15,18,00,AAXX 15181 12550 11558 80702 11032 21074 39815 40188 57007 60002 71022 885// 333 11030 21044 93000=
12550,2009,12,15,21,00,AAXX 15211 12550 41558 80704 11042 21081 39806 40180 57009 71022 885//=
12560,2009,12,15,00,00,AAXX 15001 12560 11550 83401 11021 21031 39859 40213 57010 69901 72272 885// 333 93097=
12560,2009,12,15,03,00,AAXX 15031 12560 41550 80101 11022 21029 39857 40211 57002 71022 885//=
12560,2009,12,15,06,00,AAXX 15061 12560 11440 80701 11021 21027 39852 40206 57005 69902 71022 885// 333 11019 21029 3/103 47003 79999 93000=
12560,2009,12,15,09,00,AAXX 15091 12560 41565 50302 11031 21062 39856 40211 50004 72622 84230=
12560,2009,12,15,12,00,AAXX 15121 12560 11598 70403 11038 21076 39847 40203 57009 69901 70181 875// 333 93097=
12560,2009,12,15,15,00,AAXX 15151 12560 41558 70403 11031 21067 39834 40188 57013 72272 875//=
12560,2009,12,15,18,00,AAXX 15181 12560 11565 80605 11033 21075 39827 40181 57007 69902 70272 885// 333 11020 21041 93097=
12560,2009,12,15,21,00,AAXX 15211 12560 41465 80707 11045 21081 39819 40175 56008 77172 885//=
12566,2009,12,15,00,00,AAXX 15001 12566 11450 82402 11032 21042 39912 40215 56009 69921 72272 875// 333 87610 93092=
12566,2009,12,15,03,00,AAXX 15031 12566 41440 81901 11027 21038 39909 40212 57003 71022 875// 333 84612=
12566,2009,12,15,06,00,AAXX 15061 12566 11550 80302 11028 21038 39906 40209 57003 69922 71022 875// 333 11026 21034 3/104 47001 70003 93000=
12566,2009,12,15,09,00,AAXX 15091 12566 42570 70303 11030 21072 39911 40214 51005 875//=
12566,2009,12,15,12,00,AAXX 15121 12566 11558 80604 11028 21063 39897 40199 57014 60001 71022 875// 333 93000=
12566,2009,12,15,15,00,AAXX 15151 12566 41457 80506 11025 21055 39883 40185 56014 71072 875// 333 83616=
12566,2009,12,15,18,00,AAXX 15181 12566 11570 80607 11034 21074 39878 40180 57005 69902 70272 875// 333 11025 21035 93097=
12566,2009,12,15,21,00,AAXX 15211 12566 42570 80607 11045 21083 39872 40176 56006 875//=
12570,2009,12,15,00,00,AAXX 15001 12570 11466 70302 11038 21061 39883 40216 57001 69901 70272 875// 333 93097=
12570,2009,12,15,03,00,AAXX 15031 12570 42564 80103 11045 21068 39883 40217 54000 885//=
12570,2009,12,15,06,00,AAXX 15061 12570 12460 80302 11036 21066 39881 40213 56002 69902 885// 333 11021 21047 3/105 47997 70003 93000=
12570,2009,12,15,09,00,AAXX 15091 12570 41456 80802 11028 21061 39884 40215 50003 77722 885//=
12570,2009,12,15,12,00,AAXX 15121 12570 11562 80603 11025 21072 39873 40204 57011 69901 70272 885// 333 93097=
12570,2009,12,15,15,00,AAXX 15151 12570 41458 80705 11034 21067 39869 40201 55004 71072 885//=
12570,2009,12,15,18,00,AAXX 15181 12570 11463 81004 11048 21080 39865 40198 58004 69902 77072 885// 333 11024 21048 93097=
12570,2009,12,15,21,00,AAXX 15211 12570 41466 80905 11059 21088 39859 40194 57006 77077 885//=
12575,2009,12,15,00,00,AAXX 15001 12575 11530 82901 11030 21043 39945 40211 57008 69911 71072 885// 333 93091=
12575,2009,12,15,03,00,AAXX 15031 12575 41530 80201 11029 21040 39944 40210 58001 71022 885//=
12575,2009,12,15,06,00,AAXX 15061 12575 11560 73601 11033 21053 39942 40209 57002 69912 70272 875// 333 11027 21036 3/104 47001 70003 93097=
12575,2009,12,15,09,00,AAXX 15091 12575 41458 80101 11027 21052 39946 40212 50004 71022 885//=
12575,2009,12,15,12,00,AAXX 15121 12575 11456 70703 11023 21043 39931 40196 57015 69901 72672 878// 333 93097=
12575,2009,12,15,15,00,AAXX 15151 12575 42564 80802 11029 21074 39925 40191 57006 885//=
12575,2009,12,15,18,00,AAXX 15181 12575 12562 80903 11036 21079 39919 40185 57006 69902 885// 333 11022 21036 93000=
12575,2009,12,15,21,00,AAXX 15211 12575 42565 80904 11050 21091 39913 40181 57006 885//=
12580,2009,12,15,00,00,AAXX 15001 12580 11320 82702 11033 21038 39938 40209 57008 69931 77177 885// 333 85707 88611 93093=
12580,2009,12,15,03,00,AAXX 15031 12580 41325 83101 11034 21037 39937 40208 56001 77177 885// 333 85707=
12580,2009,12,15,06,00,AAXX 15061 12580 11240 80402 11033 21037 39935 40206 57002 69952 71072 886// 333 11032 21041 3/104 47002 70006 88704 93092=
12580,2009,12,15,09,00,AAXX 15091 12580 41256 80804 11033 21046 39942 40213 51007 77122 885// 333 84706=
12580,2009,12,15,12,00,AAXX 15121 12580 11460 80704 11030 21055 39931 40201 57011 69901 72222 888// 333 83813 93097=
12580,2009,12,15,15,00,AAXX 15151 12580 42560 80705 11036 21070 39925 40196 57006 885//=
12580,2009,12,15,18,00,AAXX 15181 12580 12560 80606 11050 21082 39921 40193 58004 69902 885// 333 11029 21050 93000=
12580,2009,12,15,21,00,AAXX 15211 12580 42565 80706 11057 21088 39914 40187 57007 885//=
12585,2009,12,15,00,00,AAXX 15001 12585 11559 83203 11035 21039 39930 40209 58003 69981 72272 885// 333 93001=
12585,2009,12,15,03,00,AAXX 15031 12585 41540 83402 11031 21036 39931 40210 53001 71022 885//=
12585,2009,12,15,06,00,AAXX 15061 12585 11524 80202 11030 21031 39930 40209 57001 69982 71022 885// 333 11026 21036 3/104 47004 70011 93000=
12585,2009,12,15,09,00,AAXX 15091 12585 41535 80602 11030 21035 39937 40216 50007 77022 885//=
12585,2009,12,15,12,00,AAXX 15121 12585 11550 80403 11032 21042 39928 40207 58009 69901 71072 885// 333 93097=
12585,2009,12,15,15,00,AAXX 15151 12585 41559 80703 11044 21059 39928 40208 55000 71022 885//=
12585,2009,12,15,18,00,AAXX 15181 12585 12560 80704 11056 21080 39922 40203 57006 69902 885// 333 11027 21056 93000=
12585,2009,12,15,21,00,AAXX 15211 12585 42561 80603 11072 21090 39918 40201 57004 885//=
12595,2009,12,15,00,00,AAXX 15001 12595 36/// /0000 11035 21043 39927 40211 57004 60021=
12595,2009,12,15,03,00,AAXX 15031 12595 36/// /0802 11035 21041 39930 40214 52003=
12595,2009,12,15,09,00,AAXX 15091 12595 36/// /0904 11054 21072 39942 40228 52011=
12595,2009,12,15,12,00,AAXX 15121 12595 36/// /9904 11056 21077 39933 40219 57009 60021=
12595,2009,12,15,15,00,AAXX 15151 12595 36/// /9904 11067 21085 39933 40220 54000=
12595,2009,12,15,18,00,AAXX 15181 12595 36/// /9904 11081 21102 39929 40218 57004 60022 333 11040 21046=
12595,2009,12,15,21,00,AAXX 15211 12595 36/// /1106 11076 21102 39922 40210 57007=
12600,2009,12,15,00,00,AAXX 15001 12600 11430 80000 11035 21051 39713 40217 56009 69901 72272 885// 333 93097=
12600,2009,12,15,03,00,AAXX 15031 12600 41420 81001 11035 21051 39708 40212 58005 77172 885//=
12600,2009,12,15,06,00,AAXX 15061 12600 11420 80801 11034 21044 39702 40205 57006 69912 77172 885// 333 11033 21042 3/104 47001 70001 93091=
12600,2009,12,15,09,00,AAXX 15091 12600 41430 70603 11030 21050 39703 40206 50001 71072 875//=
12600,2009,12,15,12,00,AAXX 15121 12600 11570 70603 11036 21079 39691 40194 57012 69901 71072 875// 333 93097=
12600,2009,12,15,15,00,AAXX 15151 12600 41440 80603 11048 21072 39679 40184 57012 77172 885//=
12600,2009,12,15,18,00,AAXX 15181 12600 11456 70605 11043 21074 39668 40171 57011 69902 71072 875// 333 11027 21048 93097=
12600,2009,12,15,21,00,AAXX 15211 12600 41458 80604 11049 21081 39659 40163 56009 71022 885// 333 91111=
12625,2009,12,15,00,00,AAXX 15001 12625 11440 70000 11075 21089 39167 42787 56006 69901 77122 875// 333 93097=
12625,2009,12,15,03,00,AAXX 15031 12625 41556 70000 11074 21082 39161 42782 57006 77177 875//=
12625,2009,12,15,06,00,AAXX 15061 12625 11558 70502 11069 21083 39155 42777 57006 69912 77177 875// 333 11067 21087 3/113 47007 55039 20408 70002 93091=
12625,2009,12,15,09,00,AAXX 15091 12625 41458 80302 11075 21096 39153 42775 57002 77172 885//=
12625,2009,12,15,12,00,AAXX 15121 12625 11565 70402 11076 21103 39139 42763 57014 69911 70172 875// 333 93091=
12625,2009,12,15,15,00,AAXX 15151 12625 41356 80601 11079 21093 39126 42753 58013 77122 885//=
12625,2009,12,15,18,00,AAXX 15181 12625 11460 70402 11088 21104 39118 42746 58008 60012 77122 875// 333 11069 21088 93001=
12625,2009,12,15,21,00,AAXX 15211 12625 41456 80601 11091 21106 39110 42739 57008 77177 885//=
12650,2009,12,15,00,00,AAXX 15001 12650 11/60 30708 11154 21165 37906 48440 57009 60001 70341 83501 333 93000=
12650,2009,12,15,03,00,AAXX 15031 12650 42/60 70605 11157 21171 37900 48435 58006 875//=
12650,2009,12,15,06,00,AAXX 15061 12650 11/00 90308 11157 21172 37889 48424 57011 60002 74911 333 11126 21159 3//// 48041 55061 93000=
12650,2009,12,15,09,00,AAXX 15091 12650 41/00 70304 11162 21179 37885 48421 58004 77143 875//=
12650,2009,12,15,12,00,AAXX 15121 12650 11/01 60609 11158 21173 37875 48411 57010 69911 74173 85501 333 93091=
12650,2009,12,15,15,00,AAXX 15151 12650 41/00 80706 11168 21185 37863 48401 56012 77143 885//=
12650,2009,12,15,18,00,AAXX 15181 12650 11980 50805 11154 21169 37858 48393 58005 60012 70374 80008 333 11154 21171 93001=
12650,2009,12,15,21,00,AAXX 15211 12650 42930 62002 11098 21185 37854 48376 56004 83048=
12660,2009,12,15,00,00,AAXX 15001 12660 11556 82301 11035 21061 39841 40217 56009 69901 71082 885// 333 93097=
12660,2009,12,15,03,00,AAXX 15031 12660 41540 83601 11032 21051 39838 40213 57003 72622 885//=
12660,2009,12,15,06,00,AAXX 15061 12660 11456 83603 11029 21055 39831 40206 57007 69902 78582 883// 333 11026 21039 34104 55008 79999 93097=
12660,2009,12,15,09,00,AAXX 15091 12660 41556 83401 11031 21064 39836 40211 51005 71082 885//=
12660,2009,12,15,12,00,AAXX 15121 12660 11560 83602 11027 21063 39819 40193 56017 69901 72682 885// 333 93097=
12660,2009,12,15,15,00,AAXX 15151 12660 41560 80403 11031 21078 39811 40185 57008 70282 885//=
12660,2009,12,15,18,00,AAXX 15181 12660 11560 80404 11037 21082 39805 40180 57006 69902 70282 885// 333 11024 21038 93097=
12660,2009,12,15,21,00,AAXX 15211 12660 41458 80404 11045 21086 39796 40171 56009 77072 885//=
12670,2009,12,15,00,00,AAXX 15001 12670 11350 82401 11043 21051 39794 40215 56008 69911 77077 885// 333 88693 93091=
12670,2009,12,15,03,00,AAXX 15031 12670 41418 83202 11044 21044 39788 40209 57006 77177 8652/=
12670,2009,12,15,06,00,AAXX 15061 12670 11350 83602 11041 21045 39784 40204 57004 69962 77177 8652/ 333 11040 21047 3/105 47003 70006 86693 88499 93095=
12670,2009,12,15,09,00,AAXX 15091 12670 41230 70702 11034 21037 39787 40206 50003 78577 879//=
12670,2009,12,15,12,00,AAXX 15121 12670 11568 70703 11037 21073 39775 40194 57012 69901 72687 875// 333 93097=
12670,2009,12,15,15,00,AAXX 15151 12670 42567 70605 11043 21082 39767 40187 57008 875// 333 91110=
12670,2009,12,15,18,00,AAXX 15181 12670 12562 80604 11049 21080 39760 40180 57007 69902 885// 333 11021 21049 91111 93000=
12670,2009,12,15,21,00,AAXX 15211 12670 41467 80804 11061 21092 39752 40174 57008 77072 885// 333 91110=
12690,2009,12,15,00,00,AAXX 15001 12690 11458 80000 11063 21071 39681 40217 56011 69911 77188 8772/ 333 93091=
12690,2009,12,15,03,00,AAXX 15031 12690 41450 80000 11057 21062 39676 40210 57005 77177 8772/=
12690,2009,12,15,06,00,AAXX 15061 12690 11461 80701 11054 21064 39671 40204 57005 69952 78572 889// 333 11053 21065 3/108 47004 55003 70006 93094=
12690,2009,12,15,09,00,AAXX 15091 12690 41556 71002 11047 21070 39675 40207 51004 78588 879//=
12690,2009,12,15,12,00,AAXX 15121 12690 11570 80804 11047 21085 39660 40191 56015 69901 72682 889// 333 91109 93097=
12690,2009,12,15,15,00,AAXX 15151 12690 41564 80804 11053 21084 39652 40184 58008 78582 889// 333 91109=
12690,2009,12,15,18,00,AAXX 15181 12690 11563 80806 11061 21088 39646 40179 58006 69902 72782 889// 333 11045 21061 91113 93097=
12690,2009,12,15,21,00,AAXX 15211 12690 41562 81004 11069 21098 39636 40171 57010 77872 885// 333 91112=
12695,2009,12,15,00,00,AAXX 15001 12695 36/// /9901 11044 21064 39858 40214 57009 69911=
12695,2009,12,15,06,00,AAXX 15061 12695 36/// /9901 11044 21055 39854 40210 54000 69912 333 11039 21044 70000=
12695,2009,12,15,09,00,AAXX 15091 12695 36/// /9902 11040 21064 39860 40216 52006=
12695,2009,12,15,12,00,AAXX 15121 12695 36/// /0804 11036 21079 39848 40203 57012 69911=
12695,2009,12,15,15,00,AAXX 15151 12695 36/// /0704 11044 21079 39843 40199 57005=
12695,2009,12,15,18,00,AAXX 15181 12695 36/// /0704 11053 21085 39838 40195 57005 69912 333 11036 21044=
12695,2009,12,15,21,00,AAXX 15211 12695 36/// /0705 11061 21093 39829 40186 57009=