12510,2015,07,01,00,00,AAXX 01001 12510 12984 10501 10091 20070 38454 48568 54000 60001 80001 333 91211 93000=
12510,2015,07,01,01,00,AAXX 01011 12510 42984 23303 10097 20066 38453 48567 58001 80005 333 91203 555 57015 90005=
12510,2015,07,01,02,00,AAXX 01021 12510 42784 23103 10096 20065 38452 48566 58002 81031 333 91203 444 17113 555 90005=
12510,2015,07,01,03,00,AAXX 01031 12510 42784 43206 10096 20069 38453 48567 55001 81032 333 91206 444 27113=
12510,2015,07,01,04,00,AAXX 01041 12510 42984 13306 10096 20070 38454 48568 53001 80002 333 91206 444 17113 555 90005=
12510,2015,07,01,05,00,AAXX 01051 12510 42384 13505 10095 20073 38454 48568 51002 81100 333 91206 555 90005=
12510,2015,07,01,06,00,AAXX 01061 12510 12384 23505 10094 20068 38457 48571 52004 60002 82100 333 10107 20088 30/// 55064 79999 91206 93000=
12510,2015,07,01,07,00,AAXX 01071 12510 42384 30105 10096 20063 38461 48575 53007 83100 333 91205 555 57019 90005=
12510,2015,07,01,08,00,AAXX 01081 12510 42384 30104 10097 20076 38465 48579 52011 83200 333 91205 555 90005=
12510,2015,07,01,09,00,AAXX 01091 12510 42484 40105 10099 20077 38468 48582 52011 84200 333 91206=
12510,2015,07,01,10,00,AAXX 01101 12510 42484 50405 10118 20085 38471 48585 52010 85200 333 91010 91110 91205 555 90005=
12510,2015,07,01,11,00,AAXX 01111 12510 42484 50305 10111 20081 38471 48585 51006 85200 333 91205 555 90005=
12510,2015,07,01,12,00,AAXX 01121 12510 12484 50404 10123 20088 38471 48585 51003 60001 85100 333 91110 91206 93000=
12510,2015,07,01,13,00,AAXX 01131 12510 42484 50504 10122 20083 38472 48586 53001 85100 333 91205 555 57030 90005=
12510,2015,07,01,14,00,AAXX 01141 12510 42484 50304 10126 20085 38472 48586 52001 85100 333 91205 555 90005=
12510,2015,07,01,15,00,AAXX 01151 12510 42484 40304 10131 20084 38472 48586 51001 84100 333 91205=
12510,2015,07,01,16,00,AAXX 01161 12510 42484 30305 10129 20080 38471 48585 58001 83401 333 91205 555 90005=
12510,2015,07,01,17,00,AAXX 01171 12510 42484 30105 10130 20081 38471 48585 57001 83401 333 91206 555 90005=
12510,2015,07,01,18,00,AAXX 01181 12510 12984 10903 10117 20074 38471 48585 56001 60002 80001 333 10138 20093 91206 93000=
12510,2015,07,01,19,00,AAXX 01191 12510 42984 11005 10107 20074 38472 48586 53001 80001 333 91206 555 57034 90005=
12510,2015,07,01,20,00,AAXX 01201 12510 42984 11005 10106 20063 38476 48590 53005 80001 333 91207 555 0//// 1//// 2//// 3//// 90005=
12510,2015,07,01,21,00,AAXX 01211 12510 42984 11107 10103 20074 38477 48591 52006 80001 333 91207=
12510,2015,07,01,22,00,AAXX 01221 12510 42384 11107 10102 20065 38477 48591 51005 81501 333 91208 555 60107 90005=
12510,2015,07,01,23,00,AAXX 01231 12510 42384 61305 10102 20065 38480 48594 52004 81506 333 91207 555 90005=
12510,2015,07,02,00,00,AAXX 02001 12510 12984 61305 10099 20068 38479 48593 50002 60001 80008 333 91208 93000=
12510,2015,07,02,01,00,AAXX 02011 12510 42984 51305 10096 20065 38479 48593 51002 80008 333 91205 555 57023 90005=
12510,2015,07,02,02,00,AAXX 02021 12510 42984 31304 10096 20063 38478 48592 57002 80001 333 91206 444 17113 555 90005=
12510,2015,07,02,03,00,AAXX 02031 12510 42984 11304 10098 20067 38478 48592 57001 80001 333 91206 444 17113=
12510,2015,07,02,04,00,AAXX 02041 12510 42984 11203 10097 20057 38479 48593 55000 80001 333 91203 444 17113 555 90005=
12510,2015,07,02,05,00,AAXX 02051 12510 42984 11003 10103 20061 38481 48595 53003 80002 333 91109 91204 555 90005=
12510,2015,07,02,06,00,AAXX 02061 12510 12984 10802 10117 20072 38485 48599 53007 60002 80002 333 10117 20093 30/// 55124 91109 91206 93000=
12510,2015,07,02,07,00,AAXX 02071 12510 42484 11102 10123 20070 38487 48601 52008 81102 333 91203 555 57036 90005=
12510,2015,07,02,08,00,AAXX 02081 12510 42484 19902 10132 20068 38489 48602 52008 81102 333 91203 555 90005=
12510,2015,07,02,09,00,AAXX 02091 12510 42484 10103 10134 20065 38491 48604 52006 81102 333 91204=
12510,2015,07,02,10,00,AAXX 02101 12510 42484 10305 10129 20071 38494 48607 52007 81102 333 91109 91206 555 90005=
12510,2015,07,02,11,00,AAXX 02111 12510 42484 10404 10144 20074 38496 48609 52007 81100 333 91205 555 90005=
12510,2015,07,02,12,00,AAXX 02121 12510 12484 11105 10142 20073 38495 48608 50004 60001 81100 333 91109 91206 93000=
12510,2015,07,02,13,00,AAXX 02131 12510 42484 11304 10148 20076 38495 48608 51001 81100 333 91109 91205 555 57060 90005=
12510,2015,07,02,14,00,AAXX 02141 12510 42484 11204 10144 20072 38494 48607 57002 81400 333 91110 91205 555 90005=
12510,2015,07,02,15,00,AAXX 02151 12510 42484 11204 10145 20078 38494 48607 57001 81400 333 91110 91205=
12510,2015,07,02,16,00,AAXX 02161 12510 42984 01204 10141 20076 38494 48607 56001 333 91205 555 90005=
12510,2015,07,02,17,00,AAXX 02171 12510 42984 01205 10135 20079 38495 48608 53001 333 91205 555 90005=
12510,2015,07,02,18,00,AAXX 02181 12510 12984 01207 10130 20077 38493 48606 58001 60002 333 10157 20115 91110 91207 93000=
12510,2015,07,02,19,00,AAXX 02191 12510 42984 01308 10126 20085 38494 48607 54000 333 91208 555 57045 90005=
12510,2015,07,02,20,00,AAXX 02201 12510 42984 01307 10125 20080 38500 48613 53005 333 91209 555 0//// 1//// 2//// 3//// 90005=
12510,2015,07,02,21,00,AAXX 02211 12510 42984 01308 10121 20082 38499 48612 50006 333 91209=
12510,2015,07,02,22,00,AAXX 02221 12510 42984 01310 10122 20075 38498 48611 50004 333 91210 555 60123 90005=
12510,2015,07,02,23,00,AAXX 02231 12510 42984 01507 10124 20073 38500 48613 55000 333 91209 555 90005=
12510,2015,07,03,00,00,AAXX 03001 12510 12984 01706 10126 20071 38500 48613 51001 60001 333 91210 93000=
12510,2015,07,03,01,00,AAXX 03011 12510 42984 01805 10124 20069 38500 48613 51002 333 91206 555 57045 90005=
12510,2015,07,03,02,00,AAXX 03021 12510 42984 01804 10122 20069 38500 48613 54000 333 91205 444 17110 555 90005=
12510,2015,07,03,03,00,AAXX 03031 12510 42984 01704 10121 20070 38500 48613 54000 333 91206 444 17110=
12510,2015,07,03,04,00,AAXX 03041 12510 42984 01804 10118 20067 38502 48615 53002 333 91205 444 17113 555 90005=
12510,2015,07,03,05,00,AAXX 03051 12510 42984 01603 10121 20072 38504 48617 53004 333 91203 555 90005=
12510,2015,07,03,06,00,AAXX 03061 12510 12984 01603 10126 20068 38505 48618 51005 60002 333 10130 20118 30/// 55150 91206 93000=
12510,2015,07,03,07,00,AAXX 03071 12510 42984 01702 10135 20073 38508 48621 52006 333 91203 555 57047 90005=
12510,2015,07,03,08,00,AAXX 03081 12510 42984 00303 10148 20073 38509 48622 52005 333 91203 555 90005=
12510,2015,07,03,09,00,AAXX 03091 12510 42984 00204 10151 20081 38512 48625 52007 333 91204=
12510,2015,07,03,10,00,AAXX 03101 12510 42984 00302 10171 20085 38514 48627 52006 333 91203 555 90005=
12510,2015,07,03,11,00,AAXX 03111 12510 42384 13602 10177 20085 38516 48629 51007 81200 333 91007 91107 91203 555 90005=
12510,2015,07,03,12,00,AAXX 03121 12510 12384 20503 10178 20086 38516 48629 51004 60001 82200 333 91107 91204 93000=
12510,2015,07,03,13,00,AAXX 03131 12510 42384 20302 10179 20082 38515 48628 50001 82200 333 91108 91203 555 57092 90005=
12510,2015,07,03,14,00,AAXX 03141 12510 42384 23203 10189 20091 38515 48628 57001 82200 333 91115 91206 555 90005=
12510,2015,07,03,15,00,AAXX 03151 12510 42284 22802 10191 20096 38511 48624 57005 82200 333 91007 91115 91206=
12510,2015,07,03,16,00,AAXX 03161 12510 42284 12505 10186 20091 38510 48623 58005 81400 333 91010 91110 91205 555 90005=
12510,2015,07,03,17,00,AAXX 03171 12510 42484 12604 10183 20083 38509 48622 56006 81400 333 91009 91110 91205 555 90005=
12510,2015,07,03,18,00,AAXX 03181 12510 12484 12405 10170 20071 38508 48621 57003 60002 81902 333 10196 20126 91115 91206 93000=
12510,2015,07,03,19,00,AAXX 03191 12510 42484 12105 10164 20068 38509 48622 55001 81902 333 91206 555 57093 90005=
12510,2015,07,03,20,00,AAXX 03201 12510 42984 12206 10162 20074 38514 48627 53005 80003 333 91206 555 0//// 1//// 2//// 3//// 90005=
12510,2015,07,03,21,00,AAXX 03211 12510 42984 12205 10161 20081 38512 48625 50004 80003 333 91206=
12510,2015,07,03,22,00,AAXX 03221 12510 42984 12305 10149 20101 38512 48625 51003 80002 333 91205 555 60153 90005=
12510,2015,07,03,23,00,AAXX 03231 12510 42984 12504 10151 20095 38508 48621 57006 80002 333 91205 555 90005=
12510,2015,07,04,00,00,AAXX 04001 12510 12984 12402 10152 20089 38506 48619 58006 60001 80001 333 91206 93000=
12510,2015,07,04,01,00,AAXX 04011 12510 42984 23003 10158 20083 38503 48616 57009 80002 333 91203 555 57059 90005=
12510,2015,07,04,02,00,AAXX 04021 12510 42984 22503 10152 20087 38498 48611 58010 80002 333 91204 555 90005=
12510,2015,07,04,03,00,AAXX 04031 12510 42984 22304 10151 20088 38497 48610 57009 80002 333 91204=
12510,2015,07,04,04,00,AAXX 04041 12510 42984 22303 10152 20082 38495 48608 56008 80002 333 91205 555 90005=
12510,2015,07,04,05,00,AAXX 04051 12510 42984 22703 10158 20085 38495 48608 56003 80002 333 91203 555 90005=
12510,2015,07,04,06,00,AAXX 04061 12510 12982 33102 10164 20091 38495 48608 56002 60002 80006 333 10171 20148 30/// 55151 91205 93000=
12510,2015,07,04,07,00,AAXX 04071 12510 42982 30503 10178 20104 38496 48609 53001 80008 333 91204 555 57071 90005=
12510,2015,07,04,08,00,AAXX 04081 12510 42182 30202 10182 20106 38495 48608 50000 81108 333 91203 555 90005=
12510,2015,07,04,09,00,AAXX 04091 12510 42182 40202 10188 20111 38498 48611 52003 82108 333 91204=
12510,2015,07,04,10,00,AAXX 04101 12510 42182 40304 10187 20110 38498 48611 53002 82208 333 91108 91204 555 90005=
12510,2015,07,04,11,00,AAXX 04111 12510 42280 30205 10186 20109 38497 48610 50002 82208 333 91205 555 90005=
12510,2015,07,04,12,00,AAXX 04121 12510 12280 30204 10193 20106 38495 48608 58003 60001 82208 333 91111 91205 93000=
12510,2015,07,04,13,00,AAXX 04131 12510 42280 33505 10199 20106 38494 48607 57004 82208 333 91109 91205 555 57096 90005=
12510,2015,07,04,14,00,AAXX 04141 12510 42282 20305 10198 20102 38493 48606 56004 82200 333 91110 91205 555 90005=
12510,2015,07,04,15,00,AAXX 04151 12510 42282 20106 10205 20103 38490 48603 58005 82200 333 91013 91113 91206=
12510,2015,07,04,16,00,AAXX 04161 12510 42282 20206 10202 20100 38488 48601 57006 82200 333 91206 555 90005=
12510,2015,07,04,17,00,AAXX 04171 12510 42482 20203 10206 20104 38487 48600 56006 82201 333 91108 91205 555 90005=
12510,2015,07,04,18,00,AAXX 04181 12510 12482 10202 10206 20112 38484 48597 57006 60002 81401 333 10214 20164 91113 91206 93000=
12510,2015,07,04,19,00,AAXX 04191 12510 42982 33502 10192 20115 38483 48596 57005 80006 333 91203 555 57109 90005=
12510,2015,07,04,20,00,AAXX 04201 12510 42982 43402 10187 20115 38483 48596 56004 80006 333 91202 555 0//// 1//// 2//// 3//// 90005=
12510,2015,07,04,21,00,AAXX 04211 12510 42982 53305 10185 20116 38482 48595 57002 80006 333 91205=
12510,2015,07,04,22,00,AAXX 04221 12510 42984 33404 10185 20116 38480 48593 58003 80008 333 91205 555 60181 90005=
12510,2015,07,04,23,00,AAXX 04231 12510 42984 33605 10186 20109 38477 48590 58006 80008 333 91205 555 90005=
12510,2015,07,05,00,00,AAXX 05001 12510 12984 73404 10186 20107 38477 48590 56005 60001 80006 333 91205 93000=
12510,2015,07,05,01,00,AAXX 05011 12510 42984 70102 10187 20089 38474 48587 57006 80008 333 91204 555 57086 90005=
12510,2015,07,05,02,00,AAXX 05021 12510 42984 73404 10201 20000 38472 48585 58005 80008 333 91204 555 90005=
12510,2015,07,05,03,00,AAXX 05031 12510 42482 73602 10200 21001 38471 48584 56006 81506 333 91204=
12510,2015,07,05,04,00,AAXX 05041 12510 42482 70303 10201 20010 38470 48583 57004 83208 333 91203 555 90005=
12510,2015,07,05,05,00,AAXX 05051 12510 42480 70108 10183 20094 38469 48582 57003 83208 333 91208 555 90005=
12510,2015,07,05,06,00,AAXX 05061 12510 12480 70404 10184 20095 38470 48583 55001 60002 82208 333 10206 20181 30/// 55147 91208 93000=
12510,2015,07,05,07,00,AAXX 05071 12510 42480 61302 10193 20103 38469 48582 57001 82208 333 91204 555 57093 90005=
12510,2015,07,05,08,00,AAXX 05081 12510 42480 61803 10194 20117 38467 48580 58002 82208 333 91203 555 90005=
12510,2015,07,05,09,00,AAXX 05091 12510 42480 62503 10204 20096 38465 48578 58005 83308 333 91108 91205=
12510,2015,07,05,10,00,AAXX 05101 12510 42470 72404 10210 20086 38467 48580 55002 84906 333 91205 555 90005=
12510,2015,07,05,11,00,AAXX 05111 12510 41165 70209 10154 20141 38469 48582 53002 79582 879// 333 91113 91213 555 90005=
12510,2015,07,05,12,00,AAXX 05121 12510 11370 72203 10186 20112 38466 48579 50001 69931 72982 869// 333 91113 91213 93093=
12510,2015,07,05,13,00,AAXX 05131 12510 42380 52307 10198 20088 38459 48572 58008 82968 333 91207 555 57081 90005=
12510,2015,07,05,14,00,AAXX 05141 12510 42380 42405 10214 20096 38459 48572 56010 82968 333 91010 91112 91207 555 90005=
12510,2015,07,05,15,00,AAXX 05151 12510 42380 53003 10217 20079 38456 48569 57010 82966 333 91009 91112 91207=
12510,2015,07,05,16,00,AAXX 05161 12510 42480 52903 10208 20094 38454 48567 58005 82368 333 91111 91204 555 90005=
12510,2015,07,05,17,00,AAXX 05171 12510 42484 62604 10200 20093 38449 48562 57010 81306 333 91205 555 90005=
12510,2015,07,05,18,00,AAXX 05181 12510 12984 72308 10198 20091 38442 48555 58014 69932 80006 333 10220 20153 91112 91209 93000=
12510,2015,07,05,19,00,AAXX 05191 12510 42884 72209 10197 20087 38438 48551 57016 81038 333 91209 555 57115 90005=
12510,2015,07,05,20,00,AAXX 05201 12510 42884 52309 10195 20091 38438 48551 56011 81038 333 91209 555 0//// 1//// 2//// 3//// 90005=
12510,2015,07,05,21,00,AAXX 05211 12510 42984 42310 10192 20091 38434 48547 57008 80008 333 91211=
12510,2015,07,05,22,00,AAXX 05221 12510 42984 42212 10185 20096 38432 48545 58006 80008 333 91214 555 60196 90005=
12510,2015,07,05,23,00,AAXX 05231 12510 41484 42410 10188 20079 38428 48541 57010 71300 81908 333 91015 91115 91213 555 90005=
12510,2015,07,06,00,00,AAXX 06001 12510 12884 42608 10192 20082 38429 48542 55005 60001 82038 333 91015 91117 91214 93000=
12510,2015,07,06,01,00,AAXX 06011 12510 42484 72506 10196 20086 38434 48547 53002 869// 333 91014 91116 91209 555 57113 90005=
12510,2015,07,06,02,00,AAXX 06021 12510 42484 73406 10155 20124 38432 48545 50004 869// 333 91110 91208 555 90005=
12510,2015,07,06,03,00,AAXX 06031 12510 42470 73407 10148 20121 38430 48544 50001 879// 333 91116 91209=
12510,2015,07,06,04,00,AAXX 06041 12510 42470 72109 10176 20105 38420 48533 58014 879// 333 91210 555 90005=
12510,2015,07,06,05,00,AAXX 06051 12510 41480 73210 10167 20110 38428 48541 55004 72522 879// 333 91120 91216 555 90005=
12510,2015,07,06,06,00,AAXX 06061 12510 11470 63003 10153 20119 38430 48543 55000 69902 70181 863// 333 10198 20138 30/// 55073 70003 91120 91216 93097=
12510,2015,07,06,07,00,AAXX 06071 12510 42470 62903 10164 20111 38433 48546 52013 863// 333 91008 91108 91204 555 57035 90005=
12510,2015,07,06,08,00,AAXX 06081 12510 42470 62803 10168 20115 38441 48554 53013 863// 333 91108 91203 555 90005=
12510,2015,07,06,09,00,AAXX 06091 12510 41/00 93304 10140 20137 38442 48556 52012 74722 333 91108 91205=
12510,2015,07,06,10,00,AAXX 06101 12510 41/09 73010 10139 20137 38441 48555 50008 74144 873// 333 91114 91210 444 79//7 555 90005=
12510,2015,07,06,11,00,AAXX 06111 12510 41/00 93211 10125 20123 38441 48555 50000 74744 333 91114 91211 555 90005=
12510,2015,07,06,12,00,AAXX 06121 12510 11/09 73113 10120 20117 38440 48554 57002 60001 74122 873// 333 91114 91213 93000 444 79//7=
12510,2015,07,06,13,00,AAXX 06131 12510 41/09 63109 10123 20114 38445 48559 53004 74144 862// 333 91014 91117 91211 444 68//8 555 57003 90005=
12510,2015,07,06,14,00,AAXX 06141 12510 41084 63209 10129 20118 38445 48559 53004 72822 862// 333 91017 91117 91211 555 90005=
12510,2015,07,06,15,00,AAXX 06151 12510 41184 43505 10129 20111 38448 48562 52008 70141 84200 333 91117 91211=
12510,2015,07,06,16,00,AAXX 06161 12510 42284 33405 10120 20106 38445 48559 50000 83200 333 91206 555 90005=
12510,2015,07,06,17,00,AAXX 06171 12510 42384 33405 10119 20095 38441 48555 58004 81406 333 91206 555 90005=
12510,2015,07,06,18,00,AAXX 06181 12510 11284 23006 10128 20055 38440 48554 57008 60002 70141 81408 333 10170 20116 91117 91211 93000=
12510,2015,07,06,19,00,AAXX 06191 12510 42984 13210 10125 20023 38438 48552 57007 80001 333 91210 555 57058 90005=
12510,2015,07,06,20,00,AAXX 06201 12510 42984 03015 10130 21046 38436 48550 57005 333 91215 555 0//// 1//// 2//// 3//// 70198 90005=
12510,2015,07,06,21,00,AAXX 06211 12510 42984 03016 10127 20031 38435 48549 57005 333 91217=
12510,2015,07,06,22,00,AAXX 06221 12510 42984 02914 10132 20049 38437 48551 55001 333 91216 555 60142 90005=
12510,2015,07,06,23,00,AAXX 06231 12510 42984 02915 10129 20056 38432 48546 58004 333 91215 555 90005=
12510,2015,07,07,00,00,AAXX 07001 12510 12984 02915 10126 20064 38432 48546 56003 60001 333 91217 93000=
12510,2015,07,07,01,00,AAXX 07011 12510 42984 02814 10124 20071 38429 48543 57008 333 91215 555 57050 90005=
12510,2015,07,07,02,00,AAXX 07021 12510 42984 02712 10120 20077 38425 48539 58007 333 91214 555 90005=
12510,2015,07,07,03,00,AAXX 07031 12510 42984 02610 10120 20065 38425 48539 56007 333 91015 91115 91215=
12510,2015,07,07,04,00,AAXX 07041 12510 42984 02509 10114 20077 38426 48540 55003 333 91014 91115 91210 555 90005=
12510,2015,07,07,05,00,AAXX 07051 12510 42984 12507 10117 20080 38427 48541 53002 80001 333 91015 91115 91209 555 90005=
12510,2015,07,07,06,00,AAXX 07061 12510 12984 12308 10122 20088 38427 48541 51002 60002 80001 333 10136 20112 30/// 55094 91014 91115 91215 93000=
12510,2015,07,07,07,00,AAXX 07071 12510 42284 12507 10129 20092 38424 48538 58002 81101 333 91012 91114 91208 555 57028 90005=
12510,2015,07,07,08,00,AAXX 07081 12510 42284 22508 10133 20101 38421 48535 58006 82100 333 91016 91116 91210 555 90005=
12510,2015,07,07,09,00,AAXX 07091 12510 42384 22409 10140 20108 38422 48536 55005 82201 333 91116 91210=
12510,2015,07,07,10,00,AAXX 07101 12510 42384 22903 10164 20096 38423 48536 56001 81202 333 91008 91113 91208 555 90005=
12510,2015,07,07,11,00,AAXX 07111 12510 42384 23004 10177 20059 38421 48534 50000 81201 333 91109 91206 555 90005=
12510,2015,07,07,12,00,AAXX 07121 12510 12384 42604 10185 20103 38417 48530 58005 60001 81204 333 91009 91116 91210 93000=
12510,2015,07,07,13,00,AAXX 07131 12510 42384 22704 10188 20082 38411 48523 58012 81201 333 91110 91205 555 57087 90005=
12510,2015,07,07,14,00,AAXX 07141 12510 42384 22205 10194 20068 38406 48518 57015 81241 333 91015 91115 91205 555 90005=
12510,2015,07,07,15,00,AAXX 07151 12510 42384 23205 10189 20099 38396 48508 58021 81101 333 91015 91117 91208=
12510,2015,07,07,16,00,AAXX 07161 12510 42982 12806 10193 20108 38393 48505 57018 80001 333 91016 91120 91208 555 90005=
12510,2015,07,07,17,00,AAXX 07171 12510 42982 12607 10191 20109 38388 48500 57018 80001 333 91015 91115 91208 555 90005=
12510,2015,07,07,18,00,AAXX 07181 12510 12780 22307 10186 20107 38381 48493 58015 60002 82051 333 10196 20120 91120 91210 93000=
12510,2015,07,07,19,00,AAXX 07191 12510 42380 32310 10190 20097 38373 48485 58020 82930 333 91114 91210 555 57086 90005=
12510,2015,07,07,20,00,AAXX 07201 12510 42380 32411 10189 20099 38363 48474 58025 82530 333 91017 91117 91212 555 0//// 1//// 2//// 3//// 90005=
12510,2015,07,07,21,00,AAXX 07211 12510 41380 32117 10190 20103 38343 48454 58038 71300 83900 333 91022 91122 91217=
12510,2015,07,07,22,00,AAXX 07221 12510 41380 32805 10176 20127 38345 48457 55028 71300 83900 333 91016 91122 91217 555 60157 90005=
12510,2015,07,07,23,00,AAXX 07231 12510 41065 73115 10146 20108 38343 48456 57020 78011 879// 333 91032 91132 91215 555 90005=
12510,2015,07,08,00,00,AAXX 08001 12510 11270 72924 10168 20095 38321 48433 58022 60041 72981 869// 333 91029 91135 91229 93004=
12510,2015,07,08,01,00,AAXX 08011 12510 41/09 82935 10115 20109 38299 48414 58046 74198 879// 333 91042 91143 91235 444 79//7 555 57073 90005=
12510,2015,07,08,02,00,AAXX 08021 12510 41265 72413 10134 20115 38329 48443 55014 72882 879// 333 91021 91139 91233 555 90005=
12510,2015,07,08,03,00,AAXX 08031 12510 41470 72514 10131 20105 38326 48440 52005 70198 875// 333 91027 91143 91235=
12510,2015,07,08,04,00,AAXX 08041 12510 41/00 92511 10111 20109 38332 48447 52033 74722 333 91020 91123 91214 555 90005=
12510,2015,07,08,05,00,AAXX 08051 12510 41/00 92607 10114 20112 38334 48449 53005 74544 333 91018 91119 91210 555 90005=
12510,2015,07,08,06,00,AAXX 08061 12510 11/00 92509 10110 20108 38328 48443 50002 60092 74598 333 10192 20109 31/// 55140 70086 91020 91143 91235 93005=
12510,2015,07,08,07,00,AAXX 08071 12510 41/01 72611 10107 20107 38326 48441 58006 74144 872// 333 91021 91121 91211 444 78//8 555 57001 90005=
12510,2015,07,08,08,00,AAXX 08081 12510 41/09 72718 10103 20103 38326 48442 56008 74144 862// 333 91024 91125 91218 444 68//8 555 90005=
12510,2015,07,08,09,00,AAXX 08091 12510 41/06 72716 10105 20105 38333 48448 53005 74144 862// 333 91026 91126 91218 444 68//8=
12510,2015,07,08,10,00,AAXX 08101 12510 41/09 72709 10115 20113 38338 48453 53012 74144 862// 333 91017 91123 91211 444 68//8 555 90005=
12510,2015,07,08,11,00,AAXX 08111 12510 41/09 72912 10105 20103 38338 48453 51012 78144 879// 333 91026 91126 91212 444 79//7 555 90005=
12510,2015,07,08,12,00,AAXX 08121 12510 11/09 62713 10092 20091 38325 48441 58008 60041 74184 8396/ 333 91025 91129 91221 93004 444 39//7=
12510,2015,07,08,13,00,AAXX 08131 12510 41/09 62513 10097 20088 38321 48437 58017 74184 8296/ 333 91027 91130 91216 444 29//7 555 57001 90005=
12510,2015,07,08,14,00,AAXX 08141 12510 41084 62712 10092 20083 38335 48451 56003 72822 8423/ 333 91019 91125 91212 555 90005=
12510,2015,07,08,15,00,AAXX 08151 12510 41184 72806 10094 20082 38342 48458 53017 70348 872// 333 91014 91130 91216=
12510,2015,07,08,16,00,AAXX 08161 12510 42184 72908 10095 20074 38343 48459 51022 872// 333 91015 91116 91208 555 90005=
12510,2015,07,08,17,00,AAXX 08171 12510 42184 62811 10090 20046 38339 48455 50004 85260 333 91016 91120 91211 555 90005=
12510,2015,07,08,18,00,AAXX 08181 12510 11184 63014 10080 20055 38339 48456 58003 60042 70184 84266 333 10118 20080 91130 91216 93097=
12510,2015,07,08,19,00,AAXX 08191 12510 42184 63016 10071 20033 38341 48458 55002 82466 333 91216 555 57017 90005=
12510,2015,07,08,20,00,AAXX 08201 12510 42284 72918 10065 20028 38341 48459 52002 81466 333 91218 555 0//// 1//// 2//// 3//// 70192 90005=
12510,2015,07,08,21,00,AAXX 08211 12510 42784 72920 10065 20029 38333 48451 58006 83058 333 91220=
12510,2015,07,08,22,00,AAXX 08221 12510 42784 42815 10063 20033 38345 48463 53004 82078 333 91020 91120 91220 555 60106 90005=
12510,2015,07,08,23,00,AAXX 08231 12510 42784 42612 10062 20035 38351 48469 53010 82078 333 91017 91120 91217 555 90005=
12510,2015,07,09,00,00,AAXX 09001 12510 12384 42613 10056 20042 38341 48459 50008 60001 81578 333 91023 91123 91220 93000=
12510,2015,07,09,01,00,AAXX 09011 12510 42384 42817 10054 20047 38336 48454 58009 82571 333 91125 91219 555 57008 90005=
12510,2015,07,09,02,00,AAXX 09021 12510 42084 42714 10052 20049 38335 48454 56016 82571 333 91020 91122 91216 555 90005=
12510,2015,07,09,03,00,AAXX 09031 12510 41/00 92621 10049 20048 38328 48447 57013 74711 333 91027 91128 91221=
12510,2015,07,09,04,00,AAXX 09041 12510 41/00 92718 10049 20049 38335 48454 55001 74344 333 91023 91126 91220 555 90005=
12510,2015,07,09,05,00,AAXX 09051 12510 41/00 92714 10050 20050 38341 48459 53006 74544 333 91020 91123 91218 555 90005=
12510,2015,07,09,06,00,AAXX 09061 12510 11/00 92710 10051 20051 38342 48460 51014 60002 74711 333 10081 20048 31/// 55044 70035 91019 91128 91221 93000=
12510,2015,07,09,07,00,AAXX 09071 12510 41/09 62712 10048 20048 38343 48462 51008 74144 862// 333 91020 91120 91213 444 68//8 555 57000 90005=
12510,2015,07,09,08,00,AAXX 09081 12510 41/09 72706 10054 20054 38342 48460 50001 74144 872// 333 91014 91119 91212 444 78//8 555 90005=
12510,2015,07,09,09,00,AAXX 09091 12510 41/06 72409 10055 20055 38343 48461 52001 78044 873// 333 91018 91120 91213 444 79//7=
12510,2015,07,09,10,00,AAXX 09101 12510 41/06 72209 10061 20061 38342 48460 57001 78084 873// 333 91017 91120 91210 444 79//7 555 90005=
12510,2015,07,09,11,00,AAXX 09111 12510 41/06 73115 10032 20032 38349 48468 53007 74184 873// 333 91126 91218 444 79//7 555 90005=
12510,2015,07,09,12,00,AAXX 09121 12510 11/09 63118 10019 20019 38337 48457 58006 60041 74184 8236/ 333 91023 91126 91220 93004 444 29//7=
12510,2015,07,09,13,00,AAXX 09131 12510 41/09 43125 10032 20026 38331 48451 58011 74144 83230 333 91032 91132 91228 444 38008 555 57000 90005=
12510,2015,07,09,14,00,AAXX 09141 12510 41084 63121 10035 20022 38349 48468 55000 72811 862// 333 91027 91132 91224 555 90005=
12510,2015,07,09,15,00,AAXX 09151 12510 42184 63021 10036 20016 38352 48471 53015 862// 333 91132 91228=
12510,2015,07,09,16,00,AAXX 09161 12510 42284 53216 10045 20015 38364 48482 51033 85200 333 91128 91222 555 90005=
12510,2015,07,09,17,00,AAXX 09171 12510 42284 53220 10042 20003 38363 48481 50014 85200 333 91027 91127 91220 555 90005=
12510,2015,07,09,18,00,AAXX 09181 12510 11184 53118 10037 20012 38371 48489 52019 60042 70241 85200 333 10062 20018 91132 91228 93000=
12510,2015,07,09,19,00,AAXX 09191 12510 42184 23121 10031 20015 38365 48484 52001 82400 333 91125 91221 555 57013 90005=
12510,2015,07,09,20,00,AAXX 09201 12510 42084 23224 10028 20013 38368 48487 52005 82400 333 91131=
12510,2015,07,09,21,00,AAXX 09211 12510 42082 63222 10024 20021 38376 48495 53005 865// 333 91131 91225=
12510,2015,07,09,22,00,AAXX 09221 12510 41/09 63122 10018 20018 38378 48497 52013 74122 865// 333 91125 91222 444 66//5 555 60041 90005=
12510,2015,07,09,23,00,AAXX 09231 12510 41/09 63222 10013 20013 38374 48493 50006 74144 865// 333 91222 444 66//5 555 90005=
12510,2015,07,10,00,00,AAXX 10001 12510 11/09 43225 10009 20006 38362 48482 58014 60001 74111 84500 333 91131 91225 93000 444 46005=
12510,2015,07,10,01,00,AAXX 10011 12510 41/09 43227 10005 21005 38364 48484 55014 74144 84500 333 91032 91132 91227 444 46005 555 57001 90005=
12510,2015,07,10,02,00,AAXX 10021 12510 41/09 53225 11001 21002 38363 48483 57011 74144 85500 333 91030 91131 91226 444 56005 555 90005=
12510,2015,07,10,03,00,AAXX 10031 12510 41182 43227 10000 21013 38355 48476 58007 72811 84500 333 91133 91227=
12510,2015,07,10,04,00,AAXX 10041 12510 42182 63124 11003 21014 38364 48484 55000 84506 333 91030 91133 91227 555 90005=
12510,2015,07,10,05,00,AAXX 10051 12510 42082 73020 11008 21011 38368 48489 53005 865// 333 91130 91225 555 90005=
12510,2015,07,10,06,00,AAXX 10061 12510 11/09 73121 11005 21009 38371 48491 51016 60002 74811 865// 333 10037 21009 30/// 55064 70041 91026 91133 91227 93000 444 76//5=
12510,2015,07,10,07,00,AAXX 10071 12510 41084 53025 11003 21013 38363 48483 58001 72822 82530 333 91126 91225 555 57002 90005=
12510,2015,07,10,08,00,AAXX 10081 12510 42184 43216 10007 21008 38382 48501 53014 82230 333 91127 91224 555 90005=
12510,2015,07,10,09,00,AAXX 10091 12510 42184 53117 10003 21008 38382 48501 53011 83230 333 91127 91225=
12510,2015,07,10,10,00,AAXX 10101 12510 42284 43216 10025 21008 38387 48505 51024 84201 333 91021 91122 91218 555 90005=
12510,2015,07,10,11,00,AAXX 10111 12510 42284 63016 10026 21002 38395 48513 53013 862// 333 91122 91218 555 90005=
12510,2015,07,10,12,00,AAXX 10121 12510 11284 73215 10026 20003 38396 48514 51014 60001 70341 872// 333 91127 91225 93000=
12510,2015,07,10,13,00,AAXX 10131 12510 42284 62915 10029 20001 38395 48513 50008 862// 333 91022 91122 91216 555 57011 90005=
12510,2015,07,10,14,00,AAXX 10141 12510 42284 63215 10035 20004 38399 48517 53004 862// 333 91121 91216 555 90005=
12510,2015,07,10,15,00,AAXX 10151 12510 42284 63215 10034 20006 38400 48518 53004 862// 333 91123 91217=
12510,2015,07,10,16,00,AAXX 10161 12510 42284 63215 10030 20007 38400 48518 51005 862// 333 91021 91122 91218 555 90005=
12510,2015,07,10,17,00,AAXX 10171 12510 42284 73216 10029 20003 38399 48517 50000 862// 333 91120 91216 555 90005=
12510,2015,07,10,18,00,AAXX 10181 12510 12284 53213 10029 20006 38401 48519 53001 60002 85400 333 10038 21007 91123 91218 93000=
12510,2015,07,10,19,00,AAXX 10191 12510 42284 23317 10028 20008 38396 48514 58004 82400 333 91217 555 57011 90005=
12510,2015,07,10,20,00,AAXX 10201 12510 42284 13316 10026 20014 38399 48517 54000 81400 333 91218 555 0//// 1//// 2//// 3//// 90005=
12510,2015,07,10,21,00,AAXX 10211 12510 42984 03414 10026 20013 38400 48518 56001 333 91019 91120 91218=
12510,2015,07,10,22,00,AAXX 10221 12510 42984 03515 10026 20016 38398 48516 50002 333 91021 91121 91215 555 60015 90005=
12510,2015,07,10,23,00,AAXX 10231 12510 42984 03314 10025 20018 38397 48515 58002 333 91019 91119 91215 555 90005=
12510,2015,07,11,00,00,AAXX 11001 12510 12984 03414 10025 20018 38396 48514 57004 60001 333 91121 91218 93000=
12510,2015,07,11,01,00,AAXX 11011 12510 42/84 13413 10023 20017 38393 48511 57005 81500 333 91018 91118 91214 444 16005 555 57004 90005=
12510,2015,07,11,02,00,AAXX 11021 12510 42/84 13414 10023 20017 38391 48509 57006 81000 333 91214 555 90005=
12510,2015,07,11,03,00,AAXX 11031 12510 41/09 13314 10024 20020 38391 48509 56005 74100 81500 333 91118 91214 444 16005=
12510,2015,07,11,04,00,AAXX 11041 12510 41/09 13413 10024 20021 38390 48508 57003 74144 81500 333 91214 444 16005 555 90005=
12510,2015,07,11,05,00,AAXX 11051 12510 41/09 63412 10025 20025 38389 48507 58002 74144 865// 333 91213 444 66//5 555 90005=
12510,2015,07,11,06,00,AAXX 11061 12510 11/08 63409 10028 20028 38395 48513 53004 60002 74111 865// 333 10030 20022 30/// 55119 91014 91118 91214 93000 444 66//5=
12510,2015,07,11,07,00,AAXX 11071 12510 41184 23205 10046 20014 38400 48517 53010 72811 82100 333 91111 91208 555 57000 90005=
12510,2015,07,11,08,00,AAXX 11081 12510 42184 33302 10055 20041 38405 48522 52016 83200 333 91205 555 90005=
12510,2015,07,11,09,00,AAXX 11091 12510 41184 32901 10076 20054 38403 48519 50008 70141 82250 333 91111 91208=
12510,2015,07,11,10,00,AAXX 11101 12510 42284 53302 10077 20052 38406 48522 52006 84230 333 91203 555 90005=
12510,2015,07,11,11,00,AAXX 11111 12510 42284 53502 10090 20056 38405 48520 54000 84230 333 91202 555 90005=
12510,2015,07,11,12,00,AAXX 11121 12510 11284 43402 10096 20054 38405 48520 51002 60001 70141 82234 333 91111 91208 93000=
12510,2015,07,11,13,00,AAXX 11131 12510 42284 60202 10097 20045 38404 48519 57002 81256 333 91203 555 57030 90005=
12510,2015,07,11,14,00,AAXX 11141 12510 42284 73402 10102 20052 38405 48520 54000 8335/ 333 91203 555 90005=
12510,2015,07,11,15,00,AAXX 11151 12510 42284 73203 10087 20051 38403 48519 57002 8447/ 333 91204=
12510,2015,07,11,16,00,AAXX 11161 12510 42284 73304 10090 20052 38401 48517 58003 8347/ 333 91205 555 90005=
12510,2015,07,11,17,00,AAXX 11171 12510 42784 72804 10099 20055 38402 48517 55003 8607/ 333 91205 555 90005=
12510,2015,07,11,18,00,AAXX 11181 12510 12784 73007 10089 20053 38401 48517 57002 60002 84078 333 10110 20028 91207 93000=
12510,2015,07,11,19,00,AAXX 11191 12510 41784 73213 10097 20025 38396 48511 58005 71422 83088 333 91213 555 57025 90005=
12510,2015,07,11,20,00,AAXX 11201 12510 41784 63213 10107 20032 38399 48514 55003 71422 83088 333 91119 91214 555 0//// 1//// 2//// 3//// 90005=
12510,2015,07,11,21,00,AAXX 11211 12510 42784 63214 10105 20028 38399 48514 56002 84078 333 91119 91216=
12510,2015,07,11,22,00,AAXX 11221 12510 42784 63314 10096 20031 38402 48517 52006 83078 333 91216 555 60066 90005=
12510,2015,07,11,23,00,AAXX 11231 12510 42784 63311 10096 20024 38401 48516 50002 83078 333 91213 555 90005=
12510,2015,07,12,00,00,AAXX 12001 12510 12784 43311 10095 20037 38399 48514 50000 60001 81078 333 91119 91216 93000=
12510,2015,07,12,01,00,AAXX 12011 12510 42784 53310 10099 20043 38398 48513 57004 83058 333 91211 555 57039 90005=
12510,2015,07,12,02,00,AAXX 12021 12510 42784 33310 10098 20044 38396 48511 57005 82038 333 91211 555 90005=
12510,2015,07,12,03,00,AAXX 12031 12510 42784 23208 10096 20044 38396 48511 56003 82031 333 91211 444 17123=
12510,2015,07,12,04,00,AAXX 12041 12510 42784 43209 10102 20046 38396 48511 56002 82036 333 91210 444 17123 555 90005=
12510,2015,07,12,05,00,AAXX 12051 12510 42784 53207 10100 20050 38397 48512 53001 82036 333 91209 555 90005=
12510,2015,07,12,06,00,AAXX 12061 12510 12784 63007 10101 20045 38398 48513 53002 60002 84058 333 10110 20088 30/// 55088 91211 93000=
12510,2015,07,12,07,00,AAXX 12071 12510 42784 63008 10106 20056 38402 48517 53006 84038 333 91209 555 57039 90005=
12510,2015,07,12,08,00,AAXX 12081 12510 42784 63006 10110 20061 38403 48518 52006 84038 333 91207 555 90005=
12510,2015,07,12,09,00,AAXX 12091 12510 42384 73205 10121 20072 38404 48518 51006 81136 333 91209=
12510,2015,07,12,10,00,AAXX 12101 12510 42384 73404 10117 20078 38405 48520 52003 82238 333 91205 555 90005=
12510,2015,07,12,11,00,AAXX 12111 12510 42384 73307 10122 20071 38403 48517 50000 862// 333 91207 555 90005=
12510,2015,07,12,12,00,AAXX 12121 12510 12384 73503 10128 20066 38405 48519 52001 60001 862// 333 91114 91209 93000=
12510,2015,07,12,13,00,AAXX 12131 12510 42384 73505 10129 20076 38404 48518 57001 862// 333 91205 555 57050 90005=
12510,2015,07,12,14,00,AAXX 12141 12510 42384 73206 10138 20066 38404 48518 51001 862// 333 91208 555 90005=
12510,2015,07,12,15,00,AAXX 12151 12510 42384 72906 10135 20070 38399 48513 58006 863// 333 91209=
12510,2015,07,12,16,00,AAXX 12161 12510 41382 73209 10122 20077 38397 48511 58007 71522 863// 333 91209 555 90005=
12510,2015,07,12,17,00,AAXX 12171 12510 41/62 83412 10108 20084 38390 48505 57014 78022 883// 333 91018 91118 91212 444 89//7 555 90005=
12510,2015,07,12,18,00,AAXX 12181 12510 11/00 93511 10095 20094 38387 48503 57012 69922 74782 333 10140 20095 91118 91212 93092=
12510,2015,07,12,19,00,AAXX 12191 12510 41/00 93513 10090 20089 38386 48502 56011 74544 333 91215 555 57001 90005=
12510,2015,07,12,20,00,AAXX 12201 12510 41/00 93413 10081 20080 38385 48501 57005 74584 333 91019 91119 91213 555 0//// 1//// 2//// 3//// 90005=
12510,2015,07,12,21,00,AAXX 12211 12510 41/00 93120 10075 20075 38375 48492 58012 78184 333 91124 91220=
12510,2015,07,12,22,00,AAXX 12221 12510 41/00 93120 10073 20073 38373 48490 57013 78084 333 91126 91222 555 60106 90005=
12510,2015,07,12,23,00,AAXX 12231 12510 41/00 93121 10064 20064 38369 48486 56016 78084 333 91026 91126 91221 555 90005=
12510,2015,07,13,00,00,AAXX 13001 12510 11/09 73125 10063 20063 38354 48472 58021 60031 74184 879// 333 91127 91225 93003 444 79//7=
12510,2015,07,13,01,00,AAXX 13011 12510 41/00 93219 10063 20062 38359 48476 56014 74744 333 91129 91223 555 57000 90005=
12510,2015,07,13,02,00,AAXX 13021 12510 41/00 93222 10061 20061 38353 48471 56016 74544 333 91222 555 90005=
12510,2015,07,13,03,00,AAXX 13031 12510 41/00 93218 10060 20060 38359 48477 52005 74544 333 91129 91223=
12510,2015,07,13,04,00,AAXX 13041 12510 41/00 93116 10060 20060 38360 48478 53001 74544 333 91123 91218 555 90005=
12510,2015,07,13,05,00,AAXX 13051 12510 41/00 93118 10062 20062 38357 48475 50004 74544 333 91218 555 90005=
12510,2015,07,13,06,00,AAXX 13061 12510 11/00 93219 10065 20065 38358 48475 57001 60032 78044 333 10095 20059 32/// 55082 70035 91129 91223 93095=
12510,2015,07,13,07,00,AAXX 13071 12510 41/00 93316 10068 20068 38366 48483 53006 78084 333 91219 555 57000 90005=
12510,2015,07,13,08,00,AAXX 13081 12510 41/00 93214 10070 20070 38371 48488 53014 74584 333 91216 555 90005=
12510,2015,07,13,09,00,AAXX 13091 12510 41/00 93111 10074 20074 38379 48496 52021 74584 333 91219=
12510,2015,07,13,10,00,AAXX 13101 12510 41/00 93113 10072 20072 38380 48497 51014 74544 333 91116 91215 555 90005=
12510,2015,07,13,11,00,AAXX 13111 12510 41/00 93113 10072 20072 38384 48501 51013 74544 333 91215 555 90005=
12510,2015,07,13,12,00,AAXX 13121 12510 11/00 93108 10073 20073 38385 48501 52006 69941 74584 333 91117 91219 93094=
12510,2015,07,13,13,00,AAXX 13131 12510 41/01 72911 10077 20077 38385 48501 51005 74144 863// 333 91117 91213 444 69//7 555 57000 90005=
12510,2015,07,13,14,00,AAXX 13141 12510 41/01 72912 10078 20078 38380 48496 58004 74144 863// 333 91115 91212 444 69//7 555 90005=
12510,2015,07,13,15,00,AAXX 13151 12510 41/01 82714 10076 20076 38379 48495 58006 74184 873// 333 91020 91121 91215 444 79//7=
12510,2015,07,13,16,00,AAXX 13161 12510 41/01 82815 10075 20075 38377 48494 56008 74144 873// 333 91020 91122 91217 444 79//7 555 90005=
12510,2015,07,13,17,00,AAXX 13171 12510 41/01 72917 10075 20075 38375 48492 57005 74144 873// 333 91022 91122 91218 444 79//7 555 90005=
12510,2015,07,13,18,00,AAXX 13181 12510 11/01 72818 10072 20072 38369 48486 58010 69962 74184 873// 333 10082 20065 91122 91218 93092 444 79//7=
12510,2015,07,13,19,00,AAXX 13191 12510 41/09 72922 10074 20074 38364 48481 58013 74144 863// 333 91222 444 69//7 555 57000 90005=
12510,2015,07,13,20,00,AAXX 13201 12510 41/09 72917 10074 20074 38375 48492 55000 74144 863// 333 91222 444 69//7 555 0//// 1//// 2//// 3//// 70095 90005=
12510,2015,07,13,21,00,AAXX 13211 12510 41/01 72816 10073 20073 38376 48493 53007 78044 873// 333 91120 91222 444 79//7=
12510,2015,07,13,22,00,AAXX 13221 12510 41/01 72909 10075 20075 38378 48495 51014 78084 873// 333 91014 91114 91215 444 79//7 555 60070 90005=
12510,2015,07,13,23,00,AAXX 13231 12510 41/00 92913 10073 20073 38373 48490 58002 74784 333 91213 555 90005=
12510,2015,07,14,00,00,AAXX 14001 12510 11/00 93014 10073 20073 38367 48484 58009 60051 74584 333 91120 91222 93005=
12510,2015,07,14,01,00,AAXX 14011 12510 41/00 92708 10076 20076 38368 48485 55010 74584 333 91013 91115 91215 555 57000 90005=
12510,2015,07,14,02,00,AAXX 14021 12510 41/00 92810 10077 20077 38362 48479 57011 74544 333 91015 91117 91211 555 90005=
12510,2015,07,14,03,00,AAXX 14031 12510 41/00 92917 10076 20076 38358 48475 58009 74544 333 91022 91122 91217=
12510,2015,07,14,04,00,AAXX 14041 12510 41/00 93019 10076 20076 38358 48475 56010 74544 333 91219 555 90005=
12510,2015,07,14,05,00,AAXX 14051 12510 41/00 92920 10076 20076 38355 48472 57007 74544 333 91124 91220 555 90005=
12510,2015,07,14,06,00,AAXX 14061 12510 11/01 72920 10079 20079 38357 48474 55001 60062 74184 875// 333 10079 20071 32/// 55009 70064 91125 91220 93001=
12510,2015,07,14,07,00,AAXX 14071 12510 41/01 73016 10080 20080 38364 48481 53006 74144 875// 333 91124 91219 444 76//5 555 57000 90005=
12510,2015,07,14,08,00,AAXX 14081 12510 41/01 73013 10083 20083 38370 48486 53015 74144 875// 333 91118 91215 444 76//5 555 90005=
12510,2015,07,14,09,00,AAXX 14091 12510 41/01 73113 10088 20088 38372 48488 51015 74144 873// 333 91124 91219 444 79//7=
12510,2015,07,14,10,00,AAXX 14101 12510 41/00 92807 10093 20093 38378 48494 52014 78044 333 91118 91212 555 90005=
12510,2015,07,14,11,00,AAXX 14111 12510 41/00 92606 10097 20097 38379 48495 52009 78084 333 91209 555 90005=
12510,2015,07,14,12,00,AAXX 14121 12510 11/01 72912 10094 20094 38374 48490 50002 60011 78044 873// 333 91017 91124 91219 93001 444 79//7=
12510,2015,07,14,13,00,AAXX 14131 12510 41/00 92911 10098 20098 38378 48494 54000 78084 333 91016 91119 91215 555 57000 90005=
12510,2015,07,14,14,00,AAXX 14141 12510 41/00 92814 10099 20099 38377 48493 56002 74584 333 91019 91120 91214 555 90005=
12510,2015,07,14,15,00,AAXX 14151 12510 41/00 92815 10099 20099 38372 48488 58002 74584 333 91021 91121 91215=
12510,2015,07,14,16,00,AAXX 14161 12510 41/01 72815 10098 20098 38369 48485 57009 74184 873// 333 91020 91124 91218 444 79//7 555 90005=
12510,2015,07,14,17,00,AAXX 14171 12510 41/09 72920 10096 20096 38370 48486 55007 74144 863// 333 91124 91220 444 69//7 555 90005=
12510,2015,07,14,18,00,AAXX 14181 12510 11/09 72917 10097 20097 38373 48489 53001 60022 78084 863// 333 10101 20078 91127 91222 93001 444 69//7=
12510,2015,07,14,19,00,AAXX 14191 12510 41/09 73225 10088 20088 38362 48478 58007 74184 863// 333 91031 91131 91225 444 69//7 555 57000 90005=
12510,2015,07,14,20,00,AAXX 14201 12510 41/06 73322 10087 20087 38370 48486 54000 74144 873// 333 91225 444 79//7 555 0//// 1//// 2//// 3//// 90005=
12510,2015,07,14,21,00,AAXX 14211 12510 41/00 93224 10087 20087 38367 48483 56006 74784 333 91131 91225=
12510,2015,07,14,22,00,AAXX 14221 12510 41/00 93223 10085 20085 38374 48490 52012 74544 333 91225 555 60087 90005=
12510,2015,07,14,23,00,AAXX 14231 12510 41/00 93218 10084 20084 38382 48498 53012 74544 333 91221 555 90005=
12510,2015,07,15,00,00,AAXX 15001 12510 11/00 93219 10084 20084 38382 48498 51015 69961 74584 333 91131 91225 93096=
12510,2015,07,15,01,00,AAXX 15011 12510 41/01 73319 10079 20079 38384 48500 51010 74144 875// 333 91220 444 76//5 555 57000 90005=
12510,2015,07,15,02,00,AAXX 15021 12510 42900 03217 10080 20080 38384 48500 52002 333 91220 555 90005=
12510,2015,07,15,03,00,AAXX 15031 12510 41/00 93316 10082 20082 38388 48504 52006 74784 333 91220=
12510,2015,07,15,04,00,AAXX 15041 12510 41/00 93510 10082 20082 38396 48512 53012 78084 333 91016 91116 91215 555 90005=
12510,2015,07,15,05,00,AAXX 15051 12510 41/00 93218 10080 20080 38386 48502 50002 74584 333 91023 91123 91219 555 90005=
12510,2015,07,15,06,00,AAXX 15061 12510 11/09 73218 10077 20077 38392 48508 52004 60022 74184 862// 333 10100 20074 31/// 55023 70044 91123 91220 93002 444 68//8=
12510,2015,07,15,07,00,AAXX 15071 12510 41/01 73219 10078 20078 38398 48514 53002 74144 863// 333 91122 91219 444 69//7 555 57000 90005=
12510,2015,07,15,08,00,AAXX 15081 12510 41/01 73215 10079 20079 38404 48520 52018 74144 863// 333 91216 444 69//7 555 90005=
12510,2015,07,15,09,00,AAXX 15091 12510 41/01 63216 10084 20084 38408 48524 52016 74144 863// 333 91122 91219 444 69//7=
12510,2015,07,15,10,00,AAXX 15101 12510 41084 63015 10085 20081 38411 48527 51013 72822 863// 333 91118 91216 555 90005=
12510,2015,07,15,11,00,AAXX 15111 12510 42184 63112 10093 20085 38418 48533 53014 863// 333 91017 91120 91216 555 90005=
12510,2015,07,15,12,00,AAXX 15121 12510 11284 63009 10096 20072 38420 48535 52012 60001 70242 863// 333 91122 91219 93000=
12510,2015,07,15,13,00,AAXX 15131 12510 42384 63206 10104 20073 38424 48539 51013 863// 333 91115 91210 555 57018 90005=
12510,2015,07,15,14,00,AAXX 15141 12510 42384 63305 10104 20076 38425 48540 52007 85301 333 91114 91209 555 90005=
12510,2015,07,15,15,00,AAXX 15151 12510 42384 53106 10100 20062 38427 48542 52007 84301 333 91115 91210=
12510,2015,07,15,16,00,AAXX 15161 12510 42384 73307 10099 20070 38423 48538 58001 862// 333 91013 91114 91209 555 90005=
12510,2015,07,15,17,00,AAXX 15171 12510 42384 73206 10088 20077 38425 48540 54000 862// 333 91115 91209 555 90005=
12510,2015,07,15,18,00,AAXX 15181 12510 12384 63111 10087 20073 38419 48534 57008 60002 83438 333 10108 20074 91115 91211 93000=
12510,2015,07,15,19,00,AAXX 15191 12510 42384 53210 10083 20068 38419 48534 56004 82438 333 91210 555 57010 90005=
12510,2015,07,15,20,00,AAXX 15201 12510 42384 53116 10083 20064 38420 48535 55005 81458 333 91216 555 0//// 1//// 2//// 3//// 90005=
12510,2015,07,15,21,00,AAXX 15211 12510 42784 53216 10088 20062 38420 48535 52001 83058 333 91216=
12510,2015,07,15,22,00,AAXX 15221 12510 42784 53216 10089 20070 38422 48537 52003 83038 333 91216 555 60087 90005=
12510,2015,07,15,23,00,AAXX 15231 12510 42784 63118 10093 20077 38422 48537 52002 84058 333 91218 555 90005=
12510,2015,07,16,00,00,AAXX 16001 12510 12784 63118 10095 20074 38424 48539 52004 60001 84038 333 91218 93000=
12510,2015,07,16,01,00,AAXX 16011 12510 42784 23114 10097 20075 38424 48539 52002 82030 333 91216 555 57015 90005=
12510,2015,07,16,02,00,AAXX 16021 12510 42784 23013 10097 20086 38425 48540 52003 82030 333 91214 555 90005=
12510,2015,07,16,03,00,AAXX 16031 12510 42784 22812 10095 20090 38425 48540 52001 82030 333 91216=
12510,2015,07,16,04,00,AAXX 16041 12510 42784 32711 10095 20092 38427 48542 52003 83050 333 91212 444 27113 555 90005=
12510,2015,07,16,05,00,AAXX 16051 12510 42784 62708 10100 20092 38428 48543 53003 8605/ 333 91211 555 90005=
12510,2015,07,16,06,00,AAXX 16061 12510 11/01 72606 10097 20096 38430 48545 52005 60002 74122 865// 333 10104 20081 30/// 55080 91011 91112 91216 93000 444 66//5=
12510,2015,07,16,07,00,AAXX 16071 12510 41/01 72607 10097 20096 38430 48545 51003 74144 875// 333 91016 91116 91209 444 76//5 555 57001 90005=
12510,2015,07,16,08,00,AAXX 16081 12510 41/01 72608 10101 20101 38430 48545 51002 74184 873// 333 91015 91115 91211 444 79//7 555 90005=
12510,2015,07,16,09,00,AAXX 16091 12510 41/01 72611 10104 20104 38430 48545 54000 74184 875// 333 91116 91211 444 76//5=
12510,2015,07,16,10,00,AAXX 16101 12510 41080 52711 10119 20113 38428 48542 58002 72822 85200 333 91017 91118 91215 444 36006 555 90005=
12510,2015,07,16,11,00,AAXX 16111 12510 42080 52711 10126 20113 38428 48542 57002 85200 333 91117 91211 444 26006 555 90005=
12510,2015,07,16,12,00,AAXX 16121 12510 11080 42809 10133 20115 38428 48542 56002 69981 70184 84200 333 91014 91118 91215 93001=
12510,2015,07,16,13,00,AAXX 16131 12510 42082 32806 10140 20119 38428 48542 54000 83200 333 91012 91116 91210 555 57017 90005=
12510,2015,07,16,14,00,AAXX 16141 12510 42082 22810 10151 20109 38433 48547 53005 82200 333 91018 91118 91210 555 90005=
12510,2015,07,16,15,00,AAXX 16151 12510 42184 32909 10157 20111 38438 48551 53010 83200 333 91120 91213=
12510,2015,07,16,16,00,AAXX 16161 12510 42184 33008 10148 20112 38437 48551 50009 83200 333 91111 91208 555 90005=
12510,2015,07,16,17,00,AAXX 16171 12510 42184 43504 10140 20120 38435 48549 50002 84200 333 91208 555 90005=
12510,2015,07,16,18,00,AAXX 16181 12510 12284 63404 10132 20114 38436 48550 55002 69982 862// 333 10159 20096 91120 91213 93000=
12510,2015,07,16,19,00,AAXX 16191 12510 42284 63107 10132 20107 38436 48550 55001 862// 333 91207 555 57017 90005=
12510,2015,07,16,20,00,AAXX 16201 12510 42384 63006 10131 20105 38438 48552 52003 862// 333 91207 555 0//// 1//// 2//// 3//// 90005=
12510,2015,07,16,21,00,AAXX 16211 12510 42284 62709 10134 20106 38437 48551 50001 864// 333 91209=
12510,2015,07,16,22,00,AAXX 16221 12510 42984 12709 10133 20110 38434 48548 58002 80001 333 91210 555 60118 90005=
12510,2015,07,16,23,00,AAXX 16231 12510 42984 02609 10134 20121 38435 48549 55003 333 91209 555 90005=
12510,2015,07,17,00,00,AAXX 17001 12510 12984 02709 10134 20120 38434 48548 57003 60001 333 91112 91210 93000=
12510,2015,07,17,01,00,AAXX 17011 12510 42984 02912 10137 20126 38430 48544 58004 333 91212 555 57014 90005=
12510,2015,07,17,02,00,AAXX 17021 12510 42984 02913 10138 20122 38429 48543 57006 333 91213 555 90005=
12510,2015,07,17,03,00,AAXX 17031 12510 42984 03113 10138 20120 38428 48542 56006 333 91214 444 27113=
12510,2015,07,17,04,00,AAXX 17041 12510 42984 02913 10136 20125 38429 48543 55001 333 91213 444 27113 555 90005=
12510,2015,07,17,05,00,AAXX 17051 12510 42980 03012 10140 20108 38430 48544 53001 333 91212 444 27113 555 90005=
12510,2015,07,17,06,00,AAXX 17061 12510 12770 13111 10145 20091 38433 48547 53005 60002 81030 333 10146 20129 30/// 55078 70008 91214 93000=
12510,2015,07,17,07,00,AAXX 17071 12510 42280 12908 10151 20074 38435 48549 52006 81130 333 91211 555 57049 90005=
12510,2015,07,17,08,00,AAXX 17081 12510 42180 23008 10154 20102 38439 48552 52009 81105 333 91209 555 90005=
12510,2015,07,17,09,00,AAXX 17091 12510 42184 73006 10160 20103 38441 48554 52008 82206 333 91111 91211=
12510,2015,07,17,10,00,AAXX 17101 12510 42184 72806 10173 20090 38443 48556 51008 82208 333 91013 91113 91206 555 90005=
12510,2015,07,17,11,00,AAXX 17111 12510 42184 73005 10178 20089 38446 48559 52007 82208 333 91010 91113 91207 555 90005=
12510,2015,07,17,12,00,AAXX 17121 12510 12184 53006 10187 20095 38447 48560 52006 60001 82208 333 91113 91211 93000=
12510,2015,07,17,13,00,AAXX 17131 12510 42282 63006 10191 20101 38447 48560 51004 84308 333 91013 91113 91208 555 57097 90005=
12510,2015,07,17,14,00,AAXX 17141 12510 42384 72706 10175 20101 38448 48561 52002 879// 333 91208 555 90005=
12510,2015,07,17,15,00,AAXX 17151 12510 41380 72604 10176 20114 38445 48558 58002 72522 879// 333 91113 91208=
12510,2015,07,17,16,00,AAXX 17161 12510 42384 72604 10180 20113 38441 48554 58006 863// 333 91009 91112 91206 555 90005=
12510,2015,07,17,17,00,AAXX 17171 12510 42384 33008 10196 20049 38436 48549 58012 81431 333 91110 91208 555 90005=
12510,2015,07,17,18,00,AAXX 17181 12510 11784 22405 10176 20109 38436 48549 56009 69902 70181 81031 333 10197 20142 91113 91208 93097=
12510,2015,07,17,19,00,AAXX 17191 12510 42784 22706 10180 20083 38436 48549 56005 81031 333 91206 555 57070 90005=
12510,2015,07,17,20,00,AAXX 17201 12510 42784 32910 10197 20038 38439 48552 53003 81036 333 91211 555 0//// 1//// 2//// 3//// 90005=
12510,2015,07,17,21,00,AAXX 17211 12510 42784 42208 10177 20093 38442 48555 53006 81036 333 91211=
12510,2015,07,17,22,00,AAXX 17221 12510 42784 52311 10176 20087 38438 48551 50002 81036 333 91211 555 60162 90005=
12510,2015,07,17,23,00,AAXX 17231 12510 42784 52609 10175 20072 38433 48546 58006 81038 333 91015 91115 91210 555 90005=
12510,2015,07,18,00,00,AAXX 18001 12510 12784 52706 10165 20066 38427 48540 58015 60001 81038 333 91014 91116 91211 93000=
12510,2015,07,18,01,00,AAXX 18011 12510 42784 53205 10170 20076 38422 48535 57016 82058 333 91015 91116 91206 555 57090 90005=
12510,2015,07,18,02,00,AAXX 18021 12510 42784 73105 10158 20085 38418 48531 56015 84058 333 91018 91122 91208 555 90005=
12510,2015,07,18,03,00,AAXX 18031 12510 42784 72313 10172 20099 38416 48529 56011 84038 333 91022 91125 91215=
12510,2015,07,18,04,00,AAXX 18041 12510 42782 52309 10181 20102 38419 48532 55003 83038 333 91018 91124 91213 555 90005=
12510,2015,07,18,05,00,AAXX 18051 12510 42480 42716 10187 20078 38417 48529 57001 82530 333 91021 91121 91216 555 90005=
12510,2015,07,18,06,00,AAXX 18061 12510 12380 22614 10187 20081 38418 48531 52002 60002 81530 333 10199 20156 30/// 55107 79999 91021 91125 91217 93000=
12510,2015,07,18,07,00,AAXX 18071 12510 42380 52613 10189 20091 38423 48536 53004 82234 333 91018 91121 91216 555 57108 90005=
12510,2015,07,18,08,00,AAXX 18081 12510 42382 52609 10184 20102 38429 48542 53012 82231 333 91017 91119 91214 555 90005=
12510,2015,07,18,09,00,AAXX 18091 12510 42382 52710 10192 20110 38431 48544 52013 82231 333 91015 91121 91216=
12510,2015,07,18,10,00,AAXX 18101 12510 42382 53203 10205 20094 38432 48544 51009 82231 333 91009 91115 91209 555 90005=
12510,2015,07,18,11,00,AAXX 18111 12510 42382 70303 10199 20111 38432 48544 51003 83256 333 91110 91204 555 90005=
12510,2015,07,18,12,00,AAXX 18121 12510 12382 63005 10204 20111 38431 48543 50000 60001 83238 333 91013 91121 91216 93000=
12510,2015,07,18,13,00,AAXX 18131 12510 42382 62707 10197 20107 38431 48543 57001 83238 333 91016 91116 91207 555 57108 90005=
12510,2015,07,18,14,00,AAXX 18141 12510 42382 72809 10200 20107 38428 48540 57004 84236 333 91015 91115 91209 555 90005=
12510,2015,07,18,15,00,AAXX 18151 12510 42382 73204 10196 20119 38432 48544 53001 84368 333 91009 91116 91209=
12510,2015,07,18,16,00,AAXX 18161 12510 42382 63508 10176 20114 38425 48538 57006 85368 333 91208 555 90005=
12510,2015,07,18,17,00,AAXX 18171 12510 41265 73510 10159 20117 38420 48533 58008 71722 869// 333 91211 555 90005=
12510,2015,07,18,18,00,AAXX 18181 12510 11265 73009 10167 20114 38422 48535 55010 60012 72982 869// 333 10211 20145 91117 91214 93001=
12510,2015,07,18,19,00,AAXX 18191 12510 42265 73206 10144 20126 38423 48537 55002 863// 333 91210 555 57055 90005=
12510,2015,07,18,20,00,AAXX 18201 12510 42380 72507 10161 20110 38426 48539 52006 8437/ 333 91013 91113 91212 555 0//// 1//// 2//// 3//// 90005=
12510,2015,07,18,21,00,AAXX 18211 12510 42280 72712 10149 20107 38425 48539 50003 8455/ 333 91115 91213=
12510,2015,07,18,22,00,AAXX 18221 12510 41280 72611 10143 20120 38426 48540 52003 75122 865// 333 91114 91211 555 60179 90005=
12510,2015,07,18,23,00,AAXX 18231 12510 41284 72505 10145 20101 38422 48536 57004 72022 8257/ 333 91010 91112 91207 555 90005=
12510,2015,07,19,00,00,AAXX 19001 12510 11284 72106 10137 20116 38420 48534 58005 69911 70152 8253/ 333 91115 91213 93091=
12510,2015,07,19,01,00,AAXX 19011 12510 42284 42407 10135 20112 38414 48528 57012 82530 333 91111 91207 555 57020 90005=
12510,2015,07,19,02,00,AAXX 19021 12510 42284 42308 10135 20103 38410 48524 57012 82530 333 91209 555 90005=
12510,2015,07,19,03,00,AAXX 19031 12510 42282 52208 10143 20089 38407 48521 56013 82550 333 91113 91209 444 27113=
12510,2015,07,19,04,00,AAXX 19041 12510 42284 42305 10133 20103 38400 48514 57014 81534 333 91010 91114 91209 444 27113 555 90005=
12510,2015,07,19,05,00,AAXX 19051 12510 42884 62704 10134 20102 38396 48510 57014 81036 333 91009 91112 91208 555 90005=
12510,2015,07,19,06,00,AAXX 19061 12510 12784 62506 10136 20102 38392 48506 56015 69912 81038 333 10170 20132 30/// 55107 70011 91011 91114 91209 93000=
12510,2015,07,19,07,00,AAXX 19071 12510 42784 72606 10143 20097 38388 48502 57012 82058 333 91013 91113 91207 555 57031 90005=
12510,2015,07,19,08,00,AAXX 19081 12510 42784 72507 10143 20095 38383 48497 57013 84058 333 91014 91116 91207 555 90005=
12510,2015,07,19,09,00,AAXX 19091 12510 42784 72409 10158 20108 38382 48495 56010 8608/ 333 91016 91119 91209=
12510,2015,07,19,10,00,AAXX 19101 12510 42584 62313 10162 20116 38374 48487 58014 81180 333 91019 91122 91215 555 90005=
12510,2015,07,19,11,00,AAXX 19111 12510 42584 62508 10176 20112 38377 48489 55006 83342 333 91017 91119 91211 555 90005=
12510,2015,07,19,12,00,AAXX 19121 12510 12484 52607 10182 20120 38370 48482 57012 60001 83942 333 91020 91122 91215 93000=
12510,2015,07,19,13,00,AAXX 19131 12510 41370 71807 10156 20138 38362 48475 58012 71782 869// 333 91018 91121 91209 555 57069 90005=
12510,2015,07,19,14,00,AAXX 19141 12510 41482 72210 10163 20106 38353 48465 58024 72922 82978 333 91024 91125 91212 555 90005=
12510,2015,07,19,15,00,AAXX 19151 12510 41484 72510 10161 20108 38354 48467 55016 70198 81248 333 91025 91125 91212=
12510,2015,07,19,16,00,AAXX 19161 12510 42484 72611 10159 20119 38357 48470 56005 81236 333 91023 91123 91211 555 90005=
12510,2015,07,19,17,00,AAXX 19171 12510 42482 52506 10162 20122 38354 48467 50001 83338 333 91016 91120 91210 555 90005=
12510,2015,07,19,18,00,AAXX 19181 12510 11370 52611 10156 20114 38351 48464 58003 60052 70298 83338 333 10183 20136 91019 91125 91212 93005=
12510,2015,07,19,19,00,AAXX 19191 12510 41265 62512 10152 20110 38347 48460 58010 71322 869// 333 91024 91124 91212 555 57042 90005=
12510,2015,07,19,20,00,AAXX 19201 12510 41/00 93116 10116 20114 38350 48465 55004 78042 333 91021 91123 91216 555 0//// 1//// 2//// 3//// 90005=
12510,2015,07,19,21,00,AAXX 19211 12510 41/09 62821 10118 20116 38350 48465 55001 74182 869// 333 91126 91221 444 69//7=
12510,2015,07,19,22,00,AAXX 19221 12510 41/09 72922 10116 20110 38352 48467 52005 74144 875// 333 91222 444 76//5 555 60149 90005=
12510,2015,07,19,23,00,AAXX 19231 12510 41384 62923 10110 20105 38347 48462 58003 72822 865// 333 91127 91223 555 90005=
12510,2015,07,20,00,00,AAXX 20001 12510 11/09 73023 10102 20100 38348 48464 57002 69951 74184 875// 333 91127 91224 93095 444 76//5=
12510,2015,07,20,01,00,AAXX 20011 12510 41/00 93017 10104 20104 38361 48476 53009 76144 333 91125 91222 555 57001 90005=
12510,2015,07,20,02,00,AAXX 20021 12510 41/00 93216 10088 20088 38356 48472 50009 76164 333 91122 91216 555 90005=
12510,2015,07,20,03,00,AAXX 20031 12510 41/09 63023 10073 20072 38343 48460 58005 74164 865// 333 91125 91223 444 66//5=
12510,2015,07,20,04,00,AAXX 20041 12510 41380 23025 10081 20047 38339 48456 57022 72811 82500 333 91225 444 46004 555 90005=
12510,2015,07,20,05,00,AAXX 20051 12510 42/82 43123 10069 20066 38347 48464 56009 84530 333 91225 444 46015 555 90005=
12510,2015,07,20,06,00,AAXX 20061 12510 11/84 23120 10071 20051 38360 48477 53017 60022 70164 82200 333 10156 20066 30/// 55100 70067 91129 91226 93001 444 28018=
12510,2015,07,20,07,00,AAXX 20071 12510 42084 33020 10072 20048 38368 48485 52029 83240 333 91123 91220 555 57013 90005=
12510,2015,07,20,08,00,AAXX 20081 12510 42084 33016 10080 20060 38370 48486 51023 83200 333 91023 91124 91218 555 90005=
12510,2015,07,20,09,00,AAXX 20091 12510 42284 43013 10086 20057 38381 48497 53021 84200 333 91018 91124 91220=
12510,2015,07,20,10,00,AAXX 20101 12510 42284 42910 10096 20065 38388 48504 53020 84200 333 91016 91120 91213 555 90005=
12510,2015,07,20,11,00,AAXX 20111 12510 42384 52908 10106 20069 38390 48505 51020 85200 333 91014 91116 91210 555 90005=
12510,2015,07,20,12,00,AAXX 20121 12510 12384 52809 10116 20071 38393 48508 51012 60001 85200 333 91014 91124 91220 93000=
12510,2015,07,20,13,00,AAXX 20131 12510 42384 52908 10128 20068 38395 48509 52007 85200 333 91017 91117 91210 555 57035 90005=
12510,2015,07,20,14,00,AAXX 20141 12510 42484 42909 10132 20068 38396 48510 51006 84230 333 91014 91117 91210 555 90005=
12510,2015,07,20,15,00,AAXX 20151 12510 42484 43106 10138 20073 38397 48511 52004 84104 333 91011 91117 91210=
12510,2015,07,20,16,00,AAXX 20161 12510 42484 42809 10132 20085 38398 48512 52003 83131 333 91116 91210 555 90005=
12510,2015,07,20,17,00,AAXX 20171 12510 42384 52809 10124 20089 38395 48509 58001 84231 333 91114 91209 555 90005=
12510,2015,07,20,18,00,AAXX 20181 12510 12284 42909 10124 20092 38399 48513 52002 60002 83231 333 10142 20067 91117 91211 93000=
12510,2015,07,20,19,00,AAXX 20191 12510 42184 22606 10117 20096 38400 48515 53002 82400 333 91011 91111 91210 555 57027 90005=
12510,2015,07,20,20,00,AAXX 20201 12510 42184 22810 10115 20099 38401 48516 51006 82400 333 91210 555 0//// 1//// 2//// 3//// 70156 90005=
12510,2015,07,20,21,00,AAXX 20211 12510 42284 32815 10115 20099 38397 48512 58002 83500 333 91111 91215=
12510,2015,07,20,22,00,AAXX 20221 12510 42284 33017 10126 20096 38395 48509 58005 83500 333 91219 555 60103 90005=
12510,2015,07,20,23,00,AAXX 20231 12510 42384 52915 10119 20106 38397 48512 55004 82550 333 91217 555 90005=
12510,2015,07,21,00,00,AAXX 21001 12510 12284 62913 10119 20116 38400 48515 53003 60001 82550 333 91111 91219 93000=
12510,2015,07,21,01,00,AAXX 21011 12510 41/00 92712 10118 20116 38400 48515 51005 74722 333 91115 91212 555 57003 90005=
12510,2015,07,21,02,00,AAXX 21021 12510 41/00 92512 10116 20114 38396 48511 58001 74544 333 91017 91117 91212 555 90005=
12510,2015,07,21,03,00,AAXX 21031 12510 41/00 92613 10118 20118 38392 48507 58008 74522 333 91020 91120 91213=
12510,2015,07,21,04,00,AAXX 21041 12510 41/00 92615 10122 20122 38393 48507 55007 74544 333 91119 91216 555 90005=
12510,2015,07,21,05,00,AAXX 21051 12510 41/00 92614 10124 20124 38395 48509 56001 74544 333 91019 91119 91215 555 90005=
12510,2015,07,21,06,00,AAXX 21061 12510 11/00 92915 10120 20120 38395 48510 51003 60022 78042 333 10129 20113 31/// 55133 70017 91120 91216 93002=
12510,2015,07,21,07,00,AAXX 21071 12510 41/00 72917 10123 20123 38396 48510 52003 74182 873// 333 91221 444 79//7 555 57000 90005=
12510,2015,07,21,08,00,AAXX 21081 12510 41/00 72914 10128 20128 38400 48514 53005 74144 862// 333 91019 91120 91217 444 68028 555 90005=
12510,2015,07,21,09,00,AAXX 21091 12510 41/01 72713 10130 20130 38407 48521 53012 74184 86230 333 91022 91123 91221 444 68048=
12510,2015,07,21,10,00,AAXX 21101 12510 41/06 72909 10135 20135 38410 48524 52014 74144 872// 333 91014 91118 91213 444 78//8 555 90005=
12510,2015,07,21,11,00,AAXX 21111 12510 41184 62708 10146 20143 38411 48525 51011 72822 86200 333 91015 91117 91211 555 90005=
12510,2015,07,21,12,00,AAXX 21121 12510 11284 62806 10163 20158 38414 48527 52007 69931 70384 86300 333 91013 91123 91221 93093=
12510,2015,07,21,13,00,AAXX 21131 12510 42384 62608 10168 20137 38409 48522 58001 86300 333 91016 91118 91209 555 57006 90005=
12510,2015,07,21,14,00,AAXX 21141 12510 42484 72806 10169 20140 38414 48527 52003 872// 333 91011 91117 91207 555 90005=
12510,2015,07,21,15,00,AAXX 21151 12510 42484 62806 10170 20129 38414 48527 54000 869// 333 91012 91118 91209=
12510,2015,07,21,16,00,AAXX 21161 12510 42484 52906 10178 20129 38415 48528 51006 85200 333 91011 91114 91208 555 90005=
12510,2015,07,21,17,00,AAXX 21171 12510 42284 42909 10176 20116 38413 48526 58001 84200 333 91210 555 90005=
12510,2015,07,21,18,00,AAXX 21181 12510 12284 23110 10171 20114 38416 48529 52002 69932 82200 333 10182 20117 91118 91212 93000=
12510,2015,07,21,19,00,AAXX 21191 12510 42284 13110 10163 20117 38417 48530 53002 81400 333 91211 555 57060 90005=
12510,2015,07,21,20,00,AAXX 21201 12510 42284 13011 10156 20120 38420 48533 52007 81400 333 91211 555 0//// 1//// 2//// 3//// 90005=
12510,2015,07,21,21,00,AAXX 21211 12510 42984 03111 10153 20121 38421 48534 52005 333 91211=
12510,2015,07,21,22,00,AAXX 21221 12510 42984 03210 10149 20126 38421 48535 51004 333 91211 555 60143 90005=
12510,2015,07,21,23,00,AAXX 21231 12510 42984 03112 10150 20102 38419 48533 58001 333 91213 555 90005=
12510,2015,07,22,00,00,AAXX 22001 12510 12984 03113 10151 20095 38419 48533 57002 60001 333 91214 93000=
12510,2015,07,22,01,00,AAXX 22011 12510 42984 02912 10151 20101 38417 48531 57004 333 91213 555 57053 90005=
12510,2015,07,22,02,00,AAXX 22021 12510 42984 02811 10150 20102 38418 48532 55001 333 91212 555 90005=
12510,2015,07,22,03,00,AAXX 22031 12510 42984 02711 10151 20099 38419 48533 55000 333 91213 444 27113=
12510,2015,07,22,04,00,AAXX 22041 12510 42984 02709 10148 20106 38419 48533 51002 333 91211 444 27113 555 90005=
12510,2015,07,22,05,00,AAXX 22051 12510 42984 12608 10145 20109 38421 48535 52003 80001 333 91211 555 90005=
12510,2015,07,22,06,00,AAXX 22061 12510 12984 12505 10146 20112 38426 48540 53007 60002 80002 333 10171 20142 30/// 55103 70003 91010 91110 91213 93000=
12510,2015,07,22,07,00,AAXX 22071 12510 42984 22405 10153 20113 38426 48539 51007 80002 333 91010 91113 91206 555 57033 90005=
12510,2015,07,22,08,00,AAXX 22081 12510 42484 32703 10164 20124 38429 48542 52008 81106 333 91110 91204 555 90005=
12510,2015,07,22,09,00,AAXX 22091 12510 42484 42703 10169 20128 38429 48542 52003 82108 333 91113 91206=
12510,2015,07,22,10,00,AAXX 22101 12510 42484 52604 10177 20130 38427 48540 50001 83108 333 91010 91110 91205 555 90005=
12510,2015,07,22,11,00,AAXX 22111 12510 42484 52405 10187 20122 38428 48541 55001 83108 333 91010 91110 91205 555 90005=
12510,2015,07,22,12,00,AAXX 22121 12510 12484 62803 10197 20125 38428 48540 56001 60001 83106 333 91009 91113 91206 93000=
12510,2015,07,22,13,00,AAXX 22131 12510 42484 62404 10206 20120 38426 48538 58001 83106 333 91109 91204 555 57085 90005=
12510,2015,07,22,14,00,AAXX 22141 12510 42584 62403 10202 20111 38424 48536 58004 82238 333 91108 91204 555 90005=
12510,2015,07,22,15,00,AAXX 22151 12510 42584 62703 10207 20121 38422 48534 57006 82238 333 91109 91204=
12510,2015,07,22,16,00,AAXX 22161 12510 42584 62503 10208 20103 38420 48532 57006 81248 333 91107 91203 555 90005=
12510,2015,07,22,17,00,AAXX 22171 12510 42484 62502 10208 20103 38417 48529 58007 81246 333 91203 555 90005=
12510,2015,07,22,18,00,AAXX 22181 12510 12484 62102 10205 20106 38413 48525 58009 60002 81248 333 10218 20145 91109 91204 93000=
12510,2015,07,22,19,00,AAXX 22191 12510 42484 61306 10192 20117 38408 48520 58012 81458 333 91206 555 57113 90005=
12510,2015,07,22,20,00,AAXX 22201 12510 41282 61509 10186 20119 38403 48515 58014 71322 82978 333=
12510,2015,07,22,21,00,AAXX 22211 12510 41280 51510 10188 20109 38396 48508 58017 71322 83978 333 91211=
12510,2015,07,22,22,00,AAXX 22221 12510 41280 51813 10187 20108 38394 48506 57014 71322 83950 333 91214 555 60177 90005=
12510,2015,07,22,23,00,AAXX 22231 12510 41280 52311 10192 20099 38395 48507 55008 71322 83970 333 91017 91119 91214 555 90005=
12510,2015,07,23,00,00,AAXX 23001 12510 11280 52404 10175 20111 38395 48508 55001 60001 71322 83970 333 91119 91214 93000=
12510,2015,07,23,01,00,AAXX 23011 12510 42280 52704 10177 20113 38399 48512 52005 83570 333 91010 91111 91205 555 57068 90005=
12510,2015,07,23,02,00,AAXX 23021 12510 42280 62406 10174 20112 38386 48498 58009 84550 333 91110 91206 555 90005=
12510,2015,07,23,03,00,AAXX 23031 12510 42480 62605 10169 20114 38383 48496 58012 84570 333 91013 91114 91208=
12510,2015,07,23,04,00,AAXX 23041 12510 42484 73103 10137 20126 38385 48499 55014 8355/ 333 91109 91207 444 46006 555 90005=
12510,2015,07,23,05,00,AAXX 23051 12510 41/00 93406 10120 20117 38386 48501 55000 74722 333 91208 555 90005=
12510,2015,07,23,06,00,AAXX 23061 12510 11/00 93310 10118 20116 38388 48503 52005 60002 74522 333 10205 20118 30/// 55133 91114 91210 93000=
12510,2015,07,23,07,00,AAXX 23071 12510 41/00 93311 10118 20118 38389 48504 52004 74544 333 91112 91211 555 57001 90005=
12510,2015,07,23,08,00,AAXX 23081 12510 41/00 93409 10123 20123 38395 48509 53009 75144 333 91210 555 90005=
12510,2015,07,23,09,00,AAXX 23091 12510 41/00 93607 10117 20117 38400 48515 53012 74554 333 91112 91211=
12510,2015,07,23,10,00,AAXX 23101 12510 41/00 93304 10113 20113 38402 48517 51013 74544 333 91205 555 90005=
12510,2015,07,23,11,00,AAXX 23111 12510 41/00 93304 10116 20116 38404 48519 51009 74544 333 91208 555 99905=
12510,2015,07,23,12,00,AAXX 23121 12510 11/09 72904 10123 20123 38406 48520 52006 69931 74154 863// 333 91112 91211 93093=
12510,2015,07,23,13,00,AAXX 23131 12510 41/00 93405 10114 20114 38406 48521 51004 74744 333 91205 555 57000 90005=
12510,2015,07,23,14,00,AAXX 23141 12510 41/00 93504 10103 20103 38403 48518 58001 74544 333 91205 555 99905=
12510,2015,07,23,15,00,AAXX 23151 12510 41070 63507 10099 20099 38402 48517 58004 72822 85270 333 91207=
12510,2015,07,23,16,00,AAXX 23161 12510 42180 63507 10098 20098 38399 48514 57007 84470 333 91207 555 90005=
12510,2015,07,23,17,00,AAXX 23171 12510 42284 63508 10102 20100 38399 48514 56004 85530 333 91208 555 90005=
12510,2015,07,23,18,00,AAXX 23181 12510 11284 30108 10099 20097 38399 48514 56003 69932 70141 82530 333 10125 20097 91208 93000=
12510,2015,07,23,19,00,AAXX 23191 12510 42584 73507 10097 20088 38404 48519 53005 865// 333 91208 555 57001 90005=
12510,2015,07,23,20,00,AAXX 23201 12510 42582 73508 10101 20084 38406 48521 53007 865// 333 91208 555 0//// 1//// 2//// 3//// 70205 90005=
12510,2015,07,23,21,00,AAXX 23211 12510 42584 73408 10105 20077 38407 48522 51008 865// 333 91209=
12510,2015,07,23,22,00,AAXX 23221 12510 42584 73004 10103 20075 38409 48524 52005 865// 333 91206 555 60126 90005=
12510,2015,07,23,23,00,AAXX 23231 12510 42584 73103 10104 20073 38409 48524 51003 875// 333 91205 555 90005=
12510,2015,07,24,00,00,AAXX 24001 12510 12584 73002 10106 20073 38410 48525 52003 60001 875// 333 91209 93000=
12510,2015,07,24,01,00,AAXX 24011 12510 42584 73304 10105 20074 38410 48525 52001 875// 333 91204 555 57026 90005=
12510,2015,07,24,02,00,AAXX 24021 12510 42484 73304 10103 20074 38408 48523 58001 875// 333 91204 555 90005=
12510,2015,07,24,03,00,AAXX 24031 12510 42482 73403 10102 20074 38404 48519 58006 875// 333 91205=
12510,2015,07,24,04,00,AAXX 24041 12510 42482 72703 10107 20085 38405 48520 55005 875// 333 91203 555 90005=
12510,2015,07,24,05,00,AAXX 24051 12510 42484 72204 10114 20084 38406 48521 56002 875// 333 91205 555 90005=
12510,2015,07,24,06,00,AAXX 24061 12510 12384 72602 10113 20083 38408 48523 52004 60002 875// 333 10115 20097 30/// 55015 70003 91205 93000=
12510,2015,07,24,07,00,AAXX 24071 12510 42384 72302 10113 20085 38408 48523 51003 8557/ 333 91202 555 57024 90005=
12510,2015,07,24,08,00,AAXX 24081 12510 42184 71604 10110 20079 38407 48522 50001 8213/ 333 91204 555 90005=
12510,2015,07,24,09,00,AAXX 24091 12510 42284 71604 10116 20077 38408 48523 55000 8215/ 333 91204=
12510,2015,07,24,10,00,AAXX 24101 12510 42384 71804 10124 20085 38406 48520 57002 8216/ 333 91205 555 90005=
12510,2015,07,24,11,00,AAXX 24111 12510 42384 71503 10123 20080 38405 48519 58002 8117/ 333 91204 555 90005=
12510,2015,07,24,12,00,AAXX 24121 12510 12384 71404 10128 20083 38402 48516 57006 60001 8117/ 333 91205 93000=
12510,2015,07,24,13,00,AAXX 24131 12510 42384 71603 10135 20083 38399 48513 57007 8117/ 333 91204 555 57038 90005=
12510,2015,07,24,14,00,AAXX 24141 12510 42384 61705 10134 20089 38395 48509 57010 8117/ 333 91205 555 90005=
12510,2015,07,24,15,00,AAXX 24151 12510 42284 61603 10134 20104 38391 48505 57011 83278 333 91206=
12510,2015,07,24,16,00,AAXX 24161 12510 42384 62103 10142 20114 38386 48500 57013 84238 333 91203 555 90005=
12510,2015,07,24,17,00,AAXX 24171 12510 42284 61405 10133 20107 38382 48496 57013 84238 333 91205 555 90005=
12510,2015,07,24,18,00,AAXX 24181 12510 12382 71309 10131 20097 38378 48492 57013 60002 84236 333 10147 20107 91016 91116 91209 93000=
12510,2015,07,24,19,00,AAXX 24191 12510 42482 71310 10130 20096 38376 48490 57010 862// 333 91116 91210 555 57030 90005=
12510,2015,07,24,20,00,AAXX 24201 12510 42482 71411 10133 20099 38375 48489 56007 82508 333 91211 555 0//// 1//// 2//// 3//// 90005=
12510,2015,07,24,21,00,AAXX 24211 12510 42482 71613 10137 20105 38369 48483 58009 81506 333 91116 91213=
12510,2015,07,24,22,00,AAXX 24221 12510 42882 71914 10149 20122 38362 48475 58014 83058 333 91019 91120 91214 555 60121 90005=
12510,2015,07,24,23,00,AAXX 24231 12510 42882 72016 10149 20122 38353 48466 58022 83038 333 91120 91216 555 90005=
12510,2015,07,25,00,00,AAXX 25001 12510 12882 72118 10147 20131 38342 48455 58027 60001 83038 333 91024 91126 91218 93000=
12510,2015,07,25,01,00,AAXX 25011 12510 42882 72316 10141 20131 38334 48447 57028 83038 333 91023 91127 91219 555 57017 90005=
12510,2015,07,25,02,00,AAXX 25021 12510 42882 72317 10140 20135 38327 48440 56026 83038 333 91025 91125 91217 555 90005=
12510,2015,07,25,03,00,AAXX 25031 12510 41/00 92322 10140 20138 38315 48428 58027 74722 333 91031 91131 91222=
12510,2015,07,25,04,00,AAXX 25041 12510 41/00 92416 10139 20137 38315 48428 56019 74544 333 91026 91129 91221 555 90005=
12510,2015,07,25,05,00,AAXX 25051 12510 41/00 92511 10138 20136 38317 48430 55010 74544 333 91022 91126 91216 555 90005=
12510,2015,07,25,06,00,AAXX 25061 12510 11/00 92906 10135 20135 38322 48436 53007 60002 74744 333 10155 20128 30/// 55021 91014 91131 91222 93000=
12510,2015,07,25,07,00,AAXX 25071 12510 41/00 92604 10134 20134 38331 48445 53016 74544 333 91010 91114 91206 555 57000 90005=
12510,2015,07,25,08,00,AAXX 25081 12510 41/00 92506 10134 20134 38331 48445 51014 74544 333 91112 91206 555 90005=
12510,2015,07,25,09,00,AAXX 25091 12510 41/00 92905 10131 20129 38325 48439 50003 74544 333 91017 91117 91206=
12510,2015,07,25,10,00,AAXX 25101 12510 41/00 92707 10133 20133 38321 48435 58010 74584 333 91014 91117 91207 555 90005=
12510,2015,07,25,11,00,AAXX 25111 12510 41/00 92806 10124 20124 38326 48440 55005 74544 333 91015 91116 91210 555 90005=
12510,2015,07,25,12,00,AAXX 25121 12510 11/00 93106 10125 20125 38325 48439 54000 69951 74584 333 91015 91118 91210 93095=
12510,2015,07,25,13,00,AAXX 25131 12510 41/09 72606 10144 20138 38322 48435 50001 74144 863// 333 91017 91118 91208 444 69//7 555 57000 90005=
12510,2015,07,25,14,00,AAXX 25141 12510 41084 71907 10142 20115 38321 48434 57005 72822 84238 333 91016 91119 91208 555 90005=
12510,2015,07,25,15,00,AAXX 25151 12510 41084 72411 10114 20083 38312 48427 58013 78142 873// 333 91033 91133 91211=
12510,2015,07,25,16,00,AAXX 25161 12510 41084 72512 10129 20082 38318 48432 55004 72522 82278 333 91022 91133 91216 555 90005=
12510,2015,07,25,17,00,AAXX 25171 12510 42284 62611 10129 20093 38323 48437 53002 81278 333 91019 91122 91212 555 90005=
12510,2015,07,25,18,00,AAXX 25181 12510 11284 52612 10123 20066 38320 48434 50008 60012 70184 81438 333 10153 20108 91025 91133 91216 93096=
12510,2015,07,25,19,00,AAXX 25191 12510 42384 52619 10109 20022 38319 48434 50001 81438 333 91027 91131 91219 555 57046 90005=
12510,2015,07,25,20,00,AAXX 25201 12510 42384 62619 10093 20031 38325 48441 53002 81456 333 91027 91130 91224 555 0//// 1//// 2//// 3//// 70155 90005=
12510,2015,07,25,21,00,AAXX 25211 12510 42784 72714 10082 20040 38330 48447 53010 85056 333 91027 91131 91224=
12510,2015,07,25,22,00,AAXX 25221 12510 42784 72513 10068 20043 38332 48450 51013 86058 333 91030 91130 91213 555 60125 90005=
12510,2015,07,25,23,00,AAXX 25231 12510 42284 72614 10057 20050 38328 48446 50003 8257/ 333 91025 91130 91219 555 90005=
12510,2015,07,26,00,00,AAXX 26001 12510 12284 72720 10048 20041 38330 48449 54000 60001 865// 333 91029 91131 91224 93000=
12510,2015,07,26,01,00,AAXX 26011 12510 42284 72722 10039 20036 38321 48441 58011 865// 333 91030 91134 91224 555 57004 90005=
12510,2015,07,26,02,00,AAXX 26021 12510 41/01 72619 10036 20036 38325 48445 57003 74122 875// 333 91029 91130 91219 444 76//5 555 90005=
12510,2015,07,26,03,00,AAXX 26031 12510 41/00 92914 10033 20033 38333 48453 53003 74722 333 91022 91134 91224=
12510,2015,07,26,04,00,AAXX 26041 12510 41/00 92912 10032 20032 38348 48467 53027 74544 333 91020 91124 91217 555 90005=
12510,2015,07,26,05,00,AAXX 26051 12510 41/00 92913 10030 20030 38347 48466 50022 74544 333 91018 91120 91213 555 90005=
12510,2015,07,26,06,00,AAXX 26061 12510 11/00 93009 10027 20027 38350 48469 51017 60002 74544 333 10123 20027 30/// 55052 70011 91015 91134 91224 93000=
12510,2015,07,26,07,00,AAXX 26071 12510 41/00 92909 10026 20026 38355 48474 53007 74544 333 91014 91115 91210 555 57000 90005=
12510,2015,07,26,08,00,AAXX 26081 12510 41/00 93008 10031 20031 38360 48479 53013 74544 333 91116 91210 555 90005=
12510,2015,07,26,09,00,AAXX 26091 12510 41/09 73008 10030 20030 38360 48479 51010 74144 875// 333 91015 91116 91211 444 76//5=
12510,2015,07,26,10,00,AAXX 26101 12510 41084 72806 10045 20033 38361 48479 51006 72822 872// 333 91012 91115 91210 555 90005=
12510,2015,07,26,11,00,AAXX 26111 12510 42084 72704 10057 20023 38365 48483 53005 872// 333 91009 91114 91208 555 90005=
12510,2015,07,26,12,00,AAXX 26121 12510 11084 72803 10070 20031 38366 48483 52006 60001 70242 872// 333 91116 91211 93000=
12510,2015,07,26,13,00,AAXX 26131 12510 42184 52904 10079 20034 38364 48481 50003 85200 333 91009 91109 91204 555 57024 90005=
12510,2015,07,26,14,00,AAXX 26141 12510 42184 53003 10089 20020 38361 48477 58004 85200 333 91108 91204 555 90005=
12510,2015,07,26,15,00,AAXX 26151 12510 42184 43003 10092 20016 38359 48475 57007 84102 333 91008 91109 91205=
12510,2015,07,26,16,00,AAXX 26161 12510 42184 33402 10093 20037 38357 48473 57007 83102 333 91109 91204 555 90005=
12510,2015,07,26,17,00,AAXX 26171 12510 42384 12702 10092 20023 38353 48469 57008 81402 333 91202 555 90005=
12510,2015,07,26,18,00,AAXX 26181 12510 12384 22503 10076 20016 38349 48466 57010 60002 81401 333 10099 20025 91109 91205 93000=
12510,2015,07,26,19,00,AAXX 26191 12510 42984 32206 10069 20012 38348 48465 56009 80001 333 91206 555 57035 90005=
12510,2015,07,26,20,00,AAXX 26201 12510 42984 22206 10074 21001 38342 48459 57011 80001 333 91207 555 0//// 1//// 2//// 3//// 70123 90005=
12510,2015,07,26,21,00,AAXX 26211 12510 42984 22309 10074 20010 38334 48451 58015 80001 333 91209=
12510,2015,07,26,22,00,AAXX 26221 12510 42984 32211 10075 20005 38331 48448 56017 80006 333 91114 91211 555 60056 90005=
12510,2015,07,26,23,00,AAXX 26231 12510 42984 72013 10079 20006 38325 48442 57017 80006 333 91214 555 90005=
12510,2015,07,27,00,00,AAXX 27001 12510 12784 82115 10073 20014 38318 48436 58016 60001 8607/ 333 91116 91215 93000=
12510,2015,07,27,02,00,AAXX 27021 12510 42784 72315 10071 20032 38295 48413 58030 8707/ 333 91021 91122 91215 555 90005=
12510,2015,07,27,03,00,AAXX 27031 12510 41784 72509 10054 20037 38293 48412 56025 76122 8707/ 333 91016 91122 91216=
12510,2015,07,27,04,00,AAXX 27041 12510 41784 72511 10042 20039 38286 48406 56021 72122 8707/ 333 91019 91121 91215 555 90005=
12510,2015,07,27,05,00,AAXX 27051 12510 42384 62806 10045 20030 38283 48403 57012 8157/ 333 91017 91122 91214 555 90005=
12510,2015,07,27,06,00,AAXX 27061 12510 11/09 72808 10042 20041 38277 48397 57016 69912 74162 8257/ 333 10079 20039 31/// 55092 70001 91020 91122 91216 93091 444 26005=
12510,2015,07,27,07,00,AAXX 27071 12510 41/00 92609 10050 20050 38272 48392 57014 74744 333 91020 91123 91209 555 57001 90005=
12510,2015,07,27,08,00,AAXX 27081 12510 41/00 92709 10055 20055 38278 48397 55005 74544 333 91022 91124 91210 555 90005=
12510,2015,07,27,09,00,AAXX 27091 12510 41/00 92708 10057 20057 38287 48406 53010 74544 333 91016 91124 91210=
12510,2015,07,27,10,00,AAXX 27101 12510 41/00 92707 10062 20062 38292 48411 52020 74544 333 91016 91119 91209 555 90005=
12510,2015,07,27,11,00,AAXX 27111 12510 41/00 92607 10067 20067 38287 48405 50009 74544 333 91015 91117 91207 555 90005=
12510,2015,07,27,12,00,AAXX 27121 12510 11/00 92611 10069 20069 38284 48402 58003 69941 74584 333 91020 91124 91211 93094=
12510,2015,07,27,13,00,AAXX 27131 12510 41/00 92805 10076 20076 38287 48405 55005 78044 333 91014 91118 91209 555 57000 90005=
12510,2015,07,27,14,00,AAXX 27141 12510 41/00 92610 10077 20077 38282 48400 57005 74584 333 91022 91122 91210 555 90005=
12510,2015,07,27,15,00,AAXX 27151 12510 41/00 92608 10082 20082 38283 48400 57001 74584 333 91017 91122 91210=
12510,2015,07,27,16,00,AAXX 27161 12510 41/00 92708 10072 20072 38288 48406 53001 79544 333 91015 91117 91208 555 90005=
12510,2015,07,27,17,00,AAXX 27171 12510 41/09 72818 10075 20075 38282 48400 50000 74198 83932 333 91124 91221 444 39997 555 90005=
12510,2015,07,27,18,00,AAXX 27181 12510 11/00 72815 10069 20069 38292 48410 52009 60082 74198 879// 333 10085 20042 91022 91126 91221 93008 444 79//7=
12510,2015,07,27,19,00,AAXX 27191 12510 41/00 92715 10070 20070 38294 48412 53006 74784 333 91023 91124 91217 555 57000 90005=
12510,2015,07,27,20,00,AAXX 27201 12510 41/00 92817 10068 20068 38296 48414 51014 74544 333 91025 91125 91219 555 0//// 1//// 2//// 3//// 90005=
12510,2015,07,27,21,00,AAXX 27211 12510 41/00 92721 10069 20069 38286 48404 58006 74584 333 91028 91129 91221=
12510,2015,07,27,22,00,AAXX 27221 12510 41/00 92714 10069 20069 38299 48417 53005 74544 333 91022 91128 91221 555 60064 90005=
12510,2015,07,27,23,00,AAXX 27231 12510 41/00 92814 10068 20068 38300 48418 53004 74544 333 91021 91123 91216 555 90005=
12510,2015,07,28,00,00,AAXX 28001 12510 11/00 92712 10067 20067 38301 48419 51015 69981 74584 333 91023 91129 91221 93001=
12510,2015,07,28,01,00,AAXX 28011 12510 41/00 92617 10065 20065 38294 48412 58005 74544 333 91023 91123 91218 555 57000 90005=
12510,2015,07,28,02,00,AAXX 28021 12510 41/00 92617 10064 20064 38291 48409 58009 74544 333 91023 91124 91218 555 90005=
12510,2015,07,28,03,00,AAXX 28031 12510 41/00 92615 10063 20063 38288 48407 56013 74544 333 91023 91124 91218=
12510,2015,07,28,04,00,AAXX 28041 12510 41/00 92615 10062 20062 38283 48402 58011 74544 333 91028 91128 91217 555 90005=
12510,2015,07,28,05,00,AAXX 28051 12510 41/00 92614 10061 20061 38286 48405 55005 74544 333 91027 91129 91219 555 90005=
12510,2015,07,28,06,00,AAXX 28061 12510 11/00 72617 10061 20061 38293 48412 53005 60012 74144 875// 333 10073 20059 31/// 55008 70095 91026 91129 91219 93094 444 76//5=
12510,2015,07,28,07,00,AAXX 28071 12510 41/00 72610 10062 20062 38303 48421 53020 74144 875// 333 91016 91126 91217 444 76//5 555 57000 90005=
12510,2015,07,28,08,00,AAXX 28081 12510 41/00 92905 10064 20064 38306 48424 51020 74744 333 91013 91120 91210 555 90005=
12510,2015,07,28,09,00,AAXX 28091 12510 41/00 72506 10065 20065 38304 48422 50011 74144 875// 333 91017 91126 91217 444 76//5=
12510,2015,07,28,10,00,AAXX 28101 12510 41/00 72707 10068 20061 38305 48423 52002 78044 875// 333 91016 91118 91209 444 76//5 555 90005=
12510,2015,07,28,11,00,AAXX 28111 12510 41/00 72506 10067 20063 38304 48422 57002 78084 875// 333 91014 91118 91208 444 76//5 555 90005=
12510,2015,07,28,12,00,AAXX 28121 12510 11/00 72615 10053 20050 38290 48409 58014 69971 74184 8257/ 333 91026 91127 91217 93001 444 26006=
12510,2015,07,28,13,00,AAXX 28131 12510 41/00 72712 10066 20063 38295 48413 56010 74144 872// 333 91025 91130 91217 444 78//8 555 57002 90005=
12510,2015,07,28,14,00,AAXX 28141 12510 41184 72715 10074 20062 38297 48415 56007 72822 85278 333 91025 91126 91217 555 90005=
12510,2015,07,28,15,00,AAXX 28151 12510 41284 72709 10079 20057 38301 48418 52011 70142 84238 333 91020 91130 91217=
12510,2015,07,28,16,00,AAXX 28161 12510 42284 72711 10078 20054 38306 48423 53011 84238 333 91017 91121 91211 555 90005=
12510,2015,07,28,17,00,AAXX 28171 12510 42284 72611 10076 20051 38309 48426 52012 85338 333 91016 91118 91212 555 90005=
12510,2015,07,28,18,00,AAXX 28181 12510 11284 72909 10071 20049 38318 48436 52017 69972 70142 84336 333 10081 20052 91130 91217 93000=
12510,2015,07,28,19,00,AAXX 28191 12510 42284 72810 10067 20040 38318 48436 51012 83538 333 91212 555 57014 90005=
12510,2015,07,28,20,00,AAXX 28201 12510 42784 72712 10065 20029 38316 48434 50007 83058 333 91118=
12510,2015,07,28,21,00,AAXX 28211 12510 42784 72713 10063 20026 38320 48438 53002 84058 333 91018 91119 91213=
12510,2015,07,28,22,00,AAXX 28221 12510 42784 72711 10060 20026 38323 48441 53005 85058 333 91016 91118 91213 555 60065 90005=
12510,2015,07,28,23,00,AAXX 28231 12510 42784 72711 10057 20027 38321 48439 50005 8605/ 333 91116 91212 555 90005=
12510,2015,07,29,00,00,AAXX 29001 12510 12784 72713 10056 20029 38321 48440 51001 60001 8702/ 333 91119 91213 93000=
12510,2015,07,29,01,00,AAXX 29011 12510 42784 72710 10051 20029 38321 48440 56002 8702/ 333 91211 555 57015 90005=
12510,2015,07,29,02,00,AAXX 29021 12510 41784 72813 10044 20029 38319 48438 58002 76122 8702/ 333 91213 555 90005=
12510,2015,07,29,03,00,AAXX 29031 12510 41180 72612 10037 20034 38319 48439 57002 72122 8452/ 333 91213=
12510,2015,07,29,04,00,AAXX 29041 12510 42080 72612 10037 20036 38320 48440 55001 8357/ 333 91212 555 90005=
12510,2015,07,29,05,00,AAXX 29051 12510 41/09 72508 10035 20035 38321 48441 53002 74122 875// 333 91016 91117 91210 444 76//4 555 90005=
12510,2015,07,29,06,00,AAXX 29061 12510 11/00 72807 10036 20036 38318 48438 58001 69922 74162 875// 333 10072 20035 31/// 55015 70009 91018 91119 91213 93092 444 76//4=
12510,2015,07,29,07,00,AAXX 29071 12510 41/82 52408 10044 20031 38315 48434 58005 72822 84530 333 91017 91117 91208 444 46015 555 57000 90005=
12510,2015,07,29,08,00,AAXX 29081 12510 42/82 73304 10046 20039 38317 48436 55004 862// 333 91012 91121 91210 444 68//8 555 90005=
12510,2015,07,29,09,00,AAXX 29091 12510 41084 73004 10049 20039 38316 48435 57002 70342 872// 333 91010 91121 91210 444 78//8=
12510,2015,07,29,10,00,AAXX 29101 12510 42184 62905 10054 20040 38312 48431 58003 862// 333 91017 91117 91205 444 68//8 555 90005=
12510,2015,07,29,11,00,AAXX 29111 12510 42184 72604 10061 20044 38316 48434 55001 872// 333 91009 91115 91206 555 90005=
12510,2015,07,29,12,00,AAXX 29121 12510 11184 73304 10065 20047 38312 48430 57004 60001 70242 872// 333 91015 91121 91210 93000=
12510,2015,07,29,13,00,AAXX 29131 12510 42184 72106 10073 20046 38314 48432 52002 872// 333 91015 91118 91207 555 57012 90005=
12510,2015,07,29,14,00,AAXX 29141 12510 42184 72206 10071 20044 38315 48433 56001 872// 333 91014 91115 91207 555 90005=
12510,2015,07,29,15,00,AAXX 29151 12510 41162 82804 10066 20051 38316 48434 52004 76122 882// 333 91011 91118 91207=
12510,2015,07,29,16,00,AAXX 29161 12510 41/00 92806 10061 20057 38312 48430 58002 76164 333 91013 91113 91206 555 90005=
12510,2015,07,29,17,00,AAXX 29171 12510 41/00 92513 10059 20056 38305 48424 58010 76164 333 91023 91123 91214 555 90005=
12510,2015,07,29,18,00,AAXX 29181 12510 11/00 92623 10047 20044 38295 48415 58021 60052 76142 333 10074 20036 91031 91131 91224 93005=
12510,2015,07,29,19,00,AAXX 29191 12510 41/00 92620 10045 20042 38301 48421 55011 74564 333 91025 91133 91223 555 57002 90005=
12510,2015,07,29,20,00,AAXX 29201 12510 41/00 92921 10045 20044 38307 48427 53002 74544 333 91026 91126 91221 555 0//// 1//// 2//// 3//// 90005=
12510,2015,07,29,21,00,AAXX 29211 12510 41/09 43218 10037 20036 38315 48435 53020 74164 83530 333 91133 91223 444 36006=
12510,2015,07,29,22,00,AAXX 29221 12510 41984 23121 10041 20008 38315 48435 51014 72800 80005 333 91221 444 26006 555 60049 90005=
12510,2015,07,29,23,00,AAXX 29231 12510 42984 22923 10038 20015 38315 48435 51008 80008 333 91224 444 26046 555 90005=
12510,2015,07,30,00,00,AAXX 30001 12510 11/84 32718 10028 20021 38324 48444 53009 69961 70364 82550 333 91133 91224 93096 444 26006=
12510,2015,07,30,01,00,AAXX 30011 12510 41/03 72621 10026 20023 38318 48438 50003 74111 875// 333 91026 91126 91221 444 76//5 555 57004 90005=
12510,2015,07,30,02,00,AAXX 30021 12510 41/00 92619 10026 20025 38318 48438 51003 74744 333 91027 91127 91220 555 90005=
12510,2015,07,30,03,00,AAXX 30031 12510 41/00 92718 10023 20022 38315 48436 56009 74511 333 91025 91127 91221=
12510,2015,07,30,04,00,AAXX 30041 12510 41/03 72721 10018 20017 38312 48433 58006 74144 875// 333 91027 91128 91223 444 76//5 555 90005=
12510,2015,07,30,05,00,AAXX 30051 12510 41/01 32720 10017 20016 38314 48435 55004 74144 83500 333 91026 91130 91223 444 36005 555 90005=
12510,2015,07,30,06,00,AAXX 30061 12510 11/01 32621 10015 20014 38314 48435 56001 69982 74111 83500 333 10049 20014 31/// 55026 70055 91028 91130 91223 93092 444 36005=
12510,2015,07,30,07,00,AAXX 30071 12510 41/09 22720 10021 20020 38318 48439 52006 74144 82100 333 91031 91131 91223 444 28008 555 57001 90005=
12510,2015,07,30,08,00,AAXX 30081 12510 41/84 22718 10030 20018 38323 48443 53009 72800 82100 333 91026 91128 91221 444 28008 555 90005=
12510,2015,07,30,09,00,AAXX 30091 12510 41/84 72709 10038 20031 38334 48453 53020 70341 872// 333 91021 91131 91223 444 78//8=
12510,2015,07,30,10,00,AAXX 30101 12510 42084 72812 10042 20035 38341 48460 52023 872// 333 91019 91122 91213 555 90005=
12510,2015,07,30,11,00,AAXX 30111 12510 42184 52708 10054 20039 38351 48469 52028 85200 333 91018 91120 91211 555 90005=
12510,2015,07,30,12,00,AAXX 30121 12510 11284 62610 10058 20030 38353 48471 51019 60001 70341 862// 333 91016 91131 91223 93000=
12510,2015,07,30,13,00,AAXX 30131 12510 42284 62710 10065 20018 38355 48472 51014 862// 333 91015 91119 91210 555 57017 90005=
12510,2015,07,30,14,00,AAXX 30141 12510 42284 52708 10074 20021 38359 48476 52008 85200 333 91017 91117 91211 555 90005=
12510,2015,07,30,15,00,AAXX 30151 12510 42284 52806 10078 20020 38360 48477 52007 85200 333 91012 91119 91211=
12510,2015,07,30,16,00,AAXX 30161 12510 42284 62806 10080 20027 38362 48479 52007 862// 333 91011 91115 91208 555 90005=
12510,2015,07,30,17,00,AAXX 30171 12510 42284 63004 10074 20017 38365 48482 53006 864// 333 91113 91208 555 90005=
12510,2015,07,30,18,00,AAXX 30181 12510 12284 62909 10067 20014 38365 48482 51005 60002 863// 333 10083 20015 91119 91211 93000=
12510,2015,07,30,19,00,AAXX 30191 12510 42784 33009 10056 20026 38370 48488 52008 83030 333 91209 555 57030 90005=
12510,2015,07,30,20,00,AAXX 30201 12510 42784 33013 10054 20015 38369 48487 50004 83030 333 91214 555 0//// 1//// 2//// 3//// 90005=
12510,2015,07,30,21,00,AAXX 30211 12510 42784 33016 10056 21007 38368 48486 50003 83030 333 91216=
12510,2015,07,30,22,00,AAXX 30221 12510 42784 33211 10047 20012 38375 48493 53005 83030 333 91215 555 60045 90005=
12510,2015,07,30,23,00,AAXX 30231 12510 42984 03211 10046 20016 38373 48491 52004 333 91214 555 90005=
12510,2015,07,31,00,00,AAXX 31001 12510 12984 03113 10041 20020 38374 48492 51006 60001 333 91216 93000=
12510,2015,07,31,01,00,AAXX 31011 12510 42782 23113 10041 20026 38373 48491 57002 82050 333 91213 555 57011 90005=
12510,2015,07,31,02,00,AAXX 31021 12510 42782 13013 10039 20019 38373 48491 50000 81030 333 91213 555 90005=
12510,2015,07,31,03,00,AAXX 31031 12510 42782 13014 10040 20005 38372 48490 57002 81030 333 91215=
12510,2015,07,31,04,00,AAXX 31041 12510 42/82 32915 10043 20008 38372 48490 57001 82530 333 91215 444 26006 555 90005=
12510,2015,07,31,05,00,AAXX 31051 12510 41/82 33011 10031 20016 38380 48498 53007 72800 83530 333 91215 444 36005 555 90005=
12510,2015,07,31,06,00,AAXX 31061 12510 11/09 43010 10033 20024 38383 48501 53011 60002 74140 84530 333 10067 20028 30/// 55122 91215 93000 444 46005=
12510,2015,07,31,07,00,AAXX 31071 12510 41/09 63110 10028 20028 38386 48504 51014 74144 862// 333 91111 91209 444 66//5 555 57005 90005=
12510,2015,07,31,08,00,AAXX 31081 12510 41/09 63304 10034 20030 38393 48511 53013 74144 862// 333 91208 444 68//8 555 90005=
12510,2015,07,31,09,00,AAXX 31091 12510 41/09 73204 10038 20035 38397 48514 52014 74144 872// 333 91111 91209 444 78//8=
12510,2015,07,31,10,00,AAXX 31101 12510 41184 63303 10048 20031 38400 48517 51014 72822 862// 333 91206 555 90005=
12510,2015,07,31,11,00,AAXX 31111 12510 42184 63603 10057 20032 38403 48520 52010 862// 333 91110 91205 555 90005=
12510,2015,07,31,12,00,AAXX 31121 12510 11284 63505 10055 20032 38404 48521 52007 60001 70241 862// 333 91111 91209 93000=
12510,2015,07,31,13,00,AAXX 31131 12510 42384 63605 10057 20030 38404 48521 51004 862// 333 91205 555 57014 90005=
12510,2015,07,31,14,00,AAXX 31141 12510 42384 63604 10062 20030 38405 48521 52002 862// 333 91205 555 90005=
12510,2015,07,31,15,00,AAXX 31151 12510 42384 53504 10065 20029 38404 48520 54000 85200 333 91109 91205=
12510,2015,07,31,16,00,AAXX 31161 12510 42384 43603 10069 20035 38405 48521 52001 84400 333 91205 555 90005=
12510,2015,07,31,17,00,AAXX 31171 12510 42384 43404 10066 20032 38403 48519 57002 82405 333 91205 555 90005=
12510,2015,07,31,18,00,AAXX 31181 12510 12384 33504 10062 20034 38405 48521 52001 60002 81408 333 10075 20027 91109 91205 93000=
12510,2015,07,31,19,00,AAXX 31191 12510 42984 33501 10059 20032 38408 48524 53003 80006 333 91203 555 57017 90005=
12510,2015,07,31,20,00,AAXX 31201 12510 42984 22004 10065 20028 38407 48523 50004 80008 333 91204 555 0//// 1//// 2//// 3//// 90005=
12510,2015,07,31,21,00,AAXX 31211 12510 42984 12005 10061 20027 38407 48523 51002 80001 333 91205=
12510,2015,07,31,22,00,AAXX 31221 12510 42984 12007 10072 20017 38404 48520 57004 80001 333 91207 555 60049 90005=
12510,2015,07,31,23,00,AAXX 31231 12510 42984 11908 10069 20018 38404 48520 57003 80001 333 91208 555 90005=
12510,2015,08,01,00,00,AAXX 01001 12510 12984 11908 10074 20021 38403 48519 57004 60001 80001 333 91208 93000=